<?xml version="1.0" encoding="utf-8"?>
<kml xmlns="http://www.opengis.net/kml/2.2">
  <Document>
    <name>18/150453/162247.kml</name>
    <description></description>
    <Style>
      <ListStyle id="hideChildren">
        <listItemType>checkHideChildren</listItemType>
      </ListStyle>
    </Style>
    <Region>
      <LatLonAltBox>
        <north>39.30880029600291</north>
        <south>39.30773771373956</south>
        <east>26.61712646484374</east>
        <west>26.61575317382811</west>
      </LatLonAltBox>
      <Lod>
        <minLodPixels>128</minLodPixels>
        <maxLodPixels>2048</maxLodPixels>
      </Lod>
    </Region>
    <GroundOverlay>
      <drawOrder>36</drawOrder>
      <Icon>
        <href>162247.png</href>
      </Icon>
      <LatLonBox>
        <north>39.30880029600291</north>
        <south>39.30773771373956</south>
        <east>26.61712646484374</east>
        <west>26.61575317382811</west>
      </LatLonBox>
    </GroundOverlay>

    <NetworkLink>
      <name>19/300906/324494.png</name>
      <Region>
        <LatLonAltBox>
          <north>39.30826900688798</north>
          <south>39.30773771373956</south>
          <east>26.61643981933592</east>
          <west>26.61575317382811</west>
        </LatLonAltBox>
        <Lod>
          <minLodPixels>128</minLodPixels>
          <maxLodPixels>-1</maxLodPixels>
        </Lod>
      </Region>
      <Link>
        <href>../../19/300906/324494.kml</href>
        <viewRefreshMode>onRegion</viewRefreshMode>
        <viewFormat/>
      </Link>
    </NetworkLink>
        
    <NetworkLink>
      <name>19/300907/324494.png</name>
      <Region>
        <LatLonAltBox>
          <north>39.30826900688798</north>
          <south>39.30773771373956</south>
          <east>26.61712646484374</east>
          <west>26.61643981933592</west>
        </LatLonAltBox>
        <Lod>
          <minLodPixels>128</minLodPixels>
          <maxLodPixels>-1</maxLodPixels>
        </Lod>
      </Region>
      <Link>
        <href>../../19/300907/324494.kml</href>
        <viewRefreshMode>onRegion</viewRefreshMode>
        <viewFormat/>
      </Link>
    </NetworkLink>
        
    <NetworkLink>
      <name>19/300906/324495.png</name>
      <Region>
        <LatLonAltBox>
          <north>39.30880029600291</north>
          <south>39.30826900688798</south>
          <east>26.61643981933592</east>
          <west>26.61575317382811</west>
        </LatLonAltBox>
        <Lod>
          <minLodPixels>128</minLodPixels>
          <maxLodPixels>-1</maxLodPixels>
        </Lod>
      </Region>
      <Link>
        <href>../../19/300906/324495.kml</href>
        <viewRefreshMode>onRegion</viewRefreshMode>
        <viewFormat/>
      </Link>
    </NetworkLink>
        
    <NetworkLink>
      <name>19/300907/324495.png</name>
      <Region>
        <LatLonAltBox>
          <north>39.30880029600291</north>
          <south>39.30826900688798</south>
          <east>26.61712646484374</east>
          <west>26.61643981933592</west>
        </LatLonAltBox>
        <Lod>
          <minLodPixels>128</minLodPixels>
          <maxLodPixels>-1</maxLodPixels>
        </Lod>
      </Region>
      <Link>
        <href>../../19/300907/324495.kml</href>
        <viewRefreshMode>onRegion</viewRefreshMode>
        <viewFormat/>
      </Link>
    </NetworkLink>
              </Document>
</kml>
    