<?xml version="1.0" encoding="utf-8"?>
<kml xmlns="http://www.opengis.net/kml/2.2">
  <Document>
    <name>17/75234/81137.kml</name>
    <description></description>
    <Style>
      <ListStyle id="hideChildren">
        <listItemType>checkHideChildren</listItemType>
      </ListStyle>
    </Style>
    <Region>
      <LatLonAltBox>
        <north>39.33854604847979</north>
        <south>39.33642177141801</south>
        <east>26.63909912109375</east>
        <west>26.63635253906250</west>
      </LatLonAltBox>
      <Lod>
        <minLodPixels>128</minLodPixels>
        <maxLodPixels>2048</maxLodPixels>
      </Lod>
    </Region>
    <GroundOverlay>
      <drawOrder>34</drawOrder>
      <Icon>
        <href>81137.png</href>
      </Icon>
      <LatLonBox>
        <north>39.33854604847979</north>
        <south>39.33642177141801</south>
        <east>26.63909912109375</east>
        <west>26.63635253906250</west>
      </LatLonBox>
    </GroundOverlay>

    <NetworkLink>
      <name>18/150468/162274.png</name>
      <Region>
        <LatLonAltBox>
          <north>39.33748391801758</north>
          <south>39.33642177141801</south>
          <east>26.63772583007813</east>
          <west>26.63635253906250</west>
        </LatLonAltBox>
        <Lod>
          <minLodPixels>128</minLodPixels>
          <maxLodPixels>-1</maxLodPixels>
        </Lod>
      </Region>
      <Link>
        <href>../../18/150468/162274.kml</href>
        <viewRefreshMode>onRegion</viewRefreshMode>
        <viewFormat/>
      </Link>
    </NetworkLink>
        
    <NetworkLink>
      <name>18/150469/162274.png</name>
      <Region>
        <LatLonAltBox>
          <north>39.33748391801758</north>
          <south>39.33642177141801</south>
          <east>26.63909912109375</east>
          <west>26.63772583007813</west>
        </LatLonAltBox>
        <Lod>
          <minLodPixels>128</minLodPixels>
          <maxLodPixels>-1</maxLodPixels>
        </Lod>
      </Region>
      <Link>
        <href>../../18/150469/162274.kml</href>
        <viewRefreshMode>onRegion</viewRefreshMode>
        <viewFormat/>
      </Link>
    </NetworkLink>
        
    <NetworkLink>
      <name>18/150468/162275.png</name>
      <Region>
        <LatLonAltBox>
          <north>39.33854604847979</north>
          <south>39.33748391801758</south>
          <east>26.63772583007813</east>
          <west>26.63635253906250</west>
        </LatLonAltBox>
        <Lod>
          <minLodPixels>128</minLodPixels>
          <maxLodPixels>-1</maxLodPixels>
        </Lod>
      </Region>
      <Link>
        <href>../../18/150468/162275.kml</href>
        <viewRefreshMode>onRegion</viewRefreshMode>
        <viewFormat/>
      </Link>
    </NetworkLink>
        
    <NetworkLink>
      <name>18/150469/162275.png</name>
      <Region>
        <LatLonAltBox>
          <north>39.33854604847979</north>
          <south>39.33748391801758</south>
          <east>26.63909912109375</east>
          <west>26.63772583007813</west>
        </LatLonAltBox>
        <Lod>
          <minLodPixels>128</minLodPixels>
          <maxLodPixels>-1</maxLodPixels>
        </Lod>
      </Region>
      <Link>
        <href>../../18/150469/162275.kml</href>
        <viewRefreshMode>onRegion</viewRefreshMode>
        <viewFormat/>
      </Link>
    </NetworkLink>
              </Document>
</kml>
    