<?xml version="1.0" encoding="utf-8"?>
<kml xmlns="http://www.opengis.net/kml/2.2">
  <Document>
    <name>19/300992/324575.kml</name>
    <description></description>
    <Style>
      <ListStyle id="hideChildren">
        <listItemType>checkHideChildren</listItemType>
      </ListStyle>
    </Style>
    <Region>
      <LatLonAltBox>
        <north>39.35129035526705</north>
        <south>39.35075938888224</south>
        <east>26.67549133300782</east>
        <west>26.67480468750000</west>
      </LatLonAltBox>
      <Lod>
        <minLodPixels>128</minLodPixels>
        <maxLodPixels>-1</maxLodPixels>
      </Lod>
    </Region>
    <GroundOverlay>
      <drawOrder>38</drawOrder>
      <Icon>
        <href>324575.png</href>
      </Icon>
      <LatLonBox>
        <north>39.35129035526705</north>
        <south>39.35075938888224</south>
        <east>26.67549133300782</east>
        <west>26.67480468750000</west>
      </LatLonBox>
    </GroundOverlay>
      </Document>
</kml>
    