<?xml version="1.0" encoding="utf-8"?>
<kml xmlns="http://www.opengis.net/kml/2.2">
  <Document>
    <name>18/150509/162241.kml</name>
    <description></description>
    <Style>
      <ListStyle id="hideChildren">
        <listItemType>checkHideChildren</listItemType>
      </ListStyle>
    </Style>
    <Region>
      <LatLonAltBox>
        <north>39.30242456041487</north>
        <south>39.30136188134922</south>
        <east>26.69403076171874</east>
        <west>26.69265747070312</west>
      </LatLonAltBox>
      <Lod>
        <minLodPixels>128</minLodPixels>
        <maxLodPixels>2048</maxLodPixels>
      </Lod>
    </Region>
    <GroundOverlay>
      <drawOrder>36</drawOrder>
      <Icon>
        <href>162241.png</href>
      </Icon>
      <LatLonBox>
        <north>39.30242456041487</north>
        <south>39.30136188134922</south>
        <east>26.69403076171874</east>
        <west>26.69265747070312</west>
      </LatLonBox>
    </GroundOverlay>

    <NetworkLink>
      <name>19/301018/324482.png</name>
      <Region>
        <LatLonAltBox>
          <north>39.30189322289872</north>
          <south>39.30136188134922</south>
          <east>26.69334411621093</east>
          <west>26.69265747070312</west>
        </LatLonAltBox>
        <Lod>
          <minLodPixels>128</minLodPixels>
          <maxLodPixels>-1</maxLodPixels>
        </Lod>
      </Region>
      <Link>
        <href>../../19/301018/324482.kml</href>
        <viewRefreshMode>onRegion</viewRefreshMode>
        <viewFormat/>
      </Link>
    </NetworkLink>
        
    <NetworkLink>
      <name>19/301019/324482.png</name>
      <Region>
        <LatLonAltBox>
          <north>39.30189322289872</north>
          <south>39.30136188134922</south>
          <east>26.69403076171874</east>
          <west>26.69334411621093</west>
        </LatLonAltBox>
        <Lod>
          <minLodPixels>128</minLodPixels>
          <maxLodPixels>-1</maxLodPixels>
        </Lod>
      </Region>
      <Link>
        <href>../../19/301019/324482.kml</href>
        <viewRefreshMode>onRegion</viewRefreshMode>
        <viewFormat/>
      </Link>
    </NetworkLink>
        
    <NetworkLink>
      <name>19/301018/324483.png</name>
      <Region>
        <LatLonAltBox>
          <north>39.30242456041487</north>
          <south>39.30189322289872</south>
          <east>26.69334411621093</east>
          <west>26.69265747070312</west>
        </LatLonAltBox>
        <Lod>
          <minLodPixels>128</minLodPixels>
          <maxLodPixels>-1</maxLodPixels>
        </Lod>
      </Region>
      <Link>
        <href>../../19/301018/324483.kml</href>
        <viewRefreshMode>onRegion</viewRefreshMode>
        <viewFormat/>
      </Link>
    </NetworkLink>
        
    <NetworkLink>
      <name>19/301019/324483.png</name>
      <Region>
        <LatLonAltBox>
          <north>39.30242456041487</north>
          <south>39.30189322289872</south>
          <east>26.69403076171874</east>
          <west>26.69334411621093</west>
        </LatLonAltBox>
        <Lod>
          <minLodPixels>128</minLodPixels>
          <maxLodPixels>-1</maxLodPixels>
        </Lod>
      </Region>
      <Link>
        <href>../../19/301019/324483.kml</href>
        <viewRefreshMode>onRegion</viewRefreshMode>
        <viewFormat/>
      </Link>
    </NetworkLink>
              </Document>
</kml>
    