<?xml version="1.0" encoding="utf-8"?>
<kml xmlns="http://www.opengis.net/kml/2.2">
  <Document>
    <name>18/150495/162301.kml</name>
    <description></description>
    <Style>
      <ListStyle id="hideChildren">
        <listItemType>checkHideChildren</listItemType>
      </ListStyle>
    </Style>
    <Region>
      <LatLonAltBox>
        <north>39.36615577588528</north>
        <south>39.36509406503689</south>
        <east>26.67480468750000</east>
        <west>26.67343139648439</west>
      </LatLonAltBox>
      <Lod>
        <minLodPixels>128</minLodPixels>
        <maxLodPixels>2048</maxLodPixels>
      </Lod>
    </Region>
    <GroundOverlay>
      <drawOrder>36</drawOrder>
      <Icon>
        <href>162301.png</href>
      </Icon>
      <LatLonBox>
        <north>39.36615577588528</north>
        <south>39.36509406503689</south>
        <east>26.67480468750000</east>
        <west>26.67343139648439</west>
      </LatLonBox>
    </GroundOverlay>

    <NetworkLink>
      <name>19/300990/324602.png</name>
      <Region>
        <LatLonAltBox>
          <north>39.36562492247863</north>
          <south>39.36509406503689</south>
          <east>26.67411804199220</east>
          <west>26.67343139648439</west>
        </LatLonAltBox>
        <Lod>
          <minLodPixels>128</minLodPixels>
          <maxLodPixels>-1</maxLodPixels>
        </Lod>
      </Region>
      <Link>
        <href>../../19/300990/324602.kml</href>
        <viewRefreshMode>onRegion</viewRefreshMode>
        <viewFormat/>
      </Link>
    </NetworkLink>
        
    <NetworkLink>
      <name>19/300991/324602.png</name>
      <Region>
        <LatLonAltBox>
          <north>39.36562492247863</north>
          <south>39.36509406503689</south>
          <east>26.67480468750000</east>
          <west>26.67411804199220</west>
        </LatLonAltBox>
        <Lod>
          <minLodPixels>128</minLodPixels>
          <maxLodPixels>-1</maxLodPixels>
        </Lod>
      </Region>
      <Link>
        <href>../../19/300991/324602.kml</href>
        <viewRefreshMode>onRegion</viewRefreshMode>
        <viewFormat/>
      </Link>
    </NetworkLink>
        
    <NetworkLink>
      <name>19/300990/324603.png</name>
      <Region>
        <LatLonAltBox>
          <north>39.36615577588528</north>
          <south>39.36562492247863</south>
          <east>26.67411804199220</east>
          <west>26.67343139648439</west>
        </LatLonAltBox>
        <Lod>
          <minLodPixels>128</minLodPixels>
          <maxLodPixels>-1</maxLodPixels>
        </Lod>
      </Region>
      <Link>
        <href>../../19/300990/324603.kml</href>
        <viewRefreshMode>onRegion</viewRefreshMode>
        <viewFormat/>
      </Link>
    </NetworkLink>
        
    <NetworkLink>
      <name>19/300991/324603.png</name>
      <Region>
        <LatLonAltBox>
          <north>39.36615577588528</north>
          <south>39.36562492247863</south>
          <east>26.67480468750000</east>
          <west>26.67411804199220</west>
        </LatLonAltBox>
        <Lod>
          <minLodPixels>128</minLodPixels>
          <maxLodPixels>-1</maxLodPixels>
        </Lod>
      </Region>
      <Link>
        <href>../../19/300991/324603.kml</href>
        <viewRefreshMode>onRegion</viewRefreshMode>
        <viewFormat/>
      </Link>
    </NetworkLink>
              </Document>
</kml>
    