<?xml version="1.0" encoding="utf-8"?>
<kml xmlns="http://www.opengis.net/kml/2.2">
  <Document>
    <name>16/37616/40563.kml</name>
    <description></description>
    <Style>
      <ListStyle id="hideChildren">
        <listItemType>checkHideChildren</listItemType>
      </ListStyle>
    </Style>
    <Region>
      <LatLonAltBox>
        <north>39.31730037327102</north>
        <south>39.31305046371388</south>
        <east>26.63635253906250</east>
        <west>26.63085937500001</west>
      </LatLonAltBox>
      <Lod>
        <minLodPixels>128</minLodPixels>
        <maxLodPixels>2048</maxLodPixels>
      </Lod>
    </Region>
    <GroundOverlay>
      <drawOrder>32</drawOrder>
      <Icon>
        <href>40563.png</href>
      </Icon>
      <LatLonBox>
        <north>39.31730037327102</north>
        <south>39.31305046371388</south>
        <east>26.63635253906250</east>
        <west>26.63085937500001</west>
      </LatLonBox>
    </GroundOverlay>

    <NetworkLink>
      <name>17/75232/81126.png</name>
      <Region>
        <LatLonAltBox>
          <north>39.31517545076215</north>
          <south>39.31305046371388</south>
          <east>26.63360595703125</east>
          <west>26.63085937500001</west>
        </LatLonAltBox>
        <Lod>
          <minLodPixels>128</minLodPixels>
          <maxLodPixels>-1</maxLodPixels>
        </Lod>
      </Region>
      <Link>
        <href>../../17/75232/81126.kml</href>
        <viewRefreshMode>onRegion</viewRefreshMode>
        <viewFormat/>
      </Link>
    </NetworkLink>
        
    <NetworkLink>
      <name>17/75233/81126.png</name>
      <Region>
        <LatLonAltBox>
          <north>39.31517545076215</north>
          <south>39.31305046371388</south>
          <east>26.63635253906250</east>
          <west>26.63360595703125</west>
        </LatLonAltBox>
        <Lod>
          <minLodPixels>128</minLodPixels>
          <maxLodPixels>-1</maxLodPixels>
        </Lod>
      </Region>
      <Link>
        <href>../../17/75233/81126.kml</href>
        <viewRefreshMode>onRegion</viewRefreshMode>
        <viewFormat/>
      </Link>
    </NetworkLink>
        
    <NetworkLink>
      <name>17/75232/81127.png</name>
      <Region>
        <LatLonAltBox>
          <north>39.31730037327102</north>
          <south>39.31517545076215</south>
          <east>26.63360595703125</east>
          <west>26.63085937500001</west>
        </LatLonAltBox>
        <Lod>
          <minLodPixels>128</minLodPixels>
          <maxLodPixels>-1</maxLodPixels>
        </Lod>
      </Region>
      <Link>
        <href>../../17/75232/81127.kml</href>
        <viewRefreshMode>onRegion</viewRefreshMode>
        <viewFormat/>
      </Link>
    </NetworkLink>
        
    <NetworkLink>
      <name>17/75233/81127.png</name>
      <Region>
        <LatLonAltBox>
          <north>39.31730037327102</north>
          <south>39.31517545076215</south>
          <east>26.63635253906250</east>
          <west>26.63360595703125</west>
        </LatLonAltBox>
        <Lod>
          <minLodPixels>128</minLodPixels>
          <maxLodPixels>-1</maxLodPixels>
        </Lod>
      </Region>
      <Link>
        <href>../../17/75233/81127.kml</href>
        <viewRefreshMode>onRegion</viewRefreshMode>
        <viewFormat/>
      </Link>
    </NetworkLink>
              </Document>
</kml>
    