<?xml version="1.0" encoding="utf-8"?>
<kml xmlns="http://www.opengis.net/kml/2.2">
  <Document>
    <name>17/75266/81156.kml</name>
    <description></description>
    <Style>
      <ListStyle id="hideChildren">
        <listItemType>checkHideChildren</listItemType>
      </ListStyle>
    </Style>
    <Region>
      <LatLonAltBox>
        <north>39.37889504706486</north>
        <south>39.37677199661635</south>
        <east>26.72698974609375</east>
        <west>26.72424316406250</west>
      </LatLonAltBox>
      <Lod>
        <minLodPixels>128</minLodPixels>
        <maxLodPixels>2048</maxLodPixels>
      </Lod>
    </Region>
    <GroundOverlay>
      <drawOrder>34</drawOrder>
      <Icon>
        <href>81156.png</href>
      </Icon>
      <LatLonBox>
        <north>39.37889504706486</north>
        <south>39.37677199661635</south>
        <east>26.72698974609375</east>
        <west>26.72424316406250</west>
      </LatLonBox>
    </GroundOverlay>

    <NetworkLink>
      <name>18/150532/162312.png</name>
      <Region>
        <LatLonAltBox>
          <north>39.37783352991156</north>
          <south>39.37677199661635</south>
          <east>26.72561645507812</east>
          <west>26.72424316406250</west>
        </LatLonAltBox>
        <Lod>
          <minLodPixels>128</minLodPixels>
          <maxLodPixels>-1</maxLodPixels>
        </Lod>
      </Region>
      <Link>
        <href>../../18/150532/162312.kml</href>
        <viewRefreshMode>onRegion</viewRefreshMode>
        <viewFormat/>
      </Link>
    </NetworkLink>
        
    <NetworkLink>
      <name>18/150533/162312.png</name>
      <Region>
        <LatLonAltBox>
          <north>39.37783352991156</north>
          <south>39.37677199661635</south>
          <east>26.72698974609375</east>
          <west>26.72561645507812</west>
        </LatLonAltBox>
        <Lod>
          <minLodPixels>128</minLodPixels>
          <maxLodPixels>-1</maxLodPixels>
        </Lod>
      </Region>
      <Link>
        <href>../../18/150533/162312.kml</href>
        <viewRefreshMode>onRegion</viewRefreshMode>
        <viewFormat/>
      </Link>
    </NetworkLink>
        
    <NetworkLink>
      <name>18/150532/162313.png</name>
      <Region>
        <LatLonAltBox>
          <north>39.37889504706486</north>
          <south>39.37783352991156</south>
          <east>26.72561645507812</east>
          <west>26.72424316406250</west>
        </LatLonAltBox>
        <Lod>
          <minLodPixels>128</minLodPixels>
          <maxLodPixels>-1</maxLodPixels>
        </Lod>
      </Region>
      <Link>
        <href>../../18/150532/162313.kml</href>
        <viewRefreshMode>onRegion</viewRefreshMode>
        <viewFormat/>
      </Link>
    </NetworkLink>
        
    <NetworkLink>
      <name>18/150533/162313.png</name>
      <Region>
        <LatLonAltBox>
          <north>39.37889504706486</north>
          <south>39.37783352991156</south>
          <east>26.72698974609375</east>
          <west>26.72561645507812</west>
        </LatLonAltBox>
        <Lod>
          <minLodPixels>128</minLodPixels>
          <maxLodPixels>-1</maxLodPixels>
        </Lod>
      </Region>
      <Link>
        <href>../../18/150533/162313.kml</href>
        <viewRefreshMode>onRegion</viewRefreshMode>
        <viewFormat/>
      </Link>
    </NetworkLink>
              </Document>
</kml>
    