<?xml version="1.0" encoding="utf-8"?>
<kml xmlns="http://www.opengis.net/kml/2.2">
  <Document>
    <name>18/150505/162246.kml</name>
    <description></description>
    <Style>
      <ListStyle id="hideChildren">
        <listItemType>checkHideChildren</listItemType>
      </ListStyle>
    </Style>
    <Region>
      <LatLonAltBox>
        <north>39.30773771373956</north>
        <south>39.30667511534213</south>
        <east>26.68853759765625</east>
        <west>26.68716430664062</west>
      </LatLonAltBox>
      <Lod>
        <minLodPixels>128</minLodPixels>
        <maxLodPixels>2048</maxLodPixels>
      </Lod>
    </Region>
    <GroundOverlay>
      <drawOrder>36</drawOrder>
      <Icon>
        <href>162246.png</href>
      </Icon>
      <LatLonBox>
        <north>39.30773771373956</north>
        <south>39.30667511534213</south>
        <east>26.68853759765625</east>
        <west>26.68716430664062</west>
      </LatLonBox>
    </GroundOverlay>

    <NetworkLink>
      <name>19/301010/324492.png</name>
      <Region>
        <LatLonAltBox>
          <north>39.30720641655760</north>
          <south>39.30667511534213</south>
          <east>26.68785095214843</east>
          <west>26.68716430664062</west>
        </LatLonAltBox>
        <Lod>
          <minLodPixels>128</minLodPixels>
          <maxLodPixels>-1</maxLodPixels>
        </Lod>
      </Region>
      <Link>
        <href>../../19/301010/324492.kml</href>
        <viewRefreshMode>onRegion</viewRefreshMode>
        <viewFormat/>
      </Link>
    </NetworkLink>
        
    <NetworkLink>
      <name>19/301011/324492.png</name>
      <Region>
        <LatLonAltBox>
          <north>39.30720641655760</north>
          <south>39.30667511534213</south>
          <east>26.68853759765625</east>
          <west>26.68785095214843</west>
        </LatLonAltBox>
        <Lod>
          <minLodPixels>128</minLodPixels>
          <maxLodPixels>-1</maxLodPixels>
        </Lod>
      </Region>
      <Link>
        <href>../../19/301011/324492.kml</href>
        <viewRefreshMode>onRegion</viewRefreshMode>
        <viewFormat/>
      </Link>
    </NetworkLink>
        
    <NetworkLink>
      <name>19/301010/324493.png</name>
      <Region>
        <LatLonAltBox>
          <north>39.30773771373956</north>
          <south>39.30720641655760</south>
          <east>26.68785095214843</east>
          <west>26.68716430664062</west>
        </LatLonAltBox>
        <Lod>
          <minLodPixels>128</minLodPixels>
          <maxLodPixels>-1</maxLodPixels>
        </Lod>
      </Region>
      <Link>
        <href>../../19/301010/324493.kml</href>
        <viewRefreshMode>onRegion</viewRefreshMode>
        <viewFormat/>
      </Link>
    </NetworkLink>
        
    <NetworkLink>
      <name>19/301011/324493.png</name>
      <Region>
        <LatLonAltBox>
          <north>39.30773771373956</north>
          <south>39.30720641655760</south>
          <east>26.68853759765625</east>
          <west>26.68785095214843</west>
        </LatLonAltBox>
        <Lod>
          <minLodPixels>128</minLodPixels>
          <maxLodPixels>-1</maxLodPixels>
        </Lod>
      </Region>
      <Link>
        <href>../../19/301011/324493.kml</href>
        <viewRefreshMode>onRegion</viewRefreshMode>
        <viewFormat/>
      </Link>
    </NetworkLink>
              </Document>
</kml>
    