<?xml version="1.0" encoding="utf-8"?>
<kml xmlns="http://www.opengis.net/kml/2.2">
  <Document>
    <name>18/150537/162254.kml</name>
    <description></description>
    <Style>
      <ListStyle id="hideChildren">
        <listItemType>checkHideChildren</listItemType>
      </ListStyle>
    </Style>
    <Region>
      <LatLonAltBox>
        <north>39.31623792008407</north>
        <south>39.31517545076215</south>
        <east>26.73248291015625</east>
        <west>26.73110961914062</west>
      </LatLonAltBox>
      <Lod>
        <minLodPixels>128</minLodPixels>
        <maxLodPixels>2048</maxLodPixels>
      </Lod>
    </Region>
    <GroundOverlay>
      <drawOrder>36</drawOrder>
      <Icon>
        <href>162254.png</href>
      </Icon>
      <LatLonBox>
        <north>39.31623792008407</north>
        <south>39.31517545076215</south>
        <east>26.73248291015625</east>
        <west>26.73110961914062</west>
      </LatLonBox>
    </GroundOverlay>

    <NetworkLink>
      <name>19/301074/324508.png</name>
      <Region>
        <LatLonAltBox>
          <north>39.31570668743999</north>
          <south>39.31517545076215</south>
          <east>26.73179626464843</east>
          <west>26.73110961914062</west>
        </LatLonAltBox>
        <Lod>
          <minLodPixels>128</minLodPixels>
          <maxLodPixels>-1</maxLodPixels>
        </Lod>
      </Region>
      <Link>
        <href>../../19/301074/324508.kml</href>
        <viewRefreshMode>onRegion</viewRefreshMode>
        <viewFormat/>
      </Link>
    </NetworkLink>
        
    <NetworkLink>
      <name>19/301074/324509.png</name>
      <Region>
        <LatLonAltBox>
          <north>39.31623792008407</north>
          <south>39.31570668743999</south>
          <east>26.73179626464843</east>
          <west>26.73110961914062</west>
        </LatLonAltBox>
        <Lod>
          <minLodPixels>128</minLodPixels>
          <maxLodPixels>-1</maxLodPixels>
        </Lod>
      </Region>
      <Link>
        <href>../../19/301074/324509.kml</href>
        <viewRefreshMode>onRegion</viewRefreshMode>
        <viewFormat/>
      </Link>
    </NetworkLink>
              </Document>
</kml>
    