<?xml version="1.0" encoding="utf-8"?>
<kml xmlns="http://www.opengis.net/kml/2.2">
  <Document>
    <name>18/150464/162282.kml</name>
    <description></description>
    <Style>
      <ListStyle id="hideChildren">
        <listItemType>checkHideChildren</listItemType>
      </ListStyle>
    </Style>
    <Region>
      <LatLonAltBox>
        <north>39.34598050985849</north>
        <south>39.34491849236127</south>
        <east>26.63223266601563</east>
        <west>26.63085937500001</west>
      </LatLonAltBox>
      <Lod>
        <minLodPixels>128</minLodPixels>
        <maxLodPixels>2048</maxLodPixels>
      </Lod>
    </Region>
    <GroundOverlay>
      <drawOrder>36</drawOrder>
      <Icon>
        <href>162282.png</href>
      </Icon>
      <LatLonBox>
        <north>39.34598050985849</north>
        <south>39.34491849236127</south>
        <east>26.63223266601563</east>
        <west>26.63085937500001</west>
      </LatLonBox>
    </GroundOverlay>

    <NetworkLink>
      <name>19/300928/324564.png</name>
      <Region>
        <LatLonAltBox>
          <north>39.34544950312715</north>
          <south>39.34491849236127</south>
          <east>26.63154602050782</east>
          <west>26.63085937500001</west>
        </LatLonAltBox>
        <Lod>
          <minLodPixels>128</minLodPixels>
          <maxLodPixels>-1</maxLodPixels>
        </Lod>
      </Region>
      <Link>
        <href>../../19/300928/324564.kml</href>
        <viewRefreshMode>onRegion</viewRefreshMode>
        <viewFormat/>
      </Link>
    </NetworkLink>
        
    <NetworkLink>
      <name>19/300929/324564.png</name>
      <Region>
        <LatLonAltBox>
          <north>39.34544950312715</north>
          <south>39.34491849236127</south>
          <east>26.63223266601563</east>
          <west>26.63154602050782</west>
        </LatLonAltBox>
        <Lod>
          <minLodPixels>128</minLodPixels>
          <maxLodPixels>-1</maxLodPixels>
        </Lod>
      </Region>
      <Link>
        <href>../../19/300929/324564.kml</href>
        <viewRefreshMode>onRegion</viewRefreshMode>
        <viewFormat/>
      </Link>
    </NetworkLink>
        
    <NetworkLink>
      <name>19/300928/324565.png</name>
      <Region>
        <LatLonAltBox>
          <north>39.34598050985849</north>
          <south>39.34544950312715</south>
          <east>26.63154602050782</east>
          <west>26.63085937500001</west>
        </LatLonAltBox>
        <Lod>
          <minLodPixels>128</minLodPixels>
          <maxLodPixels>-1</maxLodPixels>
        </Lod>
      </Region>
      <Link>
        <href>../../19/300928/324565.kml</href>
        <viewRefreshMode>onRegion</viewRefreshMode>
        <viewFormat/>
      </Link>
    </NetworkLink>
        
    <NetworkLink>
      <name>19/300929/324565.png</name>
      <Region>
        <LatLonAltBox>
          <north>39.34598050985849</north>
          <south>39.34544950312715</south>
          <east>26.63223266601563</east>
          <west>26.63154602050782</west>
        </LatLonAltBox>
        <Lod>
          <minLodPixels>128</minLodPixels>
          <maxLodPixels>-1</maxLodPixels>
        </Lod>
      </Region>
      <Link>
        <href>../../19/300929/324565.kml</href>
        <viewRefreshMode>onRegion</viewRefreshMode>
        <viewFormat/>
      </Link>
    </NetworkLink>
              </Document>
</kml>
    