<?xml version="1.0" encoding="utf-8"?>
<kml xmlns="http://www.opengis.net/kml/2.2">
  <Document>
    <name>18/150464/162277.kml</name>
    <description></description>
    <Style>
      <ListStyle id="hideChildren">
        <listItemType>checkHideChildren</listItemType>
      </ListStyle>
    </Style>
    <Region>
      <LatLonAltBox>
        <north>39.34067026099156</north>
        <south>39.33960816280447</south>
        <east>26.63223266601563</east>
        <west>26.63085937500001</west>
      </LatLonAltBox>
      <Lod>
        <minLodPixels>128</minLodPixels>
        <maxLodPixels>2048</maxLodPixels>
      </Lod>
    </Region>
    <GroundOverlay>
      <drawOrder>36</drawOrder>
      <Icon>
        <href>162277.png</href>
      </Icon>
      <LatLonBox>
        <north>39.34067026099156</north>
        <south>39.33960816280447</south>
        <east>26.63223266601563</east>
        <west>26.63085937500001</west>
      </LatLonBox>
    </GroundOverlay>

    <NetworkLink>
      <name>19/300928/324554.png</name>
      <Region>
        <LatLonAltBox>
          <north>39.34013921391522</north>
          <south>39.33960816280447</south>
          <east>26.63154602050782</east>
          <west>26.63085937500001</west>
        </LatLonAltBox>
        <Lod>
          <minLodPixels>128</minLodPixels>
          <maxLodPixels>-1</maxLodPixels>
        </Lod>
      </Region>
      <Link>
        <href>../../19/300928/324554.kml</href>
        <viewRefreshMode>onRegion</viewRefreshMode>
        <viewFormat/>
      </Link>
    </NetworkLink>
        
    <NetworkLink>
      <name>19/300929/324554.png</name>
      <Region>
        <LatLonAltBox>
          <north>39.34013921391522</north>
          <south>39.33960816280447</south>
          <east>26.63223266601563</east>
          <west>26.63154602050782</west>
        </LatLonAltBox>
        <Lod>
          <minLodPixels>128</minLodPixels>
          <maxLodPixels>-1</maxLodPixels>
        </Lod>
      </Region>
      <Link>
        <href>../../19/300929/324554.kml</href>
        <viewRefreshMode>onRegion</viewRefreshMode>
        <viewFormat/>
      </Link>
    </NetworkLink>
        
    <NetworkLink>
      <name>19/300928/324555.png</name>
      <Region>
        <LatLonAltBox>
          <north>39.34067026099156</north>
          <south>39.34013921391522</south>
          <east>26.63154602050782</east>
          <west>26.63085937500001</west>
        </LatLonAltBox>
        <Lod>
          <minLodPixels>128</minLodPixels>
          <maxLodPixels>-1</maxLodPixels>
        </Lod>
      </Region>
      <Link>
        <href>../../19/300928/324555.kml</href>
        <viewRefreshMode>onRegion</viewRefreshMode>
        <viewFormat/>
      </Link>
    </NetworkLink>
        
    <NetworkLink>
      <name>19/300929/324555.png</name>
      <Region>
        <LatLonAltBox>
          <north>39.34067026099156</north>
          <south>39.34013921391522</south>
          <east>26.63223266601563</east>
          <west>26.63154602050782</west>
        </LatLonAltBox>
        <Lod>
          <minLodPixels>128</minLodPixels>
          <maxLodPixels>-1</maxLodPixels>
        </Lod>
      </Region>
      <Link>
        <href>../../19/300929/324555.kml</href>
        <viewRefreshMode>onRegion</viewRefreshMode>
        <viewFormat/>
      </Link>
    </NetworkLink>
              </Document>
</kml>
    