<?xml version="1.0" encoding="utf-8"?>
<kml xmlns="http://www.opengis.net/kml/2.2">
  <Document>
    <name>16/37620/40576.kml</name>
    <description></description>
    <Style>
      <ListStyle id="hideChildren">
        <listItemType>checkHideChildren</listItemType>
      </ListStyle>
    </Style>
    <Region>
      <LatLonAltBox>
        <north>39.37252570201878</north>
        <south>39.36827914916011</south>
        <east>26.65832519531249</east>
        <west>26.65283203124999</west>
      </LatLonAltBox>
      <Lod>
        <minLodPixels>128</minLodPixels>
        <maxLodPixels>2048</maxLodPixels>
      </Lod>
    </Region>
    <GroundOverlay>
      <drawOrder>32</drawOrder>
      <Icon>
        <href>40576.png</href>
      </Icon>
      <LatLonBox>
        <north>39.37252570201878</north>
        <south>39.36827914916011</south>
        <east>26.65832519531249</east>
        <west>26.65283203124999</west>
      </LatLonBox>
    </GroundOverlay>

    <NetworkLink>
      <name>17/75240/81152.png</name>
      <Region>
        <LatLonAltBox>
          <north>39.37040245787161</north>
          <south>39.36827914916011</south>
          <east>26.65557861328124</east>
          <west>26.65283203124999</west>
        </LatLonAltBox>
        <Lod>
          <minLodPixels>128</minLodPixels>
          <maxLodPixels>-1</maxLodPixels>
        </Lod>
      </Region>
      <Link>
        <href>../../17/75240/81152.kml</href>
        <viewRefreshMode>onRegion</viewRefreshMode>
        <viewFormat/>
      </Link>
    </NetworkLink>
        
    <NetworkLink>
      <name>17/75241/81152.png</name>
      <Region>
        <LatLonAltBox>
          <north>39.37040245787161</north>
          <south>39.36827914916011</south>
          <east>26.65832519531249</east>
          <west>26.65557861328124</west>
        </LatLonAltBox>
        <Lod>
          <minLodPixels>128</minLodPixels>
          <maxLodPixels>-1</maxLodPixels>
        </Lod>
      </Region>
      <Link>
        <href>../../17/75241/81152.kml</href>
        <viewRefreshMode>onRegion</viewRefreshMode>
        <viewFormat/>
      </Link>
    </NetworkLink>
        
    <NetworkLink>
      <name>17/75240/81153.png</name>
      <Region>
        <LatLonAltBox>
          <north>39.37252570201878</north>
          <south>39.37040245787161</south>
          <east>26.65557861328124</east>
          <west>26.65283203124999</west>
        </LatLonAltBox>
        <Lod>
          <minLodPixels>128</minLodPixels>
          <maxLodPixels>-1</maxLodPixels>
        </Lod>
      </Region>
      <Link>
        <href>../../17/75240/81153.kml</href>
        <viewRefreshMode>onRegion</viewRefreshMode>
        <viewFormat/>
      </Link>
    </NetworkLink>
        
    <NetworkLink>
      <name>17/75241/81153.png</name>
      <Region>
        <LatLonAltBox>
          <north>39.37252570201878</north>
          <south>39.37040245787161</south>
          <east>26.65832519531249</east>
          <west>26.65557861328124</west>
        </LatLonAltBox>
        <Lod>
          <minLodPixels>128</minLodPixels>
          <maxLodPixels>-1</maxLodPixels>
        </Lod>
      </Region>
      <Link>
        <href>../../17/75241/81153.kml</href>
        <viewRefreshMode>onRegion</viewRefreshMode>
        <viewFormat/>
      </Link>
    </NetworkLink>
              </Document>
</kml>
    