<?xml version="1.0" encoding="utf-8"?>
<kml xmlns="http://www.opengis.net/kml/2.2">
  <Document>
    <name>17/75259/81152.kml</name>
    <description></description>
    <Style>
      <ListStyle id="hideChildren">
        <listItemType>checkHideChildren</listItemType>
      </ListStyle>
    </Style>
    <Region>
      <LatLonAltBox>
        <north>39.37040245787161</north>
        <south>39.36827914916011</south>
        <east>26.70776367187501</east>
        <west>26.70501708984374</west>
      </LatLonAltBox>
      <Lod>
        <minLodPixels>128</minLodPixels>
        <maxLodPixels>2048</maxLodPixels>
      </Lod>
    </Region>
    <GroundOverlay>
      <drawOrder>34</drawOrder>
      <Icon>
        <href>81152.png</href>
      </Icon>
      <LatLonBox>
        <north>39.37040245787161</north>
        <south>39.36827914916011</south>
        <east>26.70776367187501</east>
        <west>26.70501708984374</west>
      </LatLonBox>
    </GroundOverlay>

    <NetworkLink>
      <name>18/150518/162304.png</name>
      <Region>
        <LatLonAltBox>
          <north>39.36934081158634</north>
          <south>39.36827914916011</south>
          <east>26.70639038085939</east>
          <west>26.70501708984374</west>
        </LatLonAltBox>
        <Lod>
          <minLodPixels>128</minLodPixels>
          <maxLodPixels>-1</maxLodPixels>
        </Lod>
      </Region>
      <Link>
        <href>../../18/150518/162304.kml</href>
        <viewRefreshMode>onRegion</viewRefreshMode>
        <viewFormat/>
      </Link>
    </NetworkLink>
        
    <NetworkLink>
      <name>18/150519/162304.png</name>
      <Region>
        <LatLonAltBox>
          <north>39.36934081158634</north>
          <south>39.36827914916011</south>
          <east>26.70776367187501</east>
          <west>26.70639038085939</west>
        </LatLonAltBox>
        <Lod>
          <minLodPixels>128</minLodPixels>
          <maxLodPixels>-1</maxLodPixels>
        </Lod>
      </Region>
      <Link>
        <href>../../18/150519/162304.kml</href>
        <viewRefreshMode>onRegion</viewRefreshMode>
        <viewFormat/>
      </Link>
    </NetworkLink>
        
    <NetworkLink>
      <name>18/150518/162305.png</name>
      <Region>
        <LatLonAltBox>
          <north>39.37040245787161</north>
          <south>39.36934081158634</south>
          <east>26.70639038085939</east>
          <west>26.70501708984374</west>
        </LatLonAltBox>
        <Lod>
          <minLodPixels>128</minLodPixels>
          <maxLodPixels>-1</maxLodPixels>
        </Lod>
      </Region>
      <Link>
        <href>../../18/150518/162305.kml</href>
        <viewRefreshMode>onRegion</viewRefreshMode>
        <viewFormat/>
      </Link>
    </NetworkLink>
        
    <NetworkLink>
      <name>18/150519/162305.png</name>
      <Region>
        <LatLonAltBox>
          <north>39.37040245787161</north>
          <south>39.36934081158634</south>
          <east>26.70776367187501</east>
          <west>26.70639038085939</west>
        </LatLonAltBox>
        <Lod>
          <minLodPixels>128</minLodPixels>
          <maxLodPixels>-1</maxLodPixels>
        </Lod>
      </Region>
      <Link>
        <href>../../18/150519/162305.kml</href>
        <viewRefreshMode>onRegion</viewRefreshMode>
        <viewFormat/>
      </Link>
    </NetworkLink>
              </Document>
</kml>
    