<?xml version="1.0" encoding="utf-8"?>
<kml xmlns="http://www.opengis.net/kml/2.2">
  <Document>
    <name>16/37611/40567.kml</name>
    <description></description>
    <Style>
      <ListStyle id="hideChildren">
        <listItemType>checkHideChildren</listItemType>
      </ListStyle>
    </Style>
    <Region>
      <LatLonAltBox>
        <north>39.33429742980725</north>
        <south>39.33004855294242</south>
        <east>26.60888671874999</east>
        <west>26.60339355468750</west>
      </LatLonAltBox>
      <Lod>
        <minLodPixels>128</minLodPixels>
        <maxLodPixels>2048</maxLodPixels>
      </Lod>
    </Region>
    <GroundOverlay>
      <drawOrder>32</drawOrder>
      <Icon>
        <href>40567.png</href>
      </Icon>
      <LatLonBox>
        <north>39.33429742980725</north>
        <south>39.33004855294242</south>
        <east>26.60888671874999</east>
        <west>26.60339355468750</west>
      </LatLonBox>
    </GroundOverlay>

    <NetworkLink>
      <name>17/75223/81134.png</name>
      <Region>
        <LatLonAltBox>
          <north>39.33217302364838</north>
          <south>39.33004855294242</south>
          <east>26.60888671874999</east>
          <west>26.60614013671875</west>
        </LatLonAltBox>
        <Lod>
          <minLodPixels>128</minLodPixels>
          <maxLodPixels>-1</maxLodPixels>
        </Lod>
      </Region>
      <Link>
        <href>../../17/75223/81134.kml</href>
        <viewRefreshMode>onRegion</viewRefreshMode>
        <viewFormat/>
      </Link>
    </NetworkLink>
        
    <NetworkLink>
      <name>17/75223/81135.png</name>
      <Region>
        <LatLonAltBox>
          <north>39.33429742980725</north>
          <south>39.33217302364838</south>
          <east>26.60888671874999</east>
          <west>26.60614013671875</west>
        </LatLonAltBox>
        <Lod>
          <minLodPixels>128</minLodPixels>
          <maxLodPixels>-1</maxLodPixels>
        </Lod>
      </Region>
      <Link>
        <href>../../17/75223/81135.kml</href>
        <viewRefreshMode>onRegion</viewRefreshMode>
        <viewFormat/>
      </Link>
    </NetworkLink>
              </Document>
</kml>
    