<?xml version="1.0" encoding="utf-8"?>
<kml xmlns="http://www.opengis.net/kml/2.2">
  <Document>
    <name>19/301029/324528.kml</name>
    <description></description>
    <Style>
      <ListStyle id="hideChildren">
        <listItemType>checkHideChildren</listItemType>
      </ListStyle>
    </Style>
    <Region>
      <LatLonAltBox>
        <north>39.32633057389337</north>
        <south>39.32579941789298</south>
        <east>26.70089721679686</east>
        <west>26.70021057128905</west>
      </LatLonAltBox>
      <Lod>
        <minLodPixels>128</minLodPixels>
        <maxLodPixels>-1</maxLodPixels>
      </Lod>
    </Region>
    <GroundOverlay>
      <drawOrder>38</drawOrder>
      <Icon>
        <href>324528.png</href>
      </Icon>
      <LatLonBox>
        <north>39.32633057389337</north>
        <south>39.32579941789298</south>
        <east>26.70089721679686</east>
        <west>26.70021057128905</west>
      </LatLonBox>
    </GroundOverlay>
      </Document>
</kml>
    