<?xml version="1.0" encoding="utf-8"?>
<kml xmlns="http://www.opengis.net/kml/2.2">
  <Document>
    <name>18/150452/162244.kml</name>
    <description></description>
    <Style>
      <ListStyle id="hideChildren">
        <listItemType>checkHideChildren</listItemType>
      </ListStyle>
    </Style>
    <Region>
      <LatLonAltBox>
        <north>39.30561250081085</north>
        <south>39.30454987014581</south>
        <east>26.61575317382811</east>
        <west>26.61437988281249</west>
      </LatLonAltBox>
      <Lod>
        <minLodPixels>128</minLodPixels>
        <maxLodPixels>2048</maxLodPixels>
      </Lod>
    </Region>
    <GroundOverlay>
      <drawOrder>36</drawOrder>
      <Icon>
        <href>162244.png</href>
      </Icon>
      <LatLonBox>
        <north>39.30561250081085</north>
        <south>39.30454987014581</south>
        <east>26.61575317382811</east>
        <west>26.61437988281249</west>
      </LatLonBox>
    </GroundOverlay>

    <NetworkLink>
      <name>19/300904/324488.png</name>
      <Region>
        <LatLonAltBox>
          <north>39.30508118749506</north>
          <south>39.30454987014581</south>
          <east>26.61506652832030</east>
          <west>26.61437988281249</west>
        </LatLonAltBox>
        <Lod>
          <minLodPixels>128</minLodPixels>
          <maxLodPixels>-1</maxLodPixels>
        </Lod>
      </Region>
      <Link>
        <href>../../19/300904/324488.kml</href>
        <viewRefreshMode>onRegion</viewRefreshMode>
        <viewFormat/>
      </Link>
    </NetworkLink>
        
    <NetworkLink>
      <name>19/300905/324488.png</name>
      <Region>
        <LatLonAltBox>
          <north>39.30508118749506</north>
          <south>39.30454987014581</south>
          <east>26.61575317382811</east>
          <west>26.61506652832030</west>
        </LatLonAltBox>
        <Lod>
          <minLodPixels>128</minLodPixels>
          <maxLodPixels>-1</maxLodPixels>
        </Lod>
      </Region>
      <Link>
        <href>../../19/300905/324488.kml</href>
        <viewRefreshMode>onRegion</viewRefreshMode>
        <viewFormat/>
      </Link>
    </NetworkLink>
        
    <NetworkLink>
      <name>19/300904/324489.png</name>
      <Region>
        <LatLonAltBox>
          <north>39.30561250081085</north>
          <south>39.30508118749506</south>
          <east>26.61506652832030</east>
          <west>26.61437988281249</west>
        </LatLonAltBox>
        <Lod>
          <minLodPixels>128</minLodPixels>
          <maxLodPixels>-1</maxLodPixels>
        </Lod>
      </Region>
      <Link>
        <href>../../19/300904/324489.kml</href>
        <viewRefreshMode>onRegion</viewRefreshMode>
        <viewFormat/>
      </Link>
    </NetworkLink>
        
    <NetworkLink>
      <name>19/300905/324489.png</name>
      <Region>
        <LatLonAltBox>
          <north>39.30561250081085</north>
          <south>39.30508118749506</south>
          <east>26.61575317382811</east>
          <west>26.61506652832030</west>
        </LatLonAltBox>
        <Lod>
          <minLodPixels>128</minLodPixels>
          <maxLodPixels>-1</maxLodPixels>
        </Lod>
      </Region>
      <Link>
        <href>../../19/300905/324489.kml</href>
        <viewRefreshMode>onRegion</viewRefreshMode>
        <viewFormat/>
      </Link>
    </NetworkLink>
              </Document>
</kml>
    