<?xml version="1.0" encoding="utf-8"?>
<kml xmlns="http://www.opengis.net/kml/2.2">
  <Document>
    <name>16/37625/40558.kml</name>
    <description></description>
    <Style>
      <ListStyle id="hideChildren">
        <listItemType>checkHideChildren</listItemType>
      </ListStyle>
    </Style>
    <Region>
      <LatLonAltBox>
        <north>39.29604824402409</north>
        <south>39.29179704377487</south>
        <east>26.68579101562500</east>
        <west>26.68029785156250</west>
      </LatLonAltBox>
      <Lod>
        <minLodPixels>128</minLodPixels>
        <maxLodPixels>2048</maxLodPixels>
      </Lod>
    </Region>
    <GroundOverlay>
      <drawOrder>32</drawOrder>
      <Icon>
        <href>40558.png</href>
      </Icon>
      <LatLonBox>
        <north>39.29604824402409</north>
        <south>39.29179704377487</south>
        <east>26.68579101562500</east>
        <west>26.68029785156250</west>
      </LatLonBox>
    </GroundOverlay>

    <NetworkLink>
      <name>17/75250/81116.png</name>
      <Region>
        <LatLonAltBox>
          <north>39.29392267616436</north>
          <south>39.29179704377487</south>
          <east>26.68304443359375</east>
          <west>26.68029785156250</west>
        </LatLonAltBox>
        <Lod>
          <minLodPixels>128</minLodPixels>
          <maxLodPixels>-1</maxLodPixels>
        </Lod>
      </Region>
      <Link>
        <href>../../17/75250/81116.kml</href>
        <viewRefreshMode>onRegion</viewRefreshMode>
        <viewFormat/>
      </Link>
    </NetworkLink>
        
    <NetworkLink>
      <name>17/75251/81116.png</name>
      <Region>
        <LatLonAltBox>
          <north>39.29392267616436</north>
          <south>39.29179704377487</south>
          <east>26.68579101562500</east>
          <west>26.68304443359375</west>
        </LatLonAltBox>
        <Lod>
          <minLodPixels>128</minLodPixels>
          <maxLodPixels>-1</maxLodPixels>
        </Lod>
      </Region>
      <Link>
        <href>../../17/75251/81116.kml</href>
        <viewRefreshMode>onRegion</viewRefreshMode>
        <viewFormat/>
      </Link>
    </NetworkLink>
        
    <NetworkLink>
      <name>17/75250/81117.png</name>
      <Region>
        <LatLonAltBox>
          <north>39.29604824402409</north>
          <south>39.29392267616436</south>
          <east>26.68304443359375</east>
          <west>26.68029785156250</west>
        </LatLonAltBox>
        <Lod>
          <minLodPixels>128</minLodPixels>
          <maxLodPixels>-1</maxLodPixels>
        </Lod>
      </Region>
      <Link>
        <href>../../17/75250/81117.kml</href>
        <viewRefreshMode>onRegion</viewRefreshMode>
        <viewFormat/>
      </Link>
    </NetworkLink>
        
    <NetworkLink>
      <name>17/75251/81117.png</name>
      <Region>
        <LatLonAltBox>
          <north>39.29604824402409</north>
          <south>39.29392267616436</south>
          <east>26.68579101562500</east>
          <west>26.68304443359375</west>
        </LatLonAltBox>
        <Lod>
          <minLodPixels>128</minLodPixels>
          <maxLodPixels>-1</maxLodPixels>
        </Lod>
      </Region>
      <Link>
        <href>../../17/75251/81117.kml</href>
        <viewRefreshMode>onRegion</viewRefreshMode>
        <viewFormat/>
      </Link>
    </NetworkLink>
              </Document>
</kml>
    