<?xml version="1.0" encoding="utf-8"?>
<kml xmlns="http://www.opengis.net/kml/2.2">
  <Document>
    <name>15/18808/20285.kml</name>
    <description></description>
    <Style>
      <ListStyle id="hideChildren">
        <listItemType>checkHideChildren</listItemType>
      </ListStyle>
    </Style>
    <Region>
      <LatLonAltBox>
        <north>39.35129035526705</north>
        <south>39.34279440895236</south>
        <east>26.64184570312500</east>
        <west>26.63085937500001</west>
      </LatLonAltBox>
      <Lod>
        <minLodPixels>128</minLodPixels>
        <maxLodPixels>2048</maxLodPixels>
      </Lod>
    </Region>
    <GroundOverlay>
      <drawOrder>30</drawOrder>
      <Icon>
        <href>20285.png</href>
      </Icon>
      <LatLonBox>
        <north>39.35129035526705</north>
        <south>39.34279440895236</south>
        <east>26.64184570312500</east>
        <west>26.63085937500001</west>
      </LatLonBox>
    </GroundOverlay>

    <NetworkLink>
      <name>16/37616/40570.png</name>
      <Region>
        <LatLonAltBox>
          <north>39.34704251121732</north>
          <south>39.34279440895236</south>
          <east>26.63635253906250</east>
          <west>26.63085937500001</west>
        </LatLonAltBox>
        <Lod>
          <minLodPixels>128</minLodPixels>
          <maxLodPixels>-1</maxLodPixels>
        </Lod>
      </Region>
      <Link>
        <href>../../16/37616/40570.kml</href>
        <viewRefreshMode>onRegion</viewRefreshMode>
        <viewFormat/>
      </Link>
    </NetworkLink>
        
    <NetworkLink>
      <name>16/37617/40570.png</name>
      <Region>
        <LatLonAltBox>
          <north>39.34704251121732</north>
          <south>39.34279440895236</south>
          <east>26.64184570312500</east>
          <west>26.63635253906250</west>
        </LatLonAltBox>
        <Lod>
          <minLodPixels>128</minLodPixels>
          <maxLodPixels>-1</maxLodPixels>
        </Lod>
      </Region>
      <Link>
        <href>../../16/37617/40570.kml</href>
        <viewRefreshMode>onRegion</viewRefreshMode>
        <viewFormat/>
      </Link>
    </NetworkLink>
        
    <NetworkLink>
      <name>16/37616/40571.png</name>
      <Region>
        <LatLonAltBox>
          <north>39.35129035526705</north>
          <south>39.34704251121732</south>
          <east>26.63635253906250</east>
          <west>26.63085937500001</west>
        </LatLonAltBox>
        <Lod>
          <minLodPixels>128</minLodPixels>
          <maxLodPixels>-1</maxLodPixels>
        </Lod>
      </Region>
      <Link>
        <href>../../16/37616/40571.kml</href>
        <viewRefreshMode>onRegion</viewRefreshMode>
        <viewFormat/>
      </Link>
    </NetworkLink>
        
    <NetworkLink>
      <name>16/37617/40571.png</name>
      <Region>
        <LatLonAltBox>
          <north>39.35129035526705</north>
          <south>39.34704251121732</south>
          <east>26.64184570312500</east>
          <west>26.63635253906250</west>
        </LatLonAltBox>
        <Lod>
          <minLodPixels>128</minLodPixels>
          <maxLodPixels>-1</maxLodPixels>
        </Lod>
      </Region>
      <Link>
        <href>../../16/37617/40571.kml</href>
        <viewRefreshMode>onRegion</viewRefreshMode>
        <viewFormat/>
      </Link>
    </NetworkLink>
              </Document>
</kml>
    