<?xml version="1.0" encoding="utf-8"?>
<kml xmlns="http://www.opengis.net/kml/2.2">
  <Document>
    <name>19/301036/324487.kml</name>
    <description></description>
    <Style>
      <ListStyle id="hideChildren">
        <listItemType>checkHideChildren</listItemType>
      </ListStyle>
    </Style>
    <Region>
      <LatLonAltBox>
        <north>39.30454987014581</north>
        <south>39.30401854876314</south>
        <east>26.70570373535158</east>
        <west>26.70501708984374</west>
      </LatLonAltBox>
      <Lod>
        <minLodPixels>128</minLodPixels>
        <maxLodPixels>-1</maxLodPixels>
      </Lod>
    </Region>
    <GroundOverlay>
      <drawOrder>38</drawOrder>
      <Icon>
        <href>324487.png</href>
      </Icon>
      <LatLonBox>
        <north>39.30454987014581</north>
        <south>39.30401854876314</south>
        <east>26.70570373535158</east>
        <west>26.70501708984374</west>
      </LatLonBox>
    </GroundOverlay>
      </Document>
</kml>
    