<?xml version="1.0" encoding="utf-8"?>
<kml xmlns="http://www.opengis.net/kml/2.2">
  <Document>
    <name>19/300946/324479.kml</name>
    <description></description>
    <Style>
      <ListStyle id="hideChildren">
        <listItemType>checkHideChildren</listItemType>
      </ListStyle>
    </Style>
    <Region>
      <LatLonAltBox>
        <north>39.30029918615029</north>
        <south>39.29976783250089</south>
        <east>26.64390563964844</east>
        <west>26.64321899414062</west>
      </LatLonAltBox>
      <Lod>
        <minLodPixels>128</minLodPixels>
        <maxLodPixels>-1</maxLodPixels>
      </Lod>
    </Region>
    <GroundOverlay>
      <drawOrder>38</drawOrder>
      <Icon>
        <href>324479.png</href>
      </Icon>
      <LatLonBox>
        <north>39.30029918615029</north>
        <south>39.29976783250089</south>
        <east>26.64390563964844</east>
        <west>26.64321899414062</west>
      </LatLonBox>
    </GroundOverlay>
      </Document>
</kml>
    