<?xml version="1.0" encoding="utf-8"?>
<kml xmlns="http://www.opengis.net/kml/2.2">
  <Document>
    <name>19/301035/324584.kml</name>
    <description></description>
    <Style>
      <ListStyle id="hideChildren">
        <listItemType>checkHideChildren</listItemType>
      </ListStyle>
    </Style>
    <Region>
      <LatLonAltBox>
        <north>39.35606887116548</north>
        <south>39.35553794109382</south>
        <east>26.70501708984374</east>
        <west>26.70433044433592</west>
      </LatLonAltBox>
      <Lod>
        <minLodPixels>128</minLodPixels>
        <maxLodPixels>-1</maxLodPixels>
      </Lod>
    </Region>
    <GroundOverlay>
      <drawOrder>38</drawOrder>
      <Icon>
        <href>324584.png</href>
      </Icon>
      <LatLonBox>
        <north>39.35606887116548</north>
        <south>39.35553794109382</south>
        <east>26.70501708984374</east>
        <west>26.70433044433592</west>
      </LatLonBox>
    </GroundOverlay>
      </Document>
</kml>
    