<?xml version="1.0" encoding="utf-8"?>
<kml xmlns="http://www.opengis.net/kml/2.2">
  <Document>
    <name>19/300963/324582.kml</name>
    <description></description>
    <Style>
      <ListStyle id="hideChildren">
        <listItemType>checkHideChildren</listItemType>
      </ListStyle>
    </Style>
    <Region>
      <LatLonAltBox>
        <north>39.35500700698732</north>
        <south>39.35447606884596</south>
        <east>26.65557861328124</east>
        <west>26.65489196777343</west>
      </LatLonAltBox>
      <Lod>
        <minLodPixels>128</minLodPixels>
        <maxLodPixels>-1</maxLodPixels>
      </Lod>
    </Region>
    <GroundOverlay>
      <drawOrder>38</drawOrder>
      <Icon>
        <href>324582.png</href>
      </Icon>
      <LatLonBox>
        <north>39.35500700698732</north>
        <south>39.35447606884596</south>
        <east>26.65557861328124</east>
        <west>26.65489196777343</west>
      </LatLonBox>
    </GroundOverlay>
      </Document>
</kml>
    