<?xml version="1.0" encoding="utf-8"?>
<kml xmlns="http://www.opengis.net/kml/2.2">
  <Document>
    <name>19/300988/324535.kml</name>
    <description></description>
    <Style>
      <ListStyle id="hideChildren">
        <listItemType>checkHideChildren</listItemType>
      </ListStyle>
    </Style>
    <Region>
      <LatLonAltBox>
        <north>39.33004855294242</north>
        <south>39.32951742518056</south>
        <east>26.67274475097657</east>
        <west>26.67205810546876</west>
      </LatLonAltBox>
      <Lod>
        <minLodPixels>128</minLodPixels>
        <maxLodPixels>-1</maxLodPixels>
      </Lod>
    </Region>
    <GroundOverlay>
      <drawOrder>38</drawOrder>
      <Icon>
        <href>324535.png</href>
      </Icon>
      <LatLonBox>
        <north>39.33004855294242</north>
        <south>39.32951742518056</south>
        <east>26.67274475097657</east>
        <west>26.67205810546876</west>
      </LatLonBox>
    </GroundOverlay>
      </Document>
</kml>
    