<?xml version="1.0" encoding="utf-8"?>
<kml xmlns="http://www.opengis.net/kml/2.2">
  <Document>
    <name>19/301000/324521.kml</name>
    <description></description>
    <Style>
      <ListStyle id="hideChildren">
        <listItemType>checkHideChildren</listItemType>
      </ListStyle>
    </Style>
    <Region>
      <LatLonAltBox>
        <north>39.32261239717688</north>
        <south>39.32208121293873</south>
        <east>26.68098449707031</east>
        <west>26.68029785156250</west>
      </LatLonAltBox>
      <Lod>
        <minLodPixels>128</minLodPixels>
        <maxLodPixels>-1</maxLodPixels>
      </Lod>
    </Region>
    <GroundOverlay>
      <drawOrder>38</drawOrder>
      <Icon>
        <href>324521.png</href>
      </Icon>
      <LatLonBox>
        <north>39.32261239717688</north>
        <south>39.32208121293873</south>
        <east>26.68098449707031</east>
        <west>26.68029785156250</west>
      </LatLonBox>
    </GroundOverlay>
      </Document>
</kml>
    