<?xml version="1.0" encoding="utf-8"?>
<kml xmlns="http://www.opengis.net/kml/2.2">
  <Document>
    <name>19/301068/324605.kml</name>
    <description></description>
    <Style>
      <ListStyle id="hideChildren">
        <listItemType>checkHideChildren</listItemType>
      </ListStyle>
    </Style>
    <Region>
      <LatLonAltBox>
        <north>39.36721747059307</north>
        <south>39.36668662525674</south>
        <east>26.72767639160156</east>
        <west>26.72698974609375</west>
      </LatLonAltBox>
      <Lod>
        <minLodPixels>128</minLodPixels>
        <maxLodPixels>-1</maxLodPixels>
      </Lod>
    </Region>
    <GroundOverlay>
      <drawOrder>38</drawOrder>
      <Icon>
        <href>324605.png</href>
      </Icon>
      <LatLonBox>
        <north>39.36721747059307</north>
        <south>39.36668662525674</south>
        <east>26.72767639160156</east>
        <west>26.72698974609375</west>
      </LatLonBox>
    </GroundOverlay>
      </Document>
</kml>
    