<?xml version="1.0" encoding="utf-8"?>
<kml xmlns="http://www.opengis.net/kml/2.2">
  <Document>
    <name>17/75246/81149.kml</name>
    <description></description>
    <Style>
      <ListStyle id="hideChildren">
        <listItemType>checkHideChildren</listItemType>
      </ListStyle>
    </Style>
    <Region>
      <LatLonAltBox>
        <north>39.36403233804798</north>
        <south>39.36190883564925</south>
        <east>26.67205810546876</east>
        <west>26.66931152343751</west>
      </LatLonAltBox>
      <Lod>
        <minLodPixels>128</minLodPixels>
        <maxLodPixels>2048</maxLodPixels>
      </Lod>
    </Region>
    <GroundOverlay>
      <drawOrder>34</drawOrder>
      <Icon>
        <href>81149.png</href>
      </Icon>
      <LatLonBox>
        <north>39.36403233804798</north>
        <south>39.36190883564925</south>
        <east>26.67205810546876</east>
        <west>26.66931152343751</west>
      </LatLonBox>
    </GroundOverlay>

    <NetworkLink>
      <name>18/150492/162298.png</name>
      <Region>
        <LatLonAltBox>
          <north>39.36297059491874</north>
          <south>39.36190883564925</south>
          <east>26.67068481445314</east>
          <west>26.66931152343751</west>
        </LatLonAltBox>
        <Lod>
          <minLodPixels>128</minLodPixels>
          <maxLodPixels>-1</maxLodPixels>
        </Lod>
      </Region>
      <Link>
        <href>../../18/150492/162298.kml</href>
        <viewRefreshMode>onRegion</viewRefreshMode>
        <viewFormat/>
      </Link>
    </NetworkLink>
        
    <NetworkLink>
      <name>18/150493/162298.png</name>
      <Region>
        <LatLonAltBox>
          <north>39.36297059491874</north>
          <south>39.36190883564925</south>
          <east>26.67205810546876</east>
          <west>26.67068481445314</west>
        </LatLonAltBox>
        <Lod>
          <minLodPixels>128</minLodPixels>
          <maxLodPixels>-1</maxLodPixels>
        </Lod>
      </Region>
      <Link>
        <href>../../18/150493/162298.kml</href>
        <viewRefreshMode>onRegion</viewRefreshMode>
        <viewFormat/>
      </Link>
    </NetworkLink>
        
    <NetworkLink>
      <name>18/150492/162299.png</name>
      <Region>
        <LatLonAltBox>
          <north>39.36403233804798</north>
          <south>39.36297059491874</south>
          <east>26.67068481445314</east>
          <west>26.66931152343751</west>
        </LatLonAltBox>
        <Lod>
          <minLodPixels>128</minLodPixels>
          <maxLodPixels>-1</maxLodPixels>
        </Lod>
      </Region>
      <Link>
        <href>../../18/150492/162299.kml</href>
        <viewRefreshMode>onRegion</viewRefreshMode>
        <viewFormat/>
      </Link>
    </NetworkLink>
        
    <NetworkLink>
      <name>18/150493/162299.png</name>
      <Region>
        <LatLonAltBox>
          <north>39.36403233804798</north>
          <south>39.36297059491874</south>
          <east>26.67205810546876</east>
          <west>26.67068481445314</west>
        </LatLonAltBox>
        <Lod>
          <minLodPixels>128</minLodPixels>
          <maxLodPixels>-1</maxLodPixels>
        </Lod>
      </Region>
      <Link>
        <href>../../18/150493/162299.kml</href>
        <viewRefreshMode>onRegion</viewRefreshMode>
        <viewFormat/>
      </Link>
    </NetworkLink>
              </Document>
</kml>
    