<?xml version="1.0" encoding="utf-8"?>
<kml xmlns="http://www.opengis.net/kml/2.2">
  <Document>
    <name>18/150520/162249.kml</name>
    <description></description>
    <Style>
      <ListStyle id="hideChildren">
        <listItemType>checkHideChildren</listItemType>
      </ListStyle>
    </Style>
    <Region>
      <LatLonAltBox>
        <north>39.31092541212715</north>
        <south>39.30986286213216</south>
        <east>26.70913696289064</east>
        <west>26.70776367187501</west>
      </LatLonAltBox>
      <Lod>
        <minLodPixels>128</minLodPixels>
        <maxLodPixels>2048</maxLodPixels>
      </Lod>
    </Region>
    <GroundOverlay>
      <drawOrder>36</drawOrder>
      <Icon>
        <href>162249.png</href>
      </Icon>
      <LatLonBox>
        <north>39.31092541212715</north>
        <south>39.30986286213216</south>
        <east>26.70913696289064</east>
        <west>26.70776367187501</west>
      </LatLonBox>
    </GroundOverlay>

    <NetworkLink>
      <name>19/301040/324498.png</name>
      <Region>
        <LatLonAltBox>
          <north>39.31039413914645</north>
          <south>39.30986286213216</south>
          <east>26.70845031738283</east>
          <west>26.70776367187501</west>
        </LatLonAltBox>
        <Lod>
          <minLodPixels>128</minLodPixels>
          <maxLodPixels>-1</maxLodPixels>
        </Lod>
      </Region>
      <Link>
        <href>../../19/301040/324498.kml</href>
        <viewRefreshMode>onRegion</viewRefreshMode>
        <viewFormat/>
      </Link>
    </NetworkLink>
        
    <NetworkLink>
      <name>19/301041/324498.png</name>
      <Region>
        <LatLonAltBox>
          <north>39.31039413914645</north>
          <south>39.30986286213216</south>
          <east>26.70913696289064</east>
          <west>26.70845031738283</west>
        </LatLonAltBox>
        <Lod>
          <minLodPixels>128</minLodPixels>
          <maxLodPixels>-1</maxLodPixels>
        </Lod>
      </Region>
      <Link>
        <href>../../19/301041/324498.kml</href>
        <viewRefreshMode>onRegion</viewRefreshMode>
        <viewFormat/>
      </Link>
    </NetworkLink>
        
    <NetworkLink>
      <name>19/301040/324499.png</name>
      <Region>
        <LatLonAltBox>
          <north>39.31092541212715</north>
          <south>39.31039413914645</south>
          <east>26.70845031738283</east>
          <west>26.70776367187501</west>
        </LatLonAltBox>
        <Lod>
          <minLodPixels>128</minLodPixels>
          <maxLodPixels>-1</maxLodPixels>
        </Lod>
      </Region>
      <Link>
        <href>../../19/301040/324499.kml</href>
        <viewRefreshMode>onRegion</viewRefreshMode>
        <viewFormat/>
      </Link>
    </NetworkLink>
        
    <NetworkLink>
      <name>19/301041/324499.png</name>
      <Region>
        <LatLonAltBox>
          <north>39.31092541212715</north>
          <south>39.31039413914645</south>
          <east>26.70913696289064</east>
          <west>26.70845031738283</west>
        </LatLonAltBox>
        <Lod>
          <minLodPixels>128</minLodPixels>
          <maxLodPixels>-1</maxLodPixels>
        </Lod>
      </Region>
      <Link>
        <href>../../19/301041/324499.kml</href>
        <viewRefreshMode>onRegion</viewRefreshMode>
        <viewFormat/>
      </Link>
    </NetworkLink>
              </Document>
</kml>
    