<?xml version="1.0" encoding="utf-8"?>
<kml xmlns="http://www.opengis.net/kml/2.2">
  <Document>
    <name>1956_8bit.tif</name>
    <description></description>
    <Style>
      <ListStyle id="hideChildren">
        <listItemType>checkHideChildren</listItemType>
      </ListStyle>
    </Style>
    <NetworkLink>
      <name>14/9402/10139.png</name>
      <Region>
        <LatLonAltBox>
          <north>39.30029918615029</north>
          <south>39.28329386893847</south>
          <east>26.60888671874999</east>
          <west>26.58691406250001</west>
        </LatLonAltBox>
        <Lod>
          <minLodPixels>128</minLodPixels>
          <maxLodPixels>-1</maxLodPixels>
        </Lod>
      </Region>
      <Link>
        <href>14/9402/10139.kml</href>
        <viewRefreshMode>onRegion</viewRefreshMode>
        <viewFormat/>
      </Link>
    </NetworkLink>
        
    <NetworkLink>
      <name>14/9402/10140.png</name>
      <Region>
        <LatLonAltBox>
          <north>39.31730037327102</north>
          <south>39.30029918615029</south>
          <east>26.60888671874999</east>
          <west>26.58691406250001</west>
        </LatLonAltBox>
        <Lod>
          <minLodPixels>128</minLodPixels>
          <maxLodPixels>-1</maxLodPixels>
        </Lod>
      </Region>
      <Link>
        <href>14/9402/10140.kml</href>
        <viewRefreshMode>onRegion</viewRefreshMode>
        <viewFormat/>
      </Link>
    </NetworkLink>
        
    <NetworkLink>
      <name>14/9402/10141.png</name>
      <Region>
        <LatLonAltBox>
          <north>39.33429742980725</north>
          <south>39.31730037327102</south>
          <east>26.60888671874999</east>
          <west>26.58691406250001</west>
        </LatLonAltBox>
        <Lod>
          <minLodPixels>128</minLodPixels>
          <maxLodPixels>-1</maxLodPixels>
        </Lod>
      </Region>
      <Link>
        <href>14/9402/10141.kml</href>
        <viewRefreshMode>onRegion</viewRefreshMode>
        <viewFormat/>
      </Link>
    </NetworkLink>
        
    <NetworkLink>
      <name>14/9402/10142.png</name>
      <Region>
        <LatLonAltBox>
          <north>39.35129035526705</north>
          <south>39.33429742980725</south>
          <east>26.60888671874999</east>
          <west>26.58691406250001</west>
        </LatLonAltBox>
        <Lod>
          <minLodPixels>128</minLodPixels>
          <maxLodPixels>-1</maxLodPixels>
        </Lod>
      </Region>
      <Link>
        <href>14/9402/10142.kml</href>
        <viewRefreshMode>onRegion</viewRefreshMode>
        <viewFormat/>
      </Link>
    </NetworkLink>
        
    <NetworkLink>
      <name>14/9402/10143.png</name>
      <Region>
        <LatLonAltBox>
          <north>39.36827914916011</north>
          <south>39.35129035526705</south>
          <east>26.60888671874999</east>
          <west>26.58691406250001</west>
        </LatLonAltBox>
        <Lod>
          <minLodPixels>128</minLodPixels>
          <maxLodPixels>-1</maxLodPixels>
        </Lod>
      </Region>
      <Link>
        <href>14/9402/10143.kml</href>
        <viewRefreshMode>onRegion</viewRefreshMode>
        <viewFormat/>
      </Link>
    </NetworkLink>
        
    <NetworkLink>
      <name>14/9402/10144.png</name>
      <Region>
        <LatLonAltBox>
          <north>39.38526381099777</north>
          <south>39.36827914916011</south>
          <east>26.60888671874999</east>
          <west>26.58691406250001</west>
        </LatLonAltBox>
        <Lod>
          <minLodPixels>128</minLodPixels>
          <maxLodPixels>-1</maxLodPixels>
        </Lod>
      </Region>
      <Link>
        <href>14/9402/10144.kml</href>
        <viewRefreshMode>onRegion</viewRefreshMode>
        <viewFormat/>
      </Link>
    </NetworkLink>
        
    <NetworkLink>
      <name>14/9403/10139.png</name>
      <Region>
        <LatLonAltBox>
          <north>39.30029918615029</north>
          <south>39.28329386893847</south>
          <east>26.63085937500001</east>
          <west>26.60888671874999</west>
        </LatLonAltBox>
        <Lod>
          <minLodPixels>128</minLodPixels>
          <maxLodPixels>-1</maxLodPixels>
        </Lod>
      </Region>
      <Link>
        <href>14/9403/10139.kml</href>
        <viewRefreshMode>onRegion</viewRefreshMode>
        <viewFormat/>
      </Link>
    </NetworkLink>
        
    <NetworkLink>
      <name>14/9403/10140.png</name>
      <Region>
        <LatLonAltBox>
          <north>39.31730037327102</north>
          <south>39.30029918615029</south>
          <east>26.63085937500001</east>
          <west>26.60888671874999</west>
        </LatLonAltBox>
        <Lod>
          <minLodPixels>128</minLodPixels>
          <maxLodPixels>-1</maxLodPixels>
        </Lod>
      </Region>
      <Link>
        <href>14/9403/10140.kml</href>
        <viewRefreshMode>onRegion</viewRefreshMode>
        <viewFormat/>
      </Link>
    </NetworkLink>
        
    <NetworkLink>
      <name>14/9403/10141.png</name>
      <Region>
        <LatLonAltBox>
          <north>39.33429742980725</north>
          <south>39.31730037327102</south>
          <east>26.63085937500001</east>
          <west>26.60888671874999</west>
        </LatLonAltBox>
        <Lod>
          <minLodPixels>128</minLodPixels>
          <maxLodPixels>-1</maxLodPixels>
        </Lod>
      </Region>
      <Link>
        <href>14/9403/10141.kml</href>
        <viewRefreshMode>onRegion</viewRefreshMode>
        <viewFormat/>
      </Link>
    </NetworkLink>
        
    <NetworkLink>
      <name>14/9403/10142.png</name>
      <Region>
        <LatLonAltBox>
          <north>39.35129035526705</north>
          <south>39.33429742980725</south>
          <east>26.63085937500001</east>
          <west>26.60888671874999</west>
        </LatLonAltBox>
        <Lod>
          <minLodPixels>128</minLodPixels>
          <maxLodPixels>-1</maxLodPixels>
        </Lod>
      </Region>
      <Link>
        <href>14/9403/10142.kml</href>
        <viewRefreshMode>onRegion</viewRefreshMode>
        <viewFormat/>
      </Link>
    </NetworkLink>
        
    <NetworkLink>
      <name>14/9403/10143.png</name>
      <Region>
        <LatLonAltBox>
          <north>39.36827914916011</north>
          <south>39.35129035526705</south>
          <east>26.63085937500001</east>
          <west>26.60888671874999</west>
        </LatLonAltBox>
        <Lod>
          <minLodPixels>128</minLodPixels>
          <maxLodPixels>-1</maxLodPixels>
        </Lod>
      </Region>
      <Link>
        <href>14/9403/10143.kml</href>
        <viewRefreshMode>onRegion</viewRefreshMode>
        <viewFormat/>
      </Link>
    </NetworkLink>
        
    <NetworkLink>
      <name>14/9403/10144.png</name>
      <Region>
        <LatLonAltBox>
          <north>39.38526381099777</north>
          <south>39.36827914916011</south>
          <east>26.63085937500001</east>
          <west>26.60888671874999</west>
        </LatLonAltBox>
        <Lod>
          <minLodPixels>128</minLodPixels>
          <maxLodPixels>-1</maxLodPixels>
        </Lod>
      </Region>
      <Link>
        <href>14/9403/10144.kml</href>
        <viewRefreshMode>onRegion</viewRefreshMode>
        <viewFormat/>
      </Link>
    </NetworkLink>
        
    <NetworkLink>
      <name>14/9404/10139.png</name>
      <Region>
        <LatLonAltBox>
          <north>39.30029918615029</north>
          <south>39.28329386893847</south>
          <east>26.65283203124999</east>
          <west>26.63085937500001</west>
        </LatLonAltBox>
        <Lod>
          <minLodPixels>128</minLodPixels>
          <maxLodPixels>-1</maxLodPixels>
        </Lod>
      </Region>
      <Link>
        <href>14/9404/10139.kml</href>
        <viewRefreshMode>onRegion</viewRefreshMode>
        <viewFormat/>
      </Link>
    </NetworkLink>
        
    <NetworkLink>
      <name>14/9404/10140.png</name>
      <Region>
        <LatLonAltBox>
          <north>39.31730037327102</north>
          <south>39.30029918615029</south>
          <east>26.65283203124999</east>
          <west>26.63085937500001</west>
        </LatLonAltBox>
        <Lod>
          <minLodPixels>128</minLodPixels>
          <maxLodPixels>-1</maxLodPixels>
        </Lod>
      </Region>
      <Link>
        <href>14/9404/10140.kml</href>
        <viewRefreshMode>onRegion</viewRefreshMode>
        <viewFormat/>
      </Link>
    </NetworkLink>
        
    <NetworkLink>
      <name>14/9404/10141.png</name>
      <Region>
        <LatLonAltBox>
          <north>39.33429742980725</north>
          <south>39.31730037327102</south>
          <east>26.65283203124999</east>
          <west>26.63085937500001</west>
        </LatLonAltBox>
        <Lod>
          <minLodPixels>128</minLodPixels>
          <maxLodPixels>-1</maxLodPixels>
        </Lod>
      </Region>
      <Link>
        <href>14/9404/10141.kml</href>
        <viewRefreshMode>onRegion</viewRefreshMode>
        <viewFormat/>
      </Link>
    </NetworkLink>
        
    <NetworkLink>
      <name>14/9404/10142.png</name>
      <Region>
        <LatLonAltBox>
          <north>39.35129035526705</north>
          <south>39.33429742980725</south>
          <east>26.65283203124999</east>
          <west>26.63085937500001</west>
        </LatLonAltBox>
        <Lod>
          <minLodPixels>128</minLodPixels>
          <maxLodPixels>-1</maxLodPixels>
        </Lod>
      </Region>
      <Link>
        <href>14/9404/10142.kml</href>
        <viewRefreshMode>onRegion</viewRefreshMode>
        <viewFormat/>
      </Link>
    </NetworkLink>
        
    <NetworkLink>
      <name>14/9404/10143.png</name>
      <Region>
        <LatLonAltBox>
          <north>39.36827914916011</north>
          <south>39.35129035526705</south>
          <east>26.65283203124999</east>
          <west>26.63085937500001</west>
        </LatLonAltBox>
        <Lod>
          <minLodPixels>128</minLodPixels>
          <maxLodPixels>-1</maxLodPixels>
        </Lod>
      </Region>
      <Link>
        <href>14/9404/10143.kml</href>
        <viewRefreshMode>onRegion</viewRefreshMode>
        <viewFormat/>
      </Link>
    </NetworkLink>
        
    <NetworkLink>
      <name>14/9404/10144.png</name>
      <Region>
        <LatLonAltBox>
          <north>39.38526381099777</north>
          <south>39.36827914916011</south>
          <east>26.65283203124999</east>
          <west>26.63085937500001</west>
        </LatLonAltBox>
        <Lod>
          <minLodPixels>128</minLodPixels>
          <maxLodPixels>-1</maxLodPixels>
        </Lod>
      </Region>
      <Link>
        <href>14/9404/10144.kml</href>
        <viewRefreshMode>onRegion</viewRefreshMode>
        <viewFormat/>
      </Link>
    </NetworkLink>
        
    <NetworkLink>
      <name>14/9405/10139.png</name>
      <Region>
        <LatLonAltBox>
          <north>39.30029918615029</north>
          <south>39.28329386893847</south>
          <east>26.67480468750000</east>
          <west>26.65283203124999</west>
        </LatLonAltBox>
        <Lod>
          <minLodPixels>128</minLodPixels>
          <maxLodPixels>-1</maxLodPixels>
        </Lod>
      </Region>
      <Link>
        <href>14/9405/10139.kml</href>
        <viewRefreshMode>onRegion</viewRefreshMode>
        <viewFormat/>
      </Link>
    </NetworkLink>
        
    <NetworkLink>
      <name>14/9405/10140.png</name>
      <Region>
        <LatLonAltBox>
          <north>39.31730037327102</north>
          <south>39.30029918615029</south>
          <east>26.67480468750000</east>
          <west>26.65283203124999</west>
        </LatLonAltBox>
        <Lod>
          <minLodPixels>128</minLodPixels>
          <maxLodPixels>-1</maxLodPixels>
        </Lod>
      </Region>
      <Link>
        <href>14/9405/10140.kml</href>
        <viewRefreshMode>onRegion</viewRefreshMode>
        <viewFormat/>
      </Link>
    </NetworkLink>
        
    <NetworkLink>
      <name>14/9405/10141.png</name>
      <Region>
        <LatLonAltBox>
          <north>39.33429742980725</north>
          <south>39.31730037327102</south>
          <east>26.67480468750000</east>
          <west>26.65283203124999</west>
        </LatLonAltBox>
        <Lod>
          <minLodPixels>128</minLodPixels>
          <maxLodPixels>-1</maxLodPixels>
        </Lod>
      </Region>
      <Link>
        <href>14/9405/10141.kml</href>
        <viewRefreshMode>onRegion</viewRefreshMode>
        <viewFormat/>
      </Link>
    </NetworkLink>
        
    <NetworkLink>
      <name>14/9405/10142.png</name>
      <Region>
        <LatLonAltBox>
          <north>39.35129035526705</north>
          <south>39.33429742980725</south>
          <east>26.67480468750000</east>
          <west>26.65283203124999</west>
        </LatLonAltBox>
        <Lod>
          <minLodPixels>128</minLodPixels>
          <maxLodPixels>-1</maxLodPixels>
        </Lod>
      </Region>
      <Link>
        <href>14/9405/10142.kml</href>
        <viewRefreshMode>onRegion</viewRefreshMode>
        <viewFormat/>
      </Link>
    </NetworkLink>
        
    <NetworkLink>
      <name>14/9405/10143.png</name>
      <Region>
        <LatLonAltBox>
          <north>39.36827914916011</north>
          <south>39.35129035526705</south>
          <east>26.67480468750000</east>
          <west>26.65283203124999</west>
        </LatLonAltBox>
        <Lod>
          <minLodPixels>128</minLodPixels>
          <maxLodPixels>-1</maxLodPixels>
        </Lod>
      </Region>
      <Link>
        <href>14/9405/10143.kml</href>
        <viewRefreshMode>onRegion</viewRefreshMode>
        <viewFormat/>
      </Link>
    </NetworkLink>
        
    <NetworkLink>
      <name>14/9405/10144.png</name>
      <Region>
        <LatLonAltBox>
          <north>39.38526381099777</north>
          <south>39.36827914916011</south>
          <east>26.67480468750000</east>
          <west>26.65283203124999</west>
        </LatLonAltBox>
        <Lod>
          <minLodPixels>128</minLodPixels>
          <maxLodPixels>-1</maxLodPixels>
        </Lod>
      </Region>
      <Link>
        <href>14/9405/10144.kml</href>
        <viewRefreshMode>onRegion</viewRefreshMode>
        <viewFormat/>
      </Link>
    </NetworkLink>
        
    <NetworkLink>
      <name>14/9406/10139.png</name>
      <Region>
        <LatLonAltBox>
          <north>39.30029918615029</north>
          <south>39.28329386893847</south>
          <east>26.69677734374999</east>
          <west>26.67480468750000</west>
        </LatLonAltBox>
        <Lod>
          <minLodPixels>128</minLodPixels>
          <maxLodPixels>-1</maxLodPixels>
        </Lod>
      </Region>
      <Link>
        <href>14/9406/10139.kml</href>
        <viewRefreshMode>onRegion</viewRefreshMode>
        <viewFormat/>
      </Link>
    </NetworkLink>
        
    <NetworkLink>
      <name>14/9406/10140.png</name>
      <Region>
        <LatLonAltBox>
          <north>39.31730037327102</north>
          <south>39.30029918615029</south>
          <east>26.69677734374999</east>
          <west>26.67480468750000</west>
        </LatLonAltBox>
        <Lod>
          <minLodPixels>128</minLodPixels>
          <maxLodPixels>-1</maxLodPixels>
        </Lod>
      </Region>
      <Link>
        <href>14/9406/10140.kml</href>
        <viewRefreshMode>onRegion</viewRefreshMode>
        <viewFormat/>
      </Link>
    </NetworkLink>
        
    <NetworkLink>
      <name>14/9406/10141.png</name>
      <Region>
        <LatLonAltBox>
          <north>39.33429742980725</north>
          <south>39.31730037327102</south>
          <east>26.69677734374999</east>
          <west>26.67480468750000</west>
        </LatLonAltBox>
        <Lod>
          <minLodPixels>128</minLodPixels>
          <maxLodPixels>-1</maxLodPixels>
        </Lod>
      </Region>
      <Link>
        <href>14/9406/10141.kml</href>
        <viewRefreshMode>onRegion</viewRefreshMode>
        <viewFormat/>
      </Link>
    </NetworkLink>
        
    <NetworkLink>
      <name>14/9406/10142.png</name>
      <Region>
        <LatLonAltBox>
          <north>39.35129035526705</north>
          <south>39.33429742980725</south>
          <east>26.69677734374999</east>
          <west>26.67480468750000</west>
        </LatLonAltBox>
        <Lod>
          <minLodPixels>128</minLodPixels>
          <maxLodPixels>-1</maxLodPixels>
        </Lod>
      </Region>
      <Link>
        <href>14/9406/10142.kml</href>
        <viewRefreshMode>onRegion</viewRefreshMode>
        <viewFormat/>
      </Link>
    </NetworkLink>
        
    <NetworkLink>
      <name>14/9406/10143.png</name>
      <Region>
        <LatLonAltBox>
          <north>39.36827914916011</north>
          <south>39.35129035526705</south>
          <east>26.69677734374999</east>
          <west>26.67480468750000</west>
        </LatLonAltBox>
        <Lod>
          <minLodPixels>128</minLodPixels>
          <maxLodPixels>-1</maxLodPixels>
        </Lod>
      </Region>
      <Link>
        <href>14/9406/10143.kml</href>
        <viewRefreshMode>onRegion</viewRefreshMode>
        <viewFormat/>
      </Link>
    </NetworkLink>
        
    <NetworkLink>
      <name>14/9406/10144.png</name>
      <Region>
        <LatLonAltBox>
          <north>39.38526381099777</north>
          <south>39.36827914916011</south>
          <east>26.69677734374999</east>
          <west>26.67480468750000</west>
        </LatLonAltBox>
        <Lod>
          <minLodPixels>128</minLodPixels>
          <maxLodPixels>-1</maxLodPixels>
        </Lod>
      </Region>
      <Link>
        <href>14/9406/10144.kml</href>
        <viewRefreshMode>onRegion</viewRefreshMode>
        <viewFormat/>
      </Link>
    </NetworkLink>
        
    <NetworkLink>
      <name>14/9407/10139.png</name>
      <Region>
        <LatLonAltBox>
          <north>39.30029918615029</north>
          <south>39.28329386893847</south>
          <east>26.71875000000000</east>
          <west>26.69677734374999</west>
        </LatLonAltBox>
        <Lod>
          <minLodPixels>128</minLodPixels>
          <maxLodPixels>-1</maxLodPixels>
        </Lod>
      </Region>
      <Link>
        <href>14/9407/10139.kml</href>
        <viewRefreshMode>onRegion</viewRefreshMode>
        <viewFormat/>
      </Link>
    </NetworkLink>
        
    <NetworkLink>
      <name>14/9407/10140.png</name>
      <Region>
        <LatLonAltBox>
          <north>39.31730037327102</north>
          <south>39.30029918615029</south>
          <east>26.71875000000000</east>
          <west>26.69677734374999</west>
        </LatLonAltBox>
        <Lod>
          <minLodPixels>128</minLodPixels>
          <maxLodPixels>-1</maxLodPixels>
        </Lod>
      </Region>
      <Link>
        <href>14/9407/10140.kml</href>
        <viewRefreshMode>onRegion</viewRefreshMode>
        <viewFormat/>
      </Link>
    </NetworkLink>
        
    <NetworkLink>
      <name>14/9407/10141.png</name>
      <Region>
        <LatLonAltBox>
          <north>39.33429742980725</north>
          <south>39.31730037327102</south>
          <east>26.71875000000000</east>
          <west>26.69677734374999</west>
        </LatLonAltBox>
        <Lod>
          <minLodPixels>128</minLodPixels>
          <maxLodPixels>-1</maxLodPixels>
        </Lod>
      </Region>
      <Link>
        <href>14/9407/10141.kml</href>
        <viewRefreshMode>onRegion</viewRefreshMode>
        <viewFormat/>
      </Link>
    </NetworkLink>
        
    <NetworkLink>
      <name>14/9407/10142.png</name>
      <Region>
        <LatLonAltBox>
          <north>39.35129035526705</north>
          <south>39.33429742980725</south>
          <east>26.71875000000000</east>
          <west>26.69677734374999</west>
        </LatLonAltBox>
        <Lod>
          <minLodPixels>128</minLodPixels>
          <maxLodPixels>-1</maxLodPixels>
        </Lod>
      </Region>
      <Link>
        <href>14/9407/10142.kml</href>
        <viewRefreshMode>onRegion</viewRefreshMode>
        <viewFormat/>
      </Link>
    </NetworkLink>
        
    <NetworkLink>
      <name>14/9407/10143.png</name>
      <Region>
        <LatLonAltBox>
          <north>39.36827914916011</north>
          <south>39.35129035526705</south>
          <east>26.71875000000000</east>
          <west>26.69677734374999</west>
        </LatLonAltBox>
        <Lod>
          <minLodPixels>128</minLodPixels>
          <maxLodPixels>-1</maxLodPixels>
        </Lod>
      </Region>
      <Link>
        <href>14/9407/10143.kml</href>
        <viewRefreshMode>onRegion</viewRefreshMode>
        <viewFormat/>
      </Link>
    </NetworkLink>
        
    <NetworkLink>
      <name>14/9407/10144.png</name>
      <Region>
        <LatLonAltBox>
          <north>39.38526381099777</north>
          <south>39.36827914916011</south>
          <east>26.71875000000000</east>
          <west>26.69677734374999</west>
        </LatLonAltBox>
        <Lod>
          <minLodPixels>128</minLodPixels>
          <maxLodPixels>-1</maxLodPixels>
        </Lod>
      </Region>
      <Link>
        <href>14/9407/10144.kml</href>
        <viewRefreshMode>onRegion</viewRefreshMode>
        <viewFormat/>
      </Link>
    </NetworkLink>
        
    <NetworkLink>
      <name>14/9408/10139.png</name>
      <Region>
        <LatLonAltBox>
          <north>39.30029918615029</north>
          <south>39.28329386893847</south>
          <east>26.74072265624999</east>
          <west>26.71875000000000</west>
        </LatLonAltBox>
        <Lod>
          <minLodPixels>128</minLodPixels>
          <maxLodPixels>-1</maxLodPixels>
        </Lod>
      </Region>
      <Link>
        <href>14/9408/10139.kml</href>
        <viewRefreshMode>onRegion</viewRefreshMode>
        <viewFormat/>
      </Link>
    </NetworkLink>
        
    <NetworkLink>
      <name>14/9408/10140.png</name>
      <Region>
        <LatLonAltBox>
          <north>39.31730037327102</north>
          <south>39.30029918615029</south>
          <east>26.74072265624999</east>
          <west>26.71875000000000</west>
        </LatLonAltBox>
        <Lod>
          <minLodPixels>128</minLodPixels>
          <maxLodPixels>-1</maxLodPixels>
        </Lod>
      </Region>
      <Link>
        <href>14/9408/10140.kml</href>
        <viewRefreshMode>onRegion</viewRefreshMode>
        <viewFormat/>
      </Link>
    </NetworkLink>
        
    <NetworkLink>
      <name>14/9408/10141.png</name>
      <Region>
        <LatLonAltBox>
          <north>39.33429742980725</north>
          <south>39.31730037327102</south>
          <east>26.74072265624999</east>
          <west>26.71875000000000</west>
        </LatLonAltBox>
        <Lod>
          <minLodPixels>128</minLodPixels>
          <maxLodPixels>-1</maxLodPixels>
        </Lod>
      </Region>
      <Link>
        <href>14/9408/10141.kml</href>
        <viewRefreshMode>onRegion</viewRefreshMode>
        <viewFormat/>
      </Link>
    </NetworkLink>
        
    <NetworkLink>
      <name>14/9408/10142.png</name>
      <Region>
        <LatLonAltBox>
          <north>39.35129035526705</north>
          <south>39.33429742980725</south>
          <east>26.74072265624999</east>
          <west>26.71875000000000</west>
        </LatLonAltBox>
        <Lod>
          <minLodPixels>128</minLodPixels>
          <maxLodPixels>-1</maxLodPixels>
        </Lod>
      </Region>
      <Link>
        <href>14/9408/10142.kml</href>
        <viewRefreshMode>onRegion</viewRefreshMode>
        <viewFormat/>
      </Link>
    </NetworkLink>
        
    <NetworkLink>
      <name>14/9408/10143.png</name>
      <Region>
        <LatLonAltBox>
          <north>39.36827914916011</north>
          <south>39.35129035526705</south>
          <east>26.74072265624999</east>
          <west>26.71875000000000</west>
        </LatLonAltBox>
        <Lod>
          <minLodPixels>128</minLodPixels>
          <maxLodPixels>-1</maxLodPixels>
        </Lod>
      </Region>
      <Link>
        <href>14/9408/10143.kml</href>
        <viewRefreshMode>onRegion</viewRefreshMode>
        <viewFormat/>
      </Link>
    </NetworkLink>
        
    <NetworkLink>
      <name>14/9408/10144.png</name>
      <Region>
        <LatLonAltBox>
          <north>39.38526381099777</north>
          <south>39.36827914916011</south>
          <east>26.74072265624999</east>
          <west>26.71875000000000</west>
        </LatLonAltBox>
        <Lod>
          <minLodPixels>128</minLodPixels>
          <maxLodPixels>-1</maxLodPixels>
        </Lod>
      </Region>
      <Link>
        <href>14/9408/10144.kml</href>
        <viewRefreshMode>onRegion</viewRefreshMode>
        <viewFormat/>
      </Link>
    </NetworkLink>
              </Document>
</kml>
    