<?xml version="1.0" encoding="utf-8"?>
<kml xmlns="http://www.opengis.net/kml/2.2">
  <Document>
    <name>19/300942/324567.kml</name>
    <description></description>
    <Style>
      <ListStyle id="hideChildren">
        <listItemType>checkHideChildren</listItemType>
      </ListStyle>
    </Style>
    <Region>
      <LatLonAltBox>
        <north>39.34704251121732</north>
        <south>39.34651151255520</south>
        <east>26.64115905761719</east>
        <west>26.64047241210938</west>
      </LatLonAltBox>
      <Lod>
        <minLodPixels>128</minLodPixels>
        <maxLodPixels>-1</maxLodPixels>
      </Lod>
    </Region>
    <GroundOverlay>
      <drawOrder>38</drawOrder>
      <Icon>
        <href>324567.png</href>
      </Icon>
      <LatLonBox>
        <north>39.34704251121732</north>
        <south>39.34651151255520</south>
        <east>26.64115905761719</east>
        <west>26.64047241210938</west>
      </LatLonBox>
    </GroundOverlay>
      </Document>
</kml>
    