<?xml version="1.0" encoding="utf-8"?>
<kml xmlns="http://www.opengis.net/kml/2.2">
  <Document>
    <name>16/37612/40571.kml</name>
    <description></description>
    <Style>
      <ListStyle id="hideChildren">
        <listItemType>checkHideChildren</listItemType>
      </ListStyle>
    </Style>
    <Region>
      <LatLonAltBox>
        <north>39.35129035526705</north>
        <south>39.34704251121732</south>
        <east>26.61437988281249</east>
        <west>26.60888671874999</west>
      </LatLonAltBox>
      <Lod>
        <minLodPixels>128</minLodPixels>
        <maxLodPixels>2048</maxLodPixels>
      </Lod>
    </Region>
    <GroundOverlay>
      <drawOrder>32</drawOrder>
      <Icon>
        <href>40571.png</href>
      </Icon>
      <LatLonBox>
        <north>39.35129035526705</north>
        <south>39.34704251121732</south>
        <east>26.61437988281249</east>
        <west>26.60888671874999</west>
      </LatLonBox>
    </GroundOverlay>

    <NetworkLink>
      <name>17/75224/81142.png</name>
      <Region>
        <LatLonAltBox>
          <north>39.34916646551957</north>
          <south>39.34704251121732</south>
          <east>26.61163330078124</east>
          <west>26.60888671874999</west>
        </LatLonAltBox>
        <Lod>
          <minLodPixels>128</minLodPixels>
          <maxLodPixels>-1</maxLodPixels>
        </Lod>
      </Region>
      <Link>
        <href>../../17/75224/81142.kml</href>
        <viewRefreshMode>onRegion</viewRefreshMode>
        <viewFormat/>
      </Link>
    </NetworkLink>
        
    <NetworkLink>
      <name>17/75225/81142.png</name>
      <Region>
        <LatLonAltBox>
          <north>39.34916646551957</north>
          <south>39.34704251121732</south>
          <east>26.61437988281249</east>
          <west>26.61163330078124</west>
        </LatLonAltBox>
        <Lod>
          <minLodPixels>128</minLodPixels>
          <maxLodPixels>-1</maxLodPixels>
        </Lod>
      </Region>
      <Link>
        <href>../../17/75225/81142.kml</href>
        <viewRefreshMode>onRegion</viewRefreshMode>
        <viewFormat/>
      </Link>
    </NetworkLink>
        
    <NetworkLink>
      <name>17/75224/81143.png</name>
      <Region>
        <LatLonAltBox>
          <north>39.35129035526705</north>
          <south>39.34916646551957</south>
          <east>26.61163330078124</east>
          <west>26.60888671874999</west>
        </LatLonAltBox>
        <Lod>
          <minLodPixels>128</minLodPixels>
          <maxLodPixels>-1</maxLodPixels>
        </Lod>
      </Region>
      <Link>
        <href>../../17/75224/81143.kml</href>
        <viewRefreshMode>onRegion</viewRefreshMode>
        <viewFormat/>
      </Link>
    </NetworkLink>
        
    <NetworkLink>
      <name>17/75225/81143.png</name>
      <Region>
        <LatLonAltBox>
          <north>39.35129035526705</north>
          <south>39.34916646551957</south>
          <east>26.61437988281249</east>
          <west>26.61163330078124</west>
        </LatLonAltBox>
        <Lod>
          <minLodPixels>128</minLodPixels>
          <maxLodPixels>-1</maxLodPixels>
        </Lod>
      </Region>
      <Link>
        <href>../../17/75225/81143.kml</href>
        <viewRefreshMode>onRegion</viewRefreshMode>
        <viewFormat/>
      </Link>
    </NetworkLink>
              </Document>
</kml>
    