<?xml version="1.0" encoding="utf-8"?>
<kml xmlns="http://www.opengis.net/kml/2.2">
  <Document>
    <name>19/300979/324491.kml</name>
    <description></description>
    <Style>
      <ListStyle id="hideChildren">
        <listItemType>checkHideChildren</listItemType>
      </ListStyle>
    </Style>
    <Region>
      <LatLonAltBox>
        <north>39.30667511534213</north>
        <south>39.30614381009322</south>
        <east>26.66656494140626</east>
        <west>26.66587829589845</west>
      </LatLonAltBox>
      <Lod>
        <minLodPixels>128</minLodPixels>
        <maxLodPixels>-1</maxLodPixels>
      </Lod>
    </Region>
    <GroundOverlay>
      <drawOrder>38</drawOrder>
      <Icon>
        <href>324491.png</href>
      </Icon>
      <LatLonBox>
        <north>39.30667511534213</north>
        <south>39.30614381009322</south>
        <east>26.66656494140626</east>
        <west>26.66587829589845</west>
      </LatLonBox>
    </GroundOverlay>
      </Document>
</kml>
    