<?xml version="1.0" encoding="utf-8"?>
<kml xmlns="http://www.opengis.net/kml/2.2">
  <Document>
    <name>18/150523/162291.kml</name>
    <description></description>
    <Style>
      <ListStyle id="hideChildren">
        <listItemType>checkHideChildren</listItemType>
      </ListStyle>
    </Style>
    <Region>
      <LatLonAltBox>
        <north>39.35553794109382</north>
        <south>39.35447606884596</south>
        <east>26.71325683593751</east>
        <west>26.71188354492189</west>
      </LatLonAltBox>
      <Lod>
        <minLodPixels>128</minLodPixels>
        <maxLodPixels>2048</maxLodPixels>
      </Lod>
    </Region>
    <GroundOverlay>
      <drawOrder>36</drawOrder>
      <Icon>
        <href>162291.png</href>
      </Icon>
      <LatLonBox>
        <north>39.35553794109382</north>
        <south>39.35447606884596</south>
        <east>26.71325683593751</east>
        <west>26.71188354492189</west>
      </LatLonBox>
    </GroundOverlay>

    <NetworkLink>
      <name>19/301046/324582.png</name>
      <Region>
        <LatLonAltBox>
          <north>39.35500700698732</north>
          <south>39.35447606884596</south>
          <east>26.71257019042970</east>
          <west>26.71188354492189</west>
        </LatLonAltBox>
        <Lod>
          <minLodPixels>128</minLodPixels>
          <maxLodPixels>-1</maxLodPixels>
        </Lod>
      </Region>
      <Link>
        <href>../../19/301046/324582.kml</href>
        <viewRefreshMode>onRegion</viewRefreshMode>
        <viewFormat/>
      </Link>
    </NetworkLink>
        
    <NetworkLink>
      <name>19/301047/324582.png</name>
      <Region>
        <LatLonAltBox>
          <north>39.35500700698732</north>
          <south>39.35447606884596</south>
          <east>26.71325683593751</east>
          <west>26.71257019042970</west>
        </LatLonAltBox>
        <Lod>
          <minLodPixels>128</minLodPixels>
          <maxLodPixels>-1</maxLodPixels>
        </Lod>
      </Region>
      <Link>
        <href>../../19/301047/324582.kml</href>
        <viewRefreshMode>onRegion</viewRefreshMode>
        <viewFormat/>
      </Link>
    </NetworkLink>
        
    <NetworkLink>
      <name>19/301046/324583.png</name>
      <Region>
        <LatLonAltBox>
          <north>39.35553794109382</north>
          <south>39.35500700698732</south>
          <east>26.71257019042970</east>
          <west>26.71188354492189</west>
        </LatLonAltBox>
        <Lod>
          <minLodPixels>128</minLodPixels>
          <maxLodPixels>-1</maxLodPixels>
        </Lod>
      </Region>
      <Link>
        <href>../../19/301046/324583.kml</href>
        <viewRefreshMode>onRegion</viewRefreshMode>
        <viewFormat/>
      </Link>
    </NetworkLink>
        
    <NetworkLink>
      <name>19/301047/324583.png</name>
      <Region>
        <LatLonAltBox>
          <north>39.35553794109382</north>
          <south>39.35500700698732</south>
          <east>26.71325683593751</east>
          <west>26.71257019042970</west>
        </LatLonAltBox>
        <Lod>
          <minLodPixels>128</minLodPixels>
          <maxLodPixels>-1</maxLodPixels>
        </Lod>
      </Region>
      <Link>
        <href>../../19/301047/324583.kml</href>
        <viewRefreshMode>onRegion</viewRefreshMode>
        <viewFormat/>
      </Link>
    </NetworkLink>
              </Document>
</kml>
    