<?xml version="1.0" encoding="utf-8"?>
<kml xmlns="http://www.opengis.net/kml/2.2">
  <Document>
    <name>18/150514/162318.kml</name>
    <description></description>
    <Style>
      <ListStyle id="hideChildren">
        <listItemType>checkHideChildren</listItemType>
      </ListStyle>
    </Style>
    <Region>
      <LatLonAltBox>
        <north>39.38420239069844</north>
        <south>39.38314095425650</south>
        <east>26.70089721679686</east>
        <west>26.69952392578124</west>
      </LatLonAltBox>
      <Lod>
        <minLodPixels>128</minLodPixels>
        <maxLodPixels>2048</maxLodPixels>
      </Lod>
    </Region>
    <GroundOverlay>
      <drawOrder>36</drawOrder>
      <Icon>
        <href>162318.png</href>
      </Icon>
      <LatLonBox>
        <north>39.38420239069844</north>
        <south>39.38314095425650</south>
        <east>26.70089721679686</east>
        <west>26.69952392578124</west>
      </LatLonBox>
    </GroundOverlay>

    <NetworkLink>
      <name>19/301028/324636.png</name>
      <Region>
        <LatLonAltBox>
          <north>39.38367167449528</north>
          <south>39.38314095425650</south>
          <east>26.70021057128905</east>
          <west>26.69952392578124</west>
        </LatLonAltBox>
        <Lod>
          <minLodPixels>128</minLodPixels>
          <maxLodPixels>-1</maxLodPixels>
        </Lod>
      </Region>
      <Link>
        <href>../../19/301028/324636.kml</href>
        <viewRefreshMode>onRegion</viewRefreshMode>
        <viewFormat/>
      </Link>
    </NetworkLink>
        
    <NetworkLink>
      <name>19/301029/324636.png</name>
      <Region>
        <LatLonAltBox>
          <north>39.38367167449528</north>
          <south>39.38314095425650</south>
          <east>26.70089721679686</east>
          <west>26.70021057128905</west>
        </LatLonAltBox>
        <Lod>
          <minLodPixels>128</minLodPixels>
          <maxLodPixels>-1</maxLodPixels>
        </Lod>
      </Region>
      <Link>
        <href>../../19/301029/324636.kml</href>
        <viewRefreshMode>onRegion</viewRefreshMode>
        <viewFormat/>
      </Link>
    </NetworkLink>
        
    <NetworkLink>
      <name>19/301028/324637.png</name>
      <Region>
        <LatLonAltBox>
          <north>39.38420239069844</north>
          <south>39.38367167449528</south>
          <east>26.70021057128905</east>
          <west>26.69952392578124</west>
        </LatLonAltBox>
        <Lod>
          <minLodPixels>128</minLodPixels>
          <maxLodPixels>-1</maxLodPixels>
        </Lod>
      </Region>
      <Link>
        <href>../../19/301028/324637.kml</href>
        <viewRefreshMode>onRegion</viewRefreshMode>
        <viewFormat/>
      </Link>
    </NetworkLink>
        
    <NetworkLink>
      <name>19/301029/324637.png</name>
      <Region>
        <LatLonAltBox>
          <north>39.38420239069844</north>
          <south>39.38367167449528</south>
          <east>26.70089721679686</east>
          <west>26.70021057128905</west>
        </LatLonAltBox>
        <Lod>
          <minLodPixels>128</minLodPixels>
          <maxLodPixels>-1</maxLodPixels>
        </Lod>
      </Region>
      <Link>
        <href>../../19/301029/324637.kml</href>
        <viewRefreshMode>onRegion</viewRefreshMode>
        <viewFormat/>
      </Link>
    </NetworkLink>
              </Document>
</kml>
    