<?xml version="1.0" encoding="utf-8"?>
<kml xmlns="http://www.opengis.net/kml/2.2">
  <Document>
    <name>16/37618/40570.kml</name>
    <description></description>
    <Style>
      <ListStyle id="hideChildren">
        <listItemType>checkHideChildren</listItemType>
      </ListStyle>
    </Style>
    <Region>
      <LatLonAltBox>
        <north>39.34704251121732</north>
        <south>39.34279440895236</south>
        <east>26.64733886718750</east>
        <west>26.64184570312500</west>
      </LatLonAltBox>
      <Lod>
        <minLodPixels>128</minLodPixels>
        <maxLodPixels>2048</maxLodPixels>
      </Lod>
    </Region>
    <GroundOverlay>
      <drawOrder>32</drawOrder>
      <Icon>
        <href>40570.png</href>
      </Icon>
      <LatLonBox>
        <north>39.34704251121732</north>
        <south>39.34279440895236</south>
        <east>26.64733886718750</east>
        <west>26.64184570312500</west>
      </LatLonBox>
    </GroundOverlay>

    <NetworkLink>
      <name>17/75236/81140.png</name>
      <Region>
        <LatLonAltBox>
          <north>39.34491849236127</north>
          <south>39.34279440895236</south>
          <east>26.64459228515625</east>
          <west>26.64184570312500</west>
        </LatLonAltBox>
        <Lod>
          <minLodPixels>128</minLodPixels>
          <maxLodPixels>-1</maxLodPixels>
        </Lod>
      </Region>
      <Link>
        <href>../../17/75236/81140.kml</href>
        <viewRefreshMode>onRegion</viewRefreshMode>
        <viewFormat/>
      </Link>
    </NetworkLink>
        
    <NetworkLink>
      <name>17/75237/81140.png</name>
      <Region>
        <LatLonAltBox>
          <north>39.34491849236127</north>
          <south>39.34279440895236</south>
          <east>26.64733886718750</east>
          <west>26.64459228515625</west>
        </LatLonAltBox>
        <Lod>
          <minLodPixels>128</minLodPixels>
          <maxLodPixels>-1</maxLodPixels>
        </Lod>
      </Region>
      <Link>
        <href>../../17/75237/81140.kml</href>
        <viewRefreshMode>onRegion</viewRefreshMode>
        <viewFormat/>
      </Link>
    </NetworkLink>
        
    <NetworkLink>
      <name>17/75236/81141.png</name>
      <Region>
        <LatLonAltBox>
          <north>39.34704251121732</north>
          <south>39.34491849236127</south>
          <east>26.64459228515625</east>
          <west>26.64184570312500</west>
        </LatLonAltBox>
        <Lod>
          <minLodPixels>128</minLodPixels>
          <maxLodPixels>-1</maxLodPixels>
        </Lod>
      </Region>
      <Link>
        <href>../../17/75236/81141.kml</href>
        <viewRefreshMode>onRegion</viewRefreshMode>
        <viewFormat/>
      </Link>
    </NetworkLink>
        
    <NetworkLink>
      <name>17/75237/81141.png</name>
      <Region>
        <LatLonAltBox>
          <north>39.34704251121732</north>
          <south>39.34491849236127</south>
          <east>26.64733886718750</east>
          <west>26.64459228515625</west>
        </LatLonAltBox>
        <Lod>
          <minLodPixels>128</minLodPixels>
          <maxLodPixels>-1</maxLodPixels>
        </Lod>
      </Region>
      <Link>
        <href>../../17/75237/81141.kml</href>
        <viewRefreshMode>onRegion</viewRefreshMode>
        <viewFormat/>
      </Link>
    </NetworkLink>
              </Document>
</kml>
    