<?xml version="1.0" encoding="utf-8"?>
<kml xmlns="http://www.opengis.net/kml/2.2">
  <Document>
    <name>18/150512/162252.kml</name>
    <description></description>
    <Style>
      <ListStyle id="hideChildren">
        <listItemType>checkHideChildren</listItemType>
      </ListStyle>
    </Style>
    <Region>
      <LatLonAltBox>
        <north>39.31411296530539</north>
        <south>39.31305046371388</south>
        <east>26.69815063476561</east>
        <west>26.69677734374999</west>
      </LatLonAltBox>
      <Lod>
        <minLodPixels>128</minLodPixels>
        <maxLodPixels>2048</maxLodPixels>
      </Lod>
    </Region>
    <GroundOverlay>
      <drawOrder>36</drawOrder>
      <Icon>
        <href>162252.png</href>
      </Icon>
      <LatLonBox>
        <north>39.31411296530539</north>
        <south>39.31305046371388</south>
        <east>26.69815063476561</east>
        <west>26.69677734374999</west>
      </LatLonBox>
    </GroundOverlay>

    <NetworkLink>
      <name>19/301024/324504.png</name>
      <Region>
        <LatLonAltBox>
          <north>39.31358171652649</north>
          <south>39.31305046371388</south>
          <east>26.69746398925780</east>
          <west>26.69677734374999</west>
        </LatLonAltBox>
        <Lod>
          <minLodPixels>128</minLodPixels>
          <maxLodPixels>-1</maxLodPixels>
        </Lod>
      </Region>
      <Link>
        <href>../../19/301024/324504.kml</href>
        <viewRefreshMode>onRegion</viewRefreshMode>
        <viewFormat/>
      </Link>
    </NetworkLink>
        
    <NetworkLink>
      <name>19/301025/324504.png</name>
      <Region>
        <LatLonAltBox>
          <north>39.31358171652649</north>
          <south>39.31305046371388</south>
          <east>26.69815063476561</east>
          <west>26.69746398925780</west>
        </LatLonAltBox>
        <Lod>
          <minLodPixels>128</minLodPixels>
          <maxLodPixels>-1</maxLodPixels>
        </Lod>
      </Region>
      <Link>
        <href>../../19/301025/324504.kml</href>
        <viewRefreshMode>onRegion</viewRefreshMode>
        <viewFormat/>
      </Link>
    </NetworkLink>
        
    <NetworkLink>
      <name>19/301024/324505.png</name>
      <Region>
        <LatLonAltBox>
          <north>39.31411296530539</north>
          <south>39.31358171652649</south>
          <east>26.69746398925780</east>
          <west>26.69677734374999</west>
        </LatLonAltBox>
        <Lod>
          <minLodPixels>128</minLodPixels>
          <maxLodPixels>-1</maxLodPixels>
        </Lod>
      </Region>
      <Link>
        <href>../../19/301024/324505.kml</href>
        <viewRefreshMode>onRegion</viewRefreshMode>
        <viewFormat/>
      </Link>
    </NetworkLink>
        
    <NetworkLink>
      <name>19/301025/324505.png</name>
      <Region>
        <LatLonAltBox>
          <north>39.31411296530539</north>
          <south>39.31358171652649</south>
          <east>26.69815063476561</east>
          <west>26.69746398925780</west>
        </LatLonAltBox>
        <Lod>
          <minLodPixels>128</minLodPixels>
          <maxLodPixels>-1</maxLodPixels>
        </Lod>
      </Region>
      <Link>
        <href>../../19/301025/324505.kml</href>
        <viewRefreshMode>onRegion</viewRefreshMode>
        <viewFormat/>
      </Link>
    </NetworkLink>
              </Document>
</kml>
    