<?xml version="1.0" encoding="utf-8"?>
<kml xmlns="http://www.opengis.net/kml/2.2">
  <Document>
    <name>18/150493/162273.kml</name>
    <description></description>
    <Style>
      <ListStyle id="hideChildren">
        <listItemType>checkHideChildren</listItemType>
      </ListStyle>
    </Style>
    <Region>
      <LatLonAltBox>
        <north>39.33642177141801</north>
        <south>39.33535960868119</south>
        <east>26.67205810546876</east>
        <west>26.67068481445314</west>
      </LatLonAltBox>
      <Lod>
        <minLodPixels>128</minLodPixels>
        <maxLodPixels>2048</maxLodPixels>
      </Lod>
    </Region>
    <GroundOverlay>
      <drawOrder>36</drawOrder>
      <Icon>
        <href>162273.png</href>
      </Icon>
      <LatLonBox>
        <north>39.33642177141801</north>
        <south>39.33535960868119</south>
        <east>26.67205810546876</east>
        <west>26.67068481445314</west>
      </LatLonBox>
    </GroundOverlay>

    <NetworkLink>
      <name>19/300986/324546.png</name>
      <Region>
        <LatLonAltBox>
          <north>39.33589069206677</north>
          <south>39.33535960868119</south>
          <east>26.67137145996095</east>
          <west>26.67068481445314</west>
        </LatLonAltBox>
        <Lod>
          <minLodPixels>128</minLodPixels>
          <maxLodPixels>-1</maxLodPixels>
        </Lod>
      </Region>
      <Link>
        <href>../../19/300986/324546.kml</href>
        <viewRefreshMode>onRegion</viewRefreshMode>
        <viewFormat/>
      </Link>
    </NetworkLink>
        
    <NetworkLink>
      <name>19/300987/324546.png</name>
      <Region>
        <LatLonAltBox>
          <north>39.33589069206677</north>
          <south>39.33535960868119</south>
          <east>26.67205810546876</east>
          <west>26.67137145996095</west>
        </LatLonAltBox>
        <Lod>
          <minLodPixels>128</minLodPixels>
          <maxLodPixels>-1</maxLodPixels>
        </Lod>
      </Region>
      <Link>
        <href>../../19/300987/324546.kml</href>
        <viewRefreshMode>onRegion</viewRefreshMode>
        <viewFormat/>
      </Link>
    </NetworkLink>
        
    <NetworkLink>
      <name>19/300986/324547.png</name>
      <Region>
        <LatLonAltBox>
          <north>39.33642177141801</north>
          <south>39.33589069206677</south>
          <east>26.67137145996095</east>
          <west>26.67068481445314</west>
        </LatLonAltBox>
        <Lod>
          <minLodPixels>128</minLodPixels>
          <maxLodPixels>-1</maxLodPixels>
        </Lod>
      </Region>
      <Link>
        <href>../../19/300986/324547.kml</href>
        <viewRefreshMode>onRegion</viewRefreshMode>
        <viewFormat/>
      </Link>
    </NetworkLink>
        
    <NetworkLink>
      <name>19/300987/324547.png</name>
      <Region>
        <LatLonAltBox>
          <north>39.33642177141801</north>
          <south>39.33589069206677</south>
          <east>26.67205810546876</east>
          <west>26.67137145996095</west>
        </LatLonAltBox>
        <Lod>
          <minLodPixels>128</minLodPixels>
          <maxLodPixels>-1</maxLodPixels>
        </Lod>
      </Region>
      <Link>
        <href>../../19/300987/324547.kml</href>
        <viewRefreshMode>onRegion</viewRefreshMode>
        <viewFormat/>
      </Link>
    </NetworkLink>
              </Document>
</kml>
    