<?xml version="1.0" encoding="utf-8"?>
<kml xmlns="http://www.opengis.net/kml/2.2">
  <Document>
    <name>19/301056/324554.kml</name>
    <description></description>
    <Style>
      <ListStyle id="hideChildren">
        <listItemType>checkHideChildren</listItemType>
      </ListStyle>
    </Style>
    <Region>
      <LatLonAltBox>
        <north>39.34013921391522</north>
        <south>39.33960816280447</south>
        <east>26.71943664550782</east>
        <west>26.71875000000000</west>
      </LatLonAltBox>
      <Lod>
        <minLodPixels>128</minLodPixels>
        <maxLodPixels>-1</maxLodPixels>
      </Lod>
    </Region>
    <GroundOverlay>
      <drawOrder>38</drawOrder>
      <Icon>
        <href>324554.png</href>
      </Icon>
      <LatLonBox>
        <north>39.34013921391522</north>
        <south>39.33960816280447</south>
        <east>26.71943664550782</east>
        <west>26.71875000000000</west>
      </LatLonBox>
    </GroundOverlay>
      </Document>
</kml>
    