<?xml version="1.0" encoding="utf-8"?>
<kml xmlns="http://www.opengis.net/kml/2.2">
  <Document>
    <name>18/150455/162260.kml</name>
    <description></description>
    <Style>
      <ListStyle id="hideChildren">
        <listItemType>checkHideChildren</listItemType>
      </ListStyle>
    </Style>
    <Region>
      <LatLonAltBox>
        <north>39.32261239717688</north>
        <south>39.32155002466662</south>
        <east>26.61987304687499</east>
        <west>26.61849975585936</west>
      </LatLonAltBox>
      <Lod>
        <minLodPixels>128</minLodPixels>
        <maxLodPixels>2048</maxLodPixels>
      </Lod>
    </Region>
    <GroundOverlay>
      <drawOrder>36</drawOrder>
      <Icon>
        <href>162260.png</href>
      </Icon>
      <LatLonBox>
        <north>39.32261239717688</north>
        <south>39.32155002466662</south>
        <east>26.61987304687499</east>
        <west>26.61849975585936</west>
      </LatLonBox>
    </GroundOverlay>

    <NetworkLink>
      <name>19/300910/324520.png</name>
      <Region>
        <LatLonAltBox>
          <north>39.32208121293873</north>
          <south>39.32155002466662</south>
          <east>26.61918640136717</east>
          <west>26.61849975585936</west>
        </LatLonAltBox>
        <Lod>
          <minLodPixels>128</minLodPixels>
          <maxLodPixels>-1</maxLodPixels>
        </Lod>
      </Region>
      <Link>
        <href>../../19/300910/324520.kml</href>
        <viewRefreshMode>onRegion</viewRefreshMode>
        <viewFormat/>
      </Link>
    </NetworkLink>
        
    <NetworkLink>
      <name>19/300911/324520.png</name>
      <Region>
        <LatLonAltBox>
          <north>39.32208121293873</north>
          <south>39.32155002466662</south>
          <east>26.61987304687499</east>
          <west>26.61918640136717</west>
        </LatLonAltBox>
        <Lod>
          <minLodPixels>128</minLodPixels>
          <maxLodPixels>-1</maxLodPixels>
        </Lod>
      </Region>
      <Link>
        <href>../../19/300911/324520.kml</href>
        <viewRefreshMode>onRegion</viewRefreshMode>
        <viewFormat/>
      </Link>
    </NetworkLink>
        
    <NetworkLink>
      <name>19/300910/324521.png</name>
      <Region>
        <LatLonAltBox>
          <north>39.32261239717688</north>
          <south>39.32208121293873</south>
          <east>26.61918640136717</east>
          <west>26.61849975585936</west>
        </LatLonAltBox>
        <Lod>
          <minLodPixels>128</minLodPixels>
          <maxLodPixels>-1</maxLodPixels>
        </Lod>
      </Region>
      <Link>
        <href>../../19/300910/324521.kml</href>
        <viewRefreshMode>onRegion</viewRefreshMode>
        <viewFormat/>
      </Link>
    </NetworkLink>
        
    <NetworkLink>
      <name>19/300911/324521.png</name>
      <Region>
        <LatLonAltBox>
          <north>39.32261239717688</north>
          <south>39.32208121293873</south>
          <east>26.61987304687499</east>
          <west>26.61918640136717</west>
        </LatLonAltBox>
        <Lod>
          <minLodPixels>128</minLodPixels>
          <maxLodPixels>-1</maxLodPixels>
        </Lod>
      </Region>
      <Link>
        <href>../../19/300911/324521.kml</href>
        <viewRefreshMode>onRegion</viewRefreshMode>
        <viewFormat/>
      </Link>
    </NetworkLink>
              </Document>
</kml>
    