<?xml version="1.0" encoding="utf-8"?>
<kml xmlns="http://www.opengis.net/kml/2.2">
  <Document>
    <name>19/301013/324522.kml</name>
    <description></description>
    <Style>
      <ListStyle id="hideChildren">
        <listItemType>checkHideChildren</listItemType>
      </ListStyle>
    </Style>
    <Region>
      <LatLonAltBox>
        <north>39.32314357738114</north>
        <south>39.32261239717688</south>
        <east>26.68991088867187</east>
        <west>26.68922424316406</west>
      </LatLonAltBox>
      <Lod>
        <minLodPixels>128</minLodPixels>
        <maxLodPixels>-1</maxLodPixels>
      </Lod>
    </Region>
    <GroundOverlay>
      <drawOrder>38</drawOrder>
      <Icon>
        <href>324522.png</href>
      </Icon>
      <LatLonBox>
        <north>39.32314357738114</north>
        <south>39.32261239717688</south>
        <east>26.68991088867187</east>
        <west>26.68922424316406</west>
      </LatLonBox>
    </GroundOverlay>
      </Document>
</kml>
    