<?xml version="1.0" encoding="utf-8"?>
<kml xmlns="http://www.opengis.net/kml/2.2">
  <Document>
    <name>18/150458/162236.kml</name>
    <description></description>
    <Style>
      <ListStyle id="hideChildren">
        <listItemType>checkHideChildren</listItemType>
      </ListStyle>
    </Style>
    <Region>
      <LatLonAltBox>
        <north>39.29711100375496</north>
        <south>39.29604824402409</south>
        <east>26.62399291992189</east>
        <west>26.62261962890626</west>
      </LatLonAltBox>
      <Lod>
        <minLodPixels>128</minLodPixels>
        <maxLodPixels>2048</maxLodPixels>
      </Lod>
    </Region>
    <GroundOverlay>
      <drawOrder>36</drawOrder>
      <Icon>
        <href>162236.png</href>
      </Icon>
      <LatLonBox>
        <north>39.29711100375496</north>
        <south>39.29604824402409</south>
        <east>26.62399291992189</east>
        <west>26.62261962890626</west>
      </LatLonBox>
    </GroundOverlay>

    <NetworkLink>
      <name>19/300916/324472.png</name>
      <Region>
        <LatLonAltBox>
          <north>39.29657962590612</north>
          <south>39.29604824402409</south>
          <east>26.62330627441408</east>
          <west>26.62261962890626</west>
        </LatLonAltBox>
        <Lod>
          <minLodPixels>128</minLodPixels>
          <maxLodPixels>-1</maxLodPixels>
        </Lod>
      </Region>
      <Link>
        <href>../../19/300916/324472.kml</href>
        <viewRefreshMode>onRegion</viewRefreshMode>
        <viewFormat/>
      </Link>
    </NetworkLink>
        
    <NetworkLink>
      <name>19/300917/324472.png</name>
      <Region>
        <LatLonAltBox>
          <north>39.29657962590612</north>
          <south>39.29604824402409</south>
          <east>26.62399291992189</east>
          <west>26.62330627441408</west>
        </LatLonAltBox>
        <Lod>
          <minLodPixels>128</minLodPixels>
          <maxLodPixels>-1</maxLodPixels>
        </Lod>
      </Region>
      <Link>
        <href>../../19/300917/324472.kml</href>
        <viewRefreshMode>onRegion</viewRefreshMode>
        <viewFormat/>
      </Link>
    </NetworkLink>
        
    <NetworkLink>
      <name>19/300916/324473.png</name>
      <Region>
        <LatLonAltBox>
          <north>39.29711100375496</north>
          <south>39.29657962590612</south>
          <east>26.62330627441408</east>
          <west>26.62261962890626</west>
        </LatLonAltBox>
        <Lod>
          <minLodPixels>128</minLodPixels>
          <maxLodPixels>-1</maxLodPixels>
        </Lod>
      </Region>
      <Link>
        <href>../../19/300916/324473.kml</href>
        <viewRefreshMode>onRegion</viewRefreshMode>
        <viewFormat/>
      </Link>
    </NetworkLink>
        
    <NetworkLink>
      <name>19/300917/324473.png</name>
      <Region>
        <LatLonAltBox>
          <north>39.29711100375496</north>
          <south>39.29657962590612</south>
          <east>26.62399291992189</east>
          <west>26.62330627441408</west>
        </LatLonAltBox>
        <Lod>
          <minLodPixels>128</minLodPixels>
          <maxLodPixels>-1</maxLodPixels>
        </Lod>
      </Region>
      <Link>
        <href>../../19/300917/324473.kml</href>
        <viewRefreshMode>onRegion</viewRefreshMode>
        <viewFormat/>
      </Link>
    </NetworkLink>
              </Document>
</kml>
    