<?xml version="1.0" encoding="utf-8"?>
<kml xmlns="http://www.opengis.net/kml/2.2">
  <Document>
    <name>18/150457/162238.kml</name>
    <description></description>
    <Style>
      <ListStyle id="hideChildren">
        <listItemType>checkHideChildren</listItemType>
      </ListStyle>
    </Style>
    <Region>
      <LatLonAltBox>
        <north>39.29923647481817</north>
        <south>39.29817374735305</south>
        <east>26.62261962890626</east>
        <west>26.62124633789064</west>
      </LatLonAltBox>
      <Lod>
        <minLodPixels>128</minLodPixels>
        <maxLodPixels>2048</maxLodPixels>
      </Lod>
    </Region>
    <GroundOverlay>
      <drawOrder>36</drawOrder>
      <Icon>
        <href>162238.png</href>
      </Icon>
      <LatLonBox>
        <north>39.29923647481817</north>
        <south>39.29817374735305</south>
        <east>26.62261962890626</east>
        <west>26.62124633789064</west>
      </LatLonBox>
    </GroundOverlay>

    <NetworkLink>
      <name>19/300914/324476.png</name>
      <Region>
        <LatLonAltBox>
          <north>39.29870511310224</north>
          <south>39.29817374735305</south>
          <east>26.62193298339845</east>
          <west>26.62124633789064</west>
        </LatLonAltBox>
        <Lod>
          <minLodPixels>128</minLodPixels>
          <maxLodPixels>-1</maxLodPixels>
        </Lod>
      </Region>
      <Link>
        <href>../../19/300914/324476.kml</href>
        <viewRefreshMode>onRegion</viewRefreshMode>
        <viewFormat/>
      </Link>
    </NetworkLink>
        
    <NetworkLink>
      <name>19/300915/324476.png</name>
      <Region>
        <LatLonAltBox>
          <north>39.29870511310224</north>
          <south>39.29817374735305</south>
          <east>26.62261962890626</east>
          <west>26.62193298339845</west>
        </LatLonAltBox>
        <Lod>
          <minLodPixels>128</minLodPixels>
          <maxLodPixels>-1</maxLodPixels>
        </Lod>
      </Region>
      <Link>
        <href>../../19/300915/324476.kml</href>
        <viewRefreshMode>onRegion</viewRefreshMode>
        <viewFormat/>
      </Link>
    </NetworkLink>
        
    <NetworkLink>
      <name>19/300914/324477.png</name>
      <Region>
        <LatLonAltBox>
          <north>39.29923647481817</north>
          <south>39.29870511310224</south>
          <east>26.62193298339845</east>
          <west>26.62124633789064</west>
        </LatLonAltBox>
        <Lod>
          <minLodPixels>128</minLodPixels>
          <maxLodPixels>-1</maxLodPixels>
        </Lod>
      </Region>
      <Link>
        <href>../../19/300914/324477.kml</href>
        <viewRefreshMode>onRegion</viewRefreshMode>
        <viewFormat/>
      </Link>
    </NetworkLink>
        
    <NetworkLink>
      <name>19/300915/324477.png</name>
      <Region>
        <LatLonAltBox>
          <north>39.29923647481817</north>
          <south>39.29870511310224</south>
          <east>26.62261962890626</east>
          <west>26.62193298339845</west>
        </LatLonAltBox>
        <Lod>
          <minLodPixels>128</minLodPixels>
          <maxLodPixels>-1</maxLodPixels>
        </Lod>
      </Region>
      <Link>
        <href>../../19/300915/324477.kml</href>
        <viewRefreshMode>onRegion</viewRefreshMode>
        <viewFormat/>
      </Link>
    </NetworkLink>
              </Document>
</kml>
    