<?xml version="1.0" encoding="utf-8"?>
<kml xmlns="http://www.opengis.net/kml/2.2">
  <Document>
    <name>18/150525/162259.kml</name>
    <description></description>
    <Style>
      <ListStyle id="hideChildren">
        <listItemType>checkHideChildren</listItemType>
      </ListStyle>
    </Style>
    <Region>
      <LatLonAltBox>
        <north>39.32155002466662</north>
        <south>39.32048763602080</south>
        <east>26.71600341796876</east>
        <west>26.71463012695314</west>
      </LatLonAltBox>
      <Lod>
        <minLodPixels>128</minLodPixels>
        <maxLodPixels>2048</maxLodPixels>
      </Lod>
    </Region>
    <GroundOverlay>
      <drawOrder>36</drawOrder>
      <Icon>
        <href>162259.png</href>
      </Icon>
      <LatLonBox>
        <north>39.32155002466662</north>
        <south>39.32048763602080</south>
        <east>26.71600341796876</east>
        <west>26.71463012695314</west>
      </LatLonBox>
    </GroundOverlay>

    <NetworkLink>
      <name>19/301050/324518.png</name>
      <Region>
        <LatLonAltBox>
          <north>39.32101883236065</north>
          <south>39.32048763602080</south>
          <east>26.71531677246095</east>
          <west>26.71463012695314</west>
        </LatLonAltBox>
        <Lod>
          <minLodPixels>128</minLodPixels>
          <maxLodPixels>-1</maxLodPixels>
        </Lod>
      </Region>
      <Link>
        <href>../../19/301050/324518.kml</href>
        <viewRefreshMode>onRegion</viewRefreshMode>
        <viewFormat/>
      </Link>
    </NetworkLink>
        
    <NetworkLink>
      <name>19/301051/324518.png</name>
      <Region>
        <LatLonAltBox>
          <north>39.32101883236065</north>
          <south>39.32048763602080</south>
          <east>26.71600341796876</east>
          <west>26.71531677246095</west>
        </LatLonAltBox>
        <Lod>
          <minLodPixels>128</minLodPixels>
          <maxLodPixels>-1</maxLodPixels>
        </Lod>
      </Region>
      <Link>
        <href>../../19/301051/324518.kml</href>
        <viewRefreshMode>onRegion</viewRefreshMode>
        <viewFormat/>
      </Link>
    </NetworkLink>
        
    <NetworkLink>
      <name>19/301050/324519.png</name>
      <Region>
        <LatLonAltBox>
          <north>39.32155002466662</north>
          <south>39.32101883236065</south>
          <east>26.71531677246095</east>
          <west>26.71463012695314</west>
        </LatLonAltBox>
        <Lod>
          <minLodPixels>128</minLodPixels>
          <maxLodPixels>-1</maxLodPixels>
        </Lod>
      </Region>
      <Link>
        <href>../../19/301050/324519.kml</href>
        <viewRefreshMode>onRegion</viewRefreshMode>
        <viewFormat/>
      </Link>
    </NetworkLink>
        
    <NetworkLink>
      <name>19/301051/324519.png</name>
      <Region>
        <LatLonAltBox>
          <north>39.32155002466662</north>
          <south>39.32101883236065</south>
          <east>26.71600341796876</east>
          <west>26.71531677246095</west>
        </LatLonAltBox>
        <Lod>
          <minLodPixels>128</minLodPixels>
          <maxLodPixels>-1</maxLodPixels>
        </Lod>
      </Region>
      <Link>
        <href>../../19/301051/324519.kml</href>
        <viewRefreshMode>onRegion</viewRefreshMode>
        <viewFormat/>
      </Link>
    </NetworkLink>
              </Document>
</kml>
    