<?xml version="1.0" encoding="utf-8"?>
<kml xmlns="http://www.opengis.net/kml/2.2">
  <Document>
    <name>15/18811/20287.kml</name>
    <description></description>
    <Style>
      <ListStyle id="hideChildren">
        <listItemType>checkHideChildren</listItemType>
      </ListStyle>
    </Style>
    <Region>
      <LatLonAltBox>
        <north>39.36827914916011</north>
        <south>39.35978526869001</south>
        <east>26.67480468750000</east>
        <west>26.66381835937501</west>
      </LatLonAltBox>
      <Lod>
        <minLodPixels>128</minLodPixels>
        <maxLodPixels>2048</maxLodPixels>
      </Lod>
    </Region>
    <GroundOverlay>
      <drawOrder>30</drawOrder>
      <Icon>
        <href>20287.png</href>
      </Icon>
      <LatLonBox>
        <north>39.36827914916011</north>
        <south>39.35978526869001</south>
        <east>26.67480468750000</east>
        <west>26.66381835937501</west>
      </LatLonBox>
    </GroundOverlay>

    <NetworkLink>
      <name>16/37622/40574.png</name>
      <Region>
        <LatLonAltBox>
          <north>39.36403233804798</north>
          <south>39.35978526869001</south>
          <east>26.66931152343751</east>
          <west>26.66381835937501</west>
        </LatLonAltBox>
        <Lod>
          <minLodPixels>128</minLodPixels>
          <maxLodPixels>-1</maxLodPixels>
        </Lod>
      </Region>
      <Link>
        <href>../../16/37622/40574.kml</href>
        <viewRefreshMode>onRegion</viewRefreshMode>
        <viewFormat/>
      </Link>
    </NetworkLink>
        
    <NetworkLink>
      <name>16/37623/40574.png</name>
      <Region>
        <LatLonAltBox>
          <north>39.36403233804798</north>
          <south>39.35978526869001</south>
          <east>26.67480468750000</east>
          <west>26.66931152343751</west>
        </LatLonAltBox>
        <Lod>
          <minLodPixels>128</minLodPixels>
          <maxLodPixels>-1</maxLodPixels>
        </Lod>
      </Region>
      <Link>
        <href>../../16/37623/40574.kml</href>
        <viewRefreshMode>onRegion</viewRefreshMode>
        <viewFormat/>
      </Link>
    </NetworkLink>
        
    <NetworkLink>
      <name>16/37622/40575.png</name>
      <Region>
        <LatLonAltBox>
          <north>39.36827914916011</north>
          <south>39.36403233804798</south>
          <east>26.66931152343751</east>
          <west>26.66381835937501</west>
        </LatLonAltBox>
        <Lod>
          <minLodPixels>128</minLodPixels>
          <maxLodPixels>-1</maxLodPixels>
        </Lod>
      </Region>
      <Link>
        <href>../../16/37622/40575.kml</href>
        <viewRefreshMode>onRegion</viewRefreshMode>
        <viewFormat/>
      </Link>
    </NetworkLink>
        
    <NetworkLink>
      <name>16/37623/40575.png</name>
      <Region>
        <LatLonAltBox>
          <north>39.36827914916011</north>
          <south>39.36403233804798</south>
          <east>26.67480468750000</east>
          <west>26.66931152343751</west>
        </LatLonAltBox>
        <Lod>
          <minLodPixels>128</minLodPixels>
          <maxLodPixels>-1</maxLodPixels>
        </Lod>
      </Region>
      <Link>
        <href>../../16/37623/40575.kml</href>
        <viewRefreshMode>onRegion</viewRefreshMode>
        <viewFormat/>
      </Link>
    </NetworkLink>
              </Document>
</kml>
    