<?xml version="1.0" encoding="utf-8"?>
<kml xmlns="http://www.opengis.net/kml/2.2">
  <Document>
    <name>19/300933/324619.kml</name>
    <description></description>
    <Style>
      <ListStyle id="hideChildren">
        <listItemType>checkHideChildren</listItemType>
      </ListStyle>
    </Style>
    <Region>
      <LatLonAltBox>
        <north>39.37464888160068</north>
        <south>39.37411809275825</south>
        <east>26.63497924804688</east>
        <west>26.63429260253907</west>
      </LatLonAltBox>
      <Lod>
        <minLodPixels>128</minLodPixels>
        <maxLodPixels>-1</maxLodPixels>
      </Lod>
    </Region>
    <GroundOverlay>
      <drawOrder>38</drawOrder>
      <Icon>
        <href>324619.png</href>
      </Icon>
      <LatLonBox>
        <north>39.37464888160068</north>
        <south>39.37411809275825</south>
        <east>26.63497924804688</east>
        <west>26.63429260253907</west>
      </LatLonBox>
    </GroundOverlay>
      </Document>
</kml>
    