<?xml version="1.0" encoding="utf-8"?>
<kml xmlns="http://www.opengis.net/kml/2.2">
  <Document>
    <name>17/75253/81121.kml</name>
    <description></description>
    <Style>
      <ListStyle id="hideChildren">
        <listItemType>checkHideChildren</listItemType>
      </ListStyle>
    </Style>
    <Region>
      <LatLonAltBox>
        <north>39.30454987014581</north>
        <south>39.30242456041487</south>
        <east>26.69128417968750</east>
        <west>26.68853759765625</west>
      </LatLonAltBox>
      <Lod>
        <minLodPixels>128</minLodPixels>
        <maxLodPixels>2048</maxLodPixels>
      </Lod>
    </Region>
    <GroundOverlay>
      <drawOrder>34</drawOrder>
      <Icon>
        <href>81121.png</href>
      </Icon>
      <LatLonBox>
        <north>39.30454987014581</north>
        <south>39.30242456041487</south>
        <east>26.69128417968750</east>
        <west>26.68853759765625</west>
      </LatLonBox>
    </GroundOverlay>

    <NetworkLink>
      <name>18/150506/162242.png</name>
      <Region>
        <LatLonAltBox>
          <north>39.30348722334712</north>
          <south>39.30242456041487</south>
          <east>26.68991088867187</east>
          <west>26.68853759765625</west>
        </LatLonAltBox>
        <Lod>
          <minLodPixels>128</minLodPixels>
          <maxLodPixels>-1</maxLodPixels>
        </Lod>
      </Region>
      <Link>
        <href>../../18/150506/162242.kml</href>
        <viewRefreshMode>onRegion</viewRefreshMode>
        <viewFormat/>
      </Link>
    </NetworkLink>
        
    <NetworkLink>
      <name>18/150507/162242.png</name>
      <Region>
        <LatLonAltBox>
          <north>39.30348722334712</north>
          <south>39.30242456041487</south>
          <east>26.69128417968750</east>
          <west>26.68991088867187</west>
        </LatLonAltBox>
        <Lod>
          <minLodPixels>128</minLodPixels>
          <maxLodPixels>-1</maxLodPixels>
        </Lod>
      </Region>
      <Link>
        <href>../../18/150507/162242.kml</href>
        <viewRefreshMode>onRegion</viewRefreshMode>
        <viewFormat/>
      </Link>
    </NetworkLink>
        
    <NetworkLink>
      <name>18/150506/162243.png</name>
      <Region>
        <LatLonAltBox>
          <north>39.30454987014581</north>
          <south>39.30348722334712</south>
          <east>26.68991088867187</east>
          <west>26.68853759765625</west>
        </LatLonAltBox>
        <Lod>
          <minLodPixels>128</minLodPixels>
          <maxLodPixels>-1</maxLodPixels>
        </Lod>
      </Region>
      <Link>
        <href>../../18/150506/162243.kml</href>
        <viewRefreshMode>onRegion</viewRefreshMode>
        <viewFormat/>
      </Link>
    </NetworkLink>
        
    <NetworkLink>
      <name>18/150507/162243.png</name>
      <Region>
        <LatLonAltBox>
          <north>39.30454987014581</north>
          <south>39.30348722334712</south>
          <east>26.69128417968750</east>
          <west>26.68991088867187</west>
        </LatLonAltBox>
        <Lod>
          <minLodPixels>128</minLodPixels>
          <maxLodPixels>-1</maxLodPixels>
        </Lod>
      </Region>
      <Link>
        <href>../../18/150507/162243.kml</href>
        <viewRefreshMode>onRegion</viewRefreshMode>
        <viewFormat/>
      </Link>
    </NetworkLink>
              </Document>
</kml>
    