<?xml version="1.0" encoding="utf-8"?>
<kml xmlns="http://www.opengis.net/kml/2.2">
  <Document>
    <name>19/301025/324583.kml</name>
    <description></description>
    <Style>
      <ListStyle id="hideChildren">
        <listItemType>checkHideChildren</listItemType>
      </ListStyle>
    </Style>
    <Region>
      <LatLonAltBox>
        <north>39.35553794109382</north>
        <south>39.35500700698732</south>
        <east>26.69815063476561</east>
        <west>26.69746398925780</west>
      </LatLonAltBox>
      <Lod>
        <minLodPixels>128</minLodPixels>
        <maxLodPixels>-1</maxLodPixels>
      </Lod>
    </Region>
    <GroundOverlay>
      <drawOrder>38</drawOrder>
      <Icon>
        <href>324583.png</href>
      </Icon>
      <LatLonBox>
        <north>39.35553794109382</north>
        <south>39.35500700698732</south>
        <east>26.69815063476561</east>
        <west>26.69746398925780</west>
      </LatLonBox>
    </GroundOverlay>
      </Document>
</kml>
    