<?xml version="1.0" encoding="utf-8"?>
<kml xmlns="http://www.opengis.net/kml/2.2">
  <Document>
    <name>18/150502/162313.kml</name>
    <description></description>
    <Style>
      <ListStyle id="hideChildren">
        <listItemType>checkHideChildren</listItemType>
      </ListStyle>
    </Style>
    <Region>
      <LatLonAltBox>
        <north>39.37889504706486</north>
        <south>39.37783352991156</south>
        <east>26.68441772460938</east>
        <west>26.68304443359375</west>
      </LatLonAltBox>
      <Lod>
        <minLodPixels>128</minLodPixels>
        <maxLodPixels>2048</maxLodPixels>
      </Lod>
    </Region>
    <GroundOverlay>
      <drawOrder>36</drawOrder>
      <Icon>
        <href>162313.png</href>
      </Icon>
      <LatLonBox>
        <north>39.37889504706486</north>
        <south>39.37783352991156</south>
        <east>26.68441772460938</east>
        <west>26.68304443359375</west>
      </LatLonBox>
    </GroundOverlay>

    <NetworkLink>
      <name>19/301004/324626.png</name>
      <Region>
        <LatLonAltBox>
          <north>39.37836429050595</north>
          <south>39.37783352991156</south>
          <east>26.68373107910156</east>
          <west>26.68304443359375</west>
        </LatLonAltBox>
        <Lod>
          <minLodPixels>128</minLodPixels>
          <maxLodPixels>-1</maxLodPixels>
        </Lod>
      </Region>
      <Link>
        <href>../../19/301004/324626.kml</href>
        <viewRefreshMode>onRegion</viewRefreshMode>
        <viewFormat/>
      </Link>
    </NetworkLink>
        
    <NetworkLink>
      <name>19/301005/324626.png</name>
      <Region>
        <LatLonAltBox>
          <north>39.37836429050595</north>
          <south>39.37783352991156</south>
          <east>26.68441772460938</east>
          <west>26.68373107910156</west>
        </LatLonAltBox>
        <Lod>
          <minLodPixels>128</minLodPixels>
          <maxLodPixels>-1</maxLodPixels>
        </Lod>
      </Region>
      <Link>
        <href>../../19/301005/324626.kml</href>
        <viewRefreshMode>onRegion</viewRefreshMode>
        <viewFormat/>
      </Link>
    </NetworkLink>
        
    <NetworkLink>
      <name>19/301004/324627.png</name>
      <Region>
        <LatLonAltBox>
          <north>39.37889504706486</north>
          <south>39.37836429050595</south>
          <east>26.68373107910156</east>
          <west>26.68304443359375</west>
        </LatLonAltBox>
        <Lod>
          <minLodPixels>128</minLodPixels>
          <maxLodPixels>-1</maxLodPixels>
        </Lod>
      </Region>
      <Link>
        <href>../../19/301004/324627.kml</href>
        <viewRefreshMode>onRegion</viewRefreshMode>
        <viewFormat/>
      </Link>
    </NetworkLink>
        
    <NetworkLink>
      <name>19/301005/324627.png</name>
      <Region>
        <LatLonAltBox>
          <north>39.37889504706486</north>
          <south>39.37836429050595</south>
          <east>26.68441772460938</east>
          <west>26.68373107910156</west>
        </LatLonAltBox>
        <Lod>
          <minLodPixels>128</minLodPixels>
          <maxLodPixels>-1</maxLodPixels>
        </Lod>
      </Region>
      <Link>
        <href>../../19/301005/324627.kml</href>
        <viewRefreshMode>onRegion</viewRefreshMode>
        <viewFormat/>
      </Link>
    </NetworkLink>
              </Document>
</kml>
    