<?xml version="1.0" encoding="utf-8"?>
<kml xmlns="http://www.opengis.net/kml/2.2">
  <Document>
    <name>19/300911/324481.kml</name>
    <description></description>
    <Style>
      <ListStyle id="hideChildren">
        <listItemType>checkHideChildren</listItemType>
      </ListStyle>
    </Style>
    <Region>
      <LatLonAltBox>
        <north>39.30136188134922</north>
        <south>39.30083053576642</south>
        <east>26.61987304687499</east>
        <west>26.61918640136717</west>
      </LatLonAltBox>
      <Lod>
        <minLodPixels>128</minLodPixels>
        <maxLodPixels>-1</maxLodPixels>
      </Lod>
    </Region>
    <GroundOverlay>
      <drawOrder>38</drawOrder>
      <Icon>
        <href>324481.png</href>
      </Icon>
      <LatLonBox>
        <north>39.30136188134922</north>
        <south>39.30083053576642</south>
        <east>26.61987304687499</east>
        <west>26.61918640136717</west>
      </LatLonBox>
    </GroundOverlay>
      </Document>
</kml>
    