<?xml version="1.0" encoding="utf-8"?>
<kml xmlns="http://www.opengis.net/kml/2.2">
  <Document>
    <name>19/300973/324511.kml</name>
    <description></description>
    <Style>
      <ListStyle id="hideChildren">
        <listItemType>checkHideChildren</listItemType>
      </ListStyle>
    </Style>
    <Region>
      <LatLonAltBox>
        <north>39.31730037327102</north>
        <south>39.31676914869444</south>
        <east>26.66244506835936</east>
        <west>26.66175842285155</west>
      </LatLonAltBox>
      <Lod>
        <minLodPixels>128</minLodPixels>
        <maxLodPixels>-1</maxLodPixels>
      </Lod>
    </Region>
    <GroundOverlay>
      <drawOrder>38</drawOrder>
      <Icon>
        <href>324511.png</href>
      </Icon>
      <LatLonBox>
        <north>39.31730037327102</north>
        <south>39.31676914869444</south>
        <east>26.66244506835936</east>
        <west>26.66175842285155</west>
      </LatLonBox>
    </GroundOverlay>
      </Document>
</kml>
    