<?xml version="1.0" encoding="utf-8"?>
<kml xmlns="http://www.opengis.net/kml/2.2">
  <Document>
    <name>17/75224/81157.kml</name>
    <description></description>
    <Style>
      <ListStyle id="hideChildren">
        <listItemType>checkHideChildren</listItemType>
      </ListStyle>
    </Style>
    <Region>
      <LatLonAltBox>
        <north>39.38101803294520</north>
        <south>39.37889504706486</south>
        <east>26.61163330078124</east>
        <west>26.60888671874999</west>
      </LatLonAltBox>
      <Lod>
        <minLodPixels>128</minLodPixels>
        <maxLodPixels>2048</maxLodPixels>
      </Lod>
    </Region>
    <GroundOverlay>
      <drawOrder>34</drawOrder>
      <Icon>
        <href>81157.png</href>
      </Icon>
      <LatLonBox>
        <north>39.38101803294520</north>
        <south>39.37889504706486</south>
        <east>26.61163330078124</east>
        <west>26.60888671874999</west>
      </LatLonBox>
    </GroundOverlay>

    <NetworkLink>
      <name>18/150448/162314.png</name>
      <Region>
        <LatLonAltBox>
          <north>39.37995654807611</north>
          <south>39.37889504706486</south>
          <east>26.61026000976561</east>
          <west>26.60888671874999</west>
        </LatLonAltBox>
        <Lod>
          <minLodPixels>128</minLodPixels>
          <maxLodPixels>-1</maxLodPixels>
        </Lod>
      </Region>
      <Link>
        <href>../../18/150448/162314.kml</href>
        <viewRefreshMode>onRegion</viewRefreshMode>
        <viewFormat/>
      </Link>
    </NetworkLink>
        
    <NetworkLink>
      <name>18/150449/162314.png</name>
      <Region>
        <LatLonAltBox>
          <north>39.37995654807611</north>
          <south>39.37889504706486</south>
          <east>26.61163330078124</east>
          <west>26.61026000976561</west>
        </LatLonAltBox>
        <Lod>
          <minLodPixels>128</minLodPixels>
          <maxLodPixels>-1</maxLodPixels>
        </Lod>
      </Region>
      <Link>
        <href>../../18/150449/162314.kml</href>
        <viewRefreshMode>onRegion</viewRefreshMode>
        <viewFormat/>
      </Link>
    </NetworkLink>
        
    <NetworkLink>
      <name>18/150448/162315.png</name>
      <Region>
        <LatLonAltBox>
          <north>39.38101803294520</north>
          <south>39.37995654807611</south>
          <east>26.61026000976561</east>
          <west>26.60888671874999</west>
        </LatLonAltBox>
        <Lod>
          <minLodPixels>128</minLodPixels>
          <maxLodPixels>-1</maxLodPixels>
        </Lod>
      </Region>
      <Link>
        <href>../../18/150448/162315.kml</href>
        <viewRefreshMode>onRegion</viewRefreshMode>
        <viewFormat/>
      </Link>
    </NetworkLink>
        
    <NetworkLink>
      <name>18/150449/162315.png</name>
      <Region>
        <LatLonAltBox>
          <north>39.38101803294520</north>
          <south>39.37995654807611</south>
          <east>26.61163330078124</east>
          <west>26.61026000976561</west>
        </LatLonAltBox>
        <Lod>
          <minLodPixels>128</minLodPixels>
          <maxLodPixels>-1</maxLodPixels>
        </Lod>
      </Region>
      <Link>
        <href>../../18/150449/162315.kml</href>
        <viewRefreshMode>onRegion</viewRefreshMode>
        <viewFormat/>
      </Link>
    </NetworkLink>
              </Document>
</kml>
    