<?xml version="1.0" encoding="utf-8"?>
<kml xmlns="http://www.opengis.net/kml/2.2">
  <Document>
    <name>18/150485/162265.kml</name>
    <description></description>
    <Style>
      <ListStyle id="hideChildren">
        <listItemType>checkHideChildren</listItemType>
      </ListStyle>
    </Style>
    <Region>
      <LatLonAltBox>
        <north>39.32792401769030</north>
        <south>39.32686172585973</south>
        <east>26.66107177734374</east>
        <west>26.65969848632811</west>
      </LatLonAltBox>
      <Lod>
        <minLodPixels>128</minLodPixels>
        <maxLodPixels>2048</maxLodPixels>
      </Lod>
    </Region>
    <GroundOverlay>
      <drawOrder>36</drawOrder>
      <Icon>
        <href>162265.png</href>
      </Icon>
      <LatLonBox>
        <north>39.32792401769030</north>
        <south>39.32686172585973</south>
        <east>26.66107177734374</east>
        <west>26.65969848632811</west>
      </LatLonBox>
    </GroundOverlay>

    <NetworkLink>
      <name>19/300970/324530.png</name>
      <Region>
        <LatLonAltBox>
          <north>39.32739287379205</north>
          <south>39.32686172585973</south>
          <east>26.66038513183592</east>
          <west>26.65969848632811</west>
        </LatLonAltBox>
        <Lod>
          <minLodPixels>128</minLodPixels>
          <maxLodPixels>-1</maxLodPixels>
        </Lod>
      </Region>
      <Link>
        <href>../../19/300970/324530.kml</href>
        <viewRefreshMode>onRegion</viewRefreshMode>
        <viewFormat/>
      </Link>
    </NetworkLink>
        
    <NetworkLink>
      <name>19/300971/324530.png</name>
      <Region>
        <LatLonAltBox>
          <north>39.32739287379205</north>
          <south>39.32686172585973</south>
          <east>26.66107177734374</east>
          <west>26.66038513183592</west>
        </LatLonAltBox>
        <Lod>
          <minLodPixels>128</minLodPixels>
          <maxLodPixels>-1</maxLodPixels>
        </Lod>
      </Region>
      <Link>
        <href>../../19/300971/324530.kml</href>
        <viewRefreshMode>onRegion</viewRefreshMode>
        <viewFormat/>
      </Link>
    </NetworkLink>
        
    <NetworkLink>
      <name>19/300970/324531.png</name>
      <Region>
        <LatLonAltBox>
          <north>39.32792401769030</north>
          <south>39.32739287379205</south>
          <east>26.66038513183592</east>
          <west>26.65969848632811</west>
        </LatLonAltBox>
        <Lod>
          <minLodPixels>128</minLodPixels>
          <maxLodPixels>-1</maxLodPixels>
        </Lod>
      </Region>
      <Link>
        <href>../../19/300970/324531.kml</href>
        <viewRefreshMode>onRegion</viewRefreshMode>
        <viewFormat/>
      </Link>
    </NetworkLink>
        
    <NetworkLink>
      <name>19/300971/324531.png</name>
      <Region>
        <LatLonAltBox>
          <north>39.32792401769030</north>
          <south>39.32739287379205</south>
          <east>26.66107177734374</east>
          <west>26.66038513183592</west>
        </LatLonAltBox>
        <Lod>
          <minLodPixels>128</minLodPixels>
          <maxLodPixels>-1</maxLodPixels>
        </Lod>
      </Region>
      <Link>
        <href>../../19/300971/324531.kml</href>
        <viewRefreshMode>onRegion</viewRefreshMode>
        <viewFormat/>
      </Link>
    </NetworkLink>
              </Document>
</kml>
    