<?xml version="1.0" encoding="utf-8"?>
<kml xmlns="http://www.opengis.net/kml/2.2">
  <Document>
    <name>18/150485/162263.kml</name>
    <description></description>
    <Style>
      <ListStyle id="hideChildren">
        <listItemType>checkHideChildren</listItemType>
      </ListStyle>
    </Style>
    <Region>
      <LatLonAltBox>
        <north>39.32579941789298</north>
        <south>39.32473709379018</south>
        <east>26.66107177734374</east>
        <west>26.65969848632811</west>
      </LatLonAltBox>
      <Lod>
        <minLodPixels>128</minLodPixels>
        <maxLodPixels>2048</maxLodPixels>
      </Lod>
    </Region>
    <GroundOverlay>
      <drawOrder>36</drawOrder>
      <Icon>
        <href>162263.png</href>
      </Icon>
      <LatLonBox>
        <north>39.32579941789298</north>
        <south>39.32473709379018</south>
        <east>26.66107177734374</east>
        <west>26.65969848632811</west>
      </LatLonBox>
    </GroundOverlay>

    <NetworkLink>
      <name>19/300970/324526.png</name>
      <Region>
        <LatLonAltBox>
          <north>39.32526825785857</north>
          <south>39.32473709379018</south>
          <east>26.66038513183592</east>
          <west>26.65969848632811</west>
        </LatLonAltBox>
        <Lod>
          <minLodPixels>128</minLodPixels>
          <maxLodPixels>-1</maxLodPixels>
        </Lod>
      </Region>
      <Link>
        <href>../../19/300970/324526.kml</href>
        <viewRefreshMode>onRegion</viewRefreshMode>
        <viewFormat/>
      </Link>
    </NetworkLink>
        
    <NetworkLink>
      <name>19/300971/324526.png</name>
      <Region>
        <LatLonAltBox>
          <north>39.32526825785857</north>
          <south>39.32473709379018</south>
          <east>26.66107177734374</east>
          <west>26.66038513183592</west>
        </LatLonAltBox>
        <Lod>
          <minLodPixels>128</minLodPixels>
          <maxLodPixels>-1</maxLodPixels>
        </Lod>
      </Region>
      <Link>
        <href>../../19/300971/324526.kml</href>
        <viewRefreshMode>onRegion</viewRefreshMode>
        <viewFormat/>
      </Link>
    </NetworkLink>
        
    <NetworkLink>
      <name>19/300970/324527.png</name>
      <Region>
        <LatLonAltBox>
          <north>39.32579941789298</north>
          <south>39.32526825785857</south>
          <east>26.66038513183592</east>
          <west>26.65969848632811</west>
        </LatLonAltBox>
        <Lod>
          <minLodPixels>128</minLodPixels>
          <maxLodPixels>-1</maxLodPixels>
        </Lod>
      </Region>
      <Link>
        <href>../../19/300970/324527.kml</href>
        <viewRefreshMode>onRegion</viewRefreshMode>
        <viewFormat/>
      </Link>
    </NetworkLink>
        
    <NetworkLink>
      <name>19/300971/324527.png</name>
      <Region>
        <LatLonAltBox>
          <north>39.32579941789298</north>
          <south>39.32526825785857</south>
          <east>26.66107177734374</east>
          <west>26.66038513183592</west>
        </LatLonAltBox>
        <Lod>
          <minLodPixels>128</minLodPixels>
          <maxLodPixels>-1</maxLodPixels>
        </Lod>
      </Region>
      <Link>
        <href>../../19/300971/324527.kml</href>
        <viewRefreshMode>onRegion</viewRefreshMode>
        <viewFormat/>
      </Link>
    </NetworkLink>
              </Document>
</kml>
    