<?xml version="1.0" encoding="utf-8"?>
<kml xmlns="http://www.opengis.net/kml/2.2">
  <Document>
    <name>17/75244/81123.kml</name>
    <description></description>
    <Style>
      <ListStyle id="hideChildren">
        <listItemType>checkHideChildren</listItemType>
      </ListStyle>
    </Style>
    <Region>
      <LatLonAltBox>
        <north>39.30880029600291</north>
        <south>39.30667511534213</south>
        <east>26.66656494140626</east>
        <west>26.66381835937501</west>
      </LatLonAltBox>
      <Lod>
        <minLodPixels>128</minLodPixels>
        <maxLodPixels>2048</maxLodPixels>
      </Lod>
    </Region>
    <GroundOverlay>
      <drawOrder>34</drawOrder>
      <Icon>
        <href>81123.png</href>
      </Icon>
      <LatLonBox>
        <north>39.30880029600291</north>
        <south>39.30667511534213</south>
        <east>26.66656494140626</east>
        <west>26.66381835937501</west>
      </LatLonBox>
    </GroundOverlay>

    <NetworkLink>
      <name>18/150488/162246.png</name>
      <Region>
        <LatLonAltBox>
          <north>39.30773771373956</north>
          <south>39.30667511534213</south>
          <east>26.66519165039064</east>
          <west>26.66381835937501</west>
        </LatLonAltBox>
        <Lod>
          <minLodPixels>128</minLodPixels>
          <maxLodPixels>-1</maxLodPixels>
        </Lod>
      </Region>
      <Link>
        <href>../../18/150488/162246.kml</href>
        <viewRefreshMode>onRegion</viewRefreshMode>
        <viewFormat/>
      </Link>
    </NetworkLink>
        
    <NetworkLink>
      <name>18/150489/162246.png</name>
      <Region>
        <LatLonAltBox>
          <north>39.30773771373956</north>
          <south>39.30667511534213</south>
          <east>26.66656494140626</east>
          <west>26.66519165039064</west>
        </LatLonAltBox>
        <Lod>
          <minLodPixels>128</minLodPixels>
          <maxLodPixels>-1</maxLodPixels>
        </Lod>
      </Region>
      <Link>
        <href>../../18/150489/162246.kml</href>
        <viewRefreshMode>onRegion</viewRefreshMode>
        <viewFormat/>
      </Link>
    </NetworkLink>
        
    <NetworkLink>
      <name>18/150488/162247.png</name>
      <Region>
        <LatLonAltBox>
          <north>39.30880029600291</north>
          <south>39.30773771373956</south>
          <east>26.66519165039064</east>
          <west>26.66381835937501</west>
        </LatLonAltBox>
        <Lod>
          <minLodPixels>128</minLodPixels>
          <maxLodPixels>-1</maxLodPixels>
        </Lod>
      </Region>
      <Link>
        <href>../../18/150488/162247.kml</href>
        <viewRefreshMode>onRegion</viewRefreshMode>
        <viewFormat/>
      </Link>
    </NetworkLink>
        
    <NetworkLink>
      <name>18/150489/162247.png</name>
      <Region>
        <LatLonAltBox>
          <north>39.30880029600291</north>
          <south>39.30773771373956</south>
          <east>26.66656494140626</east>
          <west>26.66519165039064</west>
        </LatLonAltBox>
        <Lod>
          <minLodPixels>128</minLodPixels>
          <maxLodPixels>-1</maxLodPixels>
        </Lod>
      </Region>
      <Link>
        <href>../../18/150489/162247.kml</href>
        <viewRefreshMode>onRegion</viewRefreshMode>
        <viewFormat/>
      </Link>
    </NetworkLink>
              </Document>
</kml>
    