<?xml version="1.0" encoding="utf-8"?>
<kml xmlns="http://www.opengis.net/kml/2.2">
  <Document>
    <name>18/150447/162284.kml</name>
    <description></description>
    <Style>
      <ListStyle id="hideChildren">
        <listItemType>checkHideChildren</listItemType>
      </ListStyle>
    </Style>
    <Region>
      <LatLonAltBox>
        <north>39.34810449643775</north>
        <south>39.34704251121732</south>
        <east>26.60888671874999</east>
        <west>26.60751342773437</west>
      </LatLonAltBox>
      <Lod>
        <minLodPixels>128</minLodPixels>
        <maxLodPixels>2048</maxLodPixels>
      </Lod>
    </Region>
    <GroundOverlay>
      <drawOrder>36</drawOrder>
      <Icon>
        <href>162284.png</href>
      </Icon>
      <LatLonBox>
        <north>39.34810449643775</north>
        <south>39.34704251121732</south>
        <east>26.60888671874999</east>
        <west>26.60751342773437</west>
      </LatLonBox>
    </GroundOverlay>

    <NetworkLink>
      <name>19/300894/324568.png</name>
      <Region>
        <LatLonAltBox>
          <north>39.34757350584485</north>
          <south>39.34704251121732</south>
          <east>26.60820007324218</east>
          <west>26.60751342773437</west>
        </LatLonAltBox>
        <Lod>
          <minLodPixels>128</minLodPixels>
          <maxLodPixels>-1</maxLodPixels>
        </Lod>
      </Region>
      <Link>
        <href>../../19/300894/324568.kml</href>
        <viewRefreshMode>onRegion</viewRefreshMode>
        <viewFormat/>
      </Link>
    </NetworkLink>
        
    <NetworkLink>
      <name>19/300895/324568.png</name>
      <Region>
        <LatLonAltBox>
          <north>39.34757350584485</north>
          <south>39.34704251121732</south>
          <east>26.60888671874999</east>
          <west>26.60820007324218</west>
        </LatLonAltBox>
        <Lod>
          <minLodPixels>128</minLodPixels>
          <maxLodPixels>-1</maxLodPixels>
        </Lod>
      </Region>
      <Link>
        <href>../../19/300895/324568.kml</href>
        <viewRefreshMode>onRegion</viewRefreshMode>
        <viewFormat/>
      </Link>
    </NetworkLink>
        
    <NetworkLink>
      <name>19/300894/324569.png</name>
      <Region>
        <LatLonAltBox>
          <north>39.34810449643775</north>
          <south>39.34757350584485</south>
          <east>26.60820007324218</east>
          <west>26.60751342773437</west>
        </LatLonAltBox>
        <Lod>
          <minLodPixels>128</minLodPixels>
          <maxLodPixels>-1</maxLodPixels>
        </Lod>
      </Region>
      <Link>
        <href>../../19/300894/324569.kml</href>
        <viewRefreshMode>onRegion</viewRefreshMode>
        <viewFormat/>
      </Link>
    </NetworkLink>
        
    <NetworkLink>
      <name>19/300895/324569.png</name>
      <Region>
        <LatLonAltBox>
          <north>39.34810449643775</north>
          <south>39.34757350584485</south>
          <east>26.60888671874999</east>
          <west>26.60820007324218</west>
        </LatLonAltBox>
        <Lod>
          <minLodPixels>128</minLodPixels>
          <maxLodPixels>-1</maxLodPixels>
        </Lod>
      </Region>
      <Link>
        <href>../../19/300895/324569.kml</href>
        <viewRefreshMode>onRegion</viewRefreshMode>
        <viewFormat/>
      </Link>
    </NetworkLink>
              </Document>
</kml>
    