<?xml version="1.0" encoding="utf-8"?>
<kml xmlns="http://www.opengis.net/kml/2.2">
  <Document>
    <name>19/301069/324627.kml</name>
    <description></description>
    <Style>
      <ListStyle id="hideChildren">
        <listItemType>checkHideChildren</listItemType>
      </ListStyle>
    </Style>
    <Region>
      <LatLonAltBox>
        <north>39.37889504706486</north>
        <south>39.37836429050595</south>
        <east>26.72836303710938</east>
        <west>26.72767639160156</west>
      </LatLonAltBox>
      <Lod>
        <minLodPixels>128</minLodPixels>
        <maxLodPixels>-1</maxLodPixels>
      </Lod>
    </Region>
    <GroundOverlay>
      <drawOrder>38</drawOrder>
      <Icon>
        <href>324627.png</href>
      </Icon>
      <LatLonBox>
        <north>39.37889504706486</north>
        <south>39.37836429050595</south>
        <east>26.72836303710938</east>
        <west>26.72767639160156</west>
      </LatLonBox>
    </GroundOverlay>
      </Document>
</kml>
    