<?xml version="1.0" encoding="utf-8"?>
<kml xmlns="http://www.opengis.net/kml/2.2">
  <Document>
    <name>18/150533/162304.kml</name>
    <description></description>
    <Style>
      <ListStyle id="hideChildren">
        <listItemType>checkHideChildren</listItemType>
      </ListStyle>
    </Style>
    <Region>
      <LatLonAltBox>
        <north>39.36934081158634</north>
        <south>39.36827914916011</south>
        <east>26.72698974609375</east>
        <west>26.72561645507812</west>
      </LatLonAltBox>
      <Lod>
        <minLodPixels>128</minLodPixels>
        <maxLodPixels>2048</maxLodPixels>
      </Lod>
    </Region>
    <GroundOverlay>
      <drawOrder>36</drawOrder>
      <Icon>
        <href>162304.png</href>
      </Icon>
      <LatLonBox>
        <north>39.36934081158634</north>
        <south>39.36827914916011</south>
        <east>26.72698974609375</east>
        <west>26.72561645507812</west>
      </LatLonBox>
    </GroundOverlay>

    <NetworkLink>
      <name>19/301066/324608.png</name>
      <Region>
        <LatLonAltBox>
          <north>39.36880998239084</north>
          <south>39.36827914916011</south>
          <east>26.72630310058594</east>
          <west>26.72561645507812</west>
        </LatLonAltBox>
        <Lod>
          <minLodPixels>128</minLodPixels>
          <maxLodPixels>-1</maxLodPixels>
        </Lod>
      </Region>
      <Link>
        <href>../../19/301066/324608.kml</href>
        <viewRefreshMode>onRegion</viewRefreshMode>
        <viewFormat/>
      </Link>
    </NetworkLink>
        
    <NetworkLink>
      <name>19/301067/324608.png</name>
      <Region>
        <LatLonAltBox>
          <north>39.36880998239084</north>
          <south>39.36827914916011</south>
          <east>26.72698974609375</east>
          <west>26.72630310058594</west>
        </LatLonAltBox>
        <Lod>
          <minLodPixels>128</minLodPixels>
          <maxLodPixels>-1</maxLodPixels>
        </Lod>
      </Region>
      <Link>
        <href>../../19/301067/324608.kml</href>
        <viewRefreshMode>onRegion</viewRefreshMode>
        <viewFormat/>
      </Link>
    </NetworkLink>
        
    <NetworkLink>
      <name>19/301066/324609.png</name>
      <Region>
        <LatLonAltBox>
          <north>39.36934081158634</north>
          <south>39.36880998239084</south>
          <east>26.72630310058594</east>
          <west>26.72561645507812</west>
        </LatLonAltBox>
        <Lod>
          <minLodPixels>128</minLodPixels>
          <maxLodPixels>-1</maxLodPixels>
        </Lod>
      </Region>
      <Link>
        <href>../../19/301066/324609.kml</href>
        <viewRefreshMode>onRegion</viewRefreshMode>
        <viewFormat/>
      </Link>
    </NetworkLink>
        
    <NetworkLink>
      <name>19/301067/324609.png</name>
      <Region>
        <LatLonAltBox>
          <north>39.36934081158634</north>
          <south>39.36880998239084</south>
          <east>26.72698974609375</east>
          <west>26.72630310058594</west>
        </LatLonAltBox>
        <Lod>
          <minLodPixels>128</minLodPixels>
          <maxLodPixels>-1</maxLodPixels>
        </Lod>
      </Region>
      <Link>
        <href>../../19/301067/324609.kml</href>
        <viewRefreshMode>onRegion</viewRefreshMode>
        <viewFormat/>
      </Link>
    </NetworkLink>
              </Document>
</kml>
    