<?xml version="1.0" encoding="utf-8"?>
<kml xmlns="http://www.opengis.net/kml/2.2">
  <Document>
    <name>17/75251/81129.kml</name>
    <description></description>
    <Style>
      <ListStyle id="hideChildren">
        <listItemType>checkHideChildren</listItemType>
      </ListStyle>
    </Style>
    <Region>
      <LatLonAltBox>
        <north>39.32155002466662</north>
        <south>39.31942523123952</south>
        <east>26.68579101562500</east>
        <west>26.68304443359375</west>
      </LatLonAltBox>
      <Lod>
        <minLodPixels>128</minLodPixels>
        <maxLodPixels>2048</maxLodPixels>
      </Lod>
    </Region>
    <GroundOverlay>
      <drawOrder>34</drawOrder>
      <Icon>
        <href>81129.png</href>
      </Icon>
      <LatLonBox>
        <north>39.32155002466662</north>
        <south>39.31942523123952</south>
        <east>26.68579101562500</east>
        <west>26.68304443359375</west>
      </LatLonBox>
    </GroundOverlay>

    <NetworkLink>
      <name>18/150502/162258.png</name>
      <Region>
        <LatLonAltBox>
          <north>39.32048763602080</north>
          <south>39.31942523123952</south>
          <east>26.68441772460938</east>
          <west>26.68304443359375</west>
        </LatLonAltBox>
        <Lod>
          <minLodPixels>128</minLodPixels>
          <maxLodPixels>-1</maxLodPixels>
        </Lod>
      </Region>
      <Link>
        <href>../../18/150502/162258.kml</href>
        <viewRefreshMode>onRegion</viewRefreshMode>
        <viewFormat/>
      </Link>
    </NetworkLink>
        
    <NetworkLink>
      <name>18/150503/162258.png</name>
      <Region>
        <LatLonAltBox>
          <north>39.32048763602080</north>
          <south>39.31942523123952</south>
          <east>26.68579101562500</east>
          <west>26.68441772460938</west>
        </LatLonAltBox>
        <Lod>
          <minLodPixels>128</minLodPixels>
          <maxLodPixels>-1</maxLodPixels>
        </Lod>
      </Region>
      <Link>
        <href>../../18/150503/162258.kml</href>
        <viewRefreshMode>onRegion</viewRefreshMode>
        <viewFormat/>
      </Link>
    </NetworkLink>
        
    <NetworkLink>
      <name>18/150502/162259.png</name>
      <Region>
        <LatLonAltBox>
          <north>39.32155002466662</north>
          <south>39.32048763602080</south>
          <east>26.68441772460938</east>
          <west>26.68304443359375</west>
        </LatLonAltBox>
        <Lod>
          <minLodPixels>128</minLodPixels>
          <maxLodPixels>-1</maxLodPixels>
        </Lod>
      </Region>
      <Link>
        <href>../../18/150502/162259.kml</href>
        <viewRefreshMode>onRegion</viewRefreshMode>
        <viewFormat/>
      </Link>
    </NetworkLink>
        
    <NetworkLink>
      <name>18/150503/162259.png</name>
      <Region>
        <LatLonAltBox>
          <north>39.32155002466662</north>
          <south>39.32048763602080</south>
          <east>26.68579101562500</east>
          <west>26.68441772460938</west>
        </LatLonAltBox>
        <Lod>
          <minLodPixels>128</minLodPixels>
          <maxLodPixels>-1</maxLodPixels>
        </Lod>
      </Region>
      <Link>
        <href>../../18/150503/162259.kml</href>
        <viewRefreshMode>onRegion</viewRefreshMode>
        <viewFormat/>
      </Link>
    </NetworkLink>
              </Document>
</kml>
    