<?xml version="1.0" encoding="utf-8"?>
<kml xmlns="http://www.opengis.net/kml/2.2">
  <Document>
    <name>18/150492/162315.kml</name>
    <description></description>
    <Style>
      <ListStyle id="hideChildren">
        <listItemType>checkHideChildren</listItemType>
      </ListStyle>
    </Style>
    <Region>
      <LatLonAltBox>
        <north>39.38101803294520</north>
        <south>39.37995654807611</south>
        <east>26.67068481445314</east>
        <west>26.66931152343751</west>
      </LatLonAltBox>
      <Lod>
        <minLodPixels>128</minLodPixels>
        <maxLodPixels>2048</maxLodPixels>
      </Lod>
    </Region>
    <GroundOverlay>
      <drawOrder>36</drawOrder>
      <Icon>
        <href>162315.png</href>
      </Icon>
      <LatLonBox>
        <north>39.38101803294520</north>
        <south>39.37995654807611</south>
        <east>26.67068481445314</east>
        <west>26.66931152343751</west>
      </LatLonBox>
    </GroundOverlay>

    <NetworkLink>
      <name>19/300984/324630.png</name>
      <Region>
        <LatLonAltBox>
          <north>39.38048729252842</north>
          <south>39.37995654807611</south>
          <east>26.66999816894532</east>
          <west>26.66931152343751</west>
        </LatLonAltBox>
        <Lod>
          <minLodPixels>128</minLodPixels>
          <maxLodPixels>-1</maxLodPixels>
        </Lod>
      </Region>
      <Link>
        <href>../../19/300984/324630.kml</href>
        <viewRefreshMode>onRegion</viewRefreshMode>
        <viewFormat/>
      </Link>
    </NetworkLink>
        
    <NetworkLink>
      <name>19/300985/324630.png</name>
      <Region>
        <LatLonAltBox>
          <north>39.38048729252842</north>
          <south>39.37995654807611</south>
          <east>26.67068481445314</east>
          <west>26.66999816894532</west>
        </LatLonAltBox>
        <Lod>
          <minLodPixels>128</minLodPixels>
          <maxLodPixels>-1</maxLodPixels>
        </Lod>
      </Region>
      <Link>
        <href>../../19/300985/324630.kml</href>
        <viewRefreshMode>onRegion</viewRefreshMode>
        <viewFormat/>
      </Link>
    </NetworkLink>
        
    <NetworkLink>
      <name>19/300984/324631.png</name>
      <Region>
        <LatLonAltBox>
          <north>39.38101803294520</north>
          <south>39.38048729252842</south>
          <east>26.66999816894532</east>
          <west>26.66931152343751</west>
        </LatLonAltBox>
        <Lod>
          <minLodPixels>128</minLodPixels>
          <maxLodPixels>-1</maxLodPixels>
        </Lod>
      </Region>
      <Link>
        <href>../../19/300984/324631.kml</href>
        <viewRefreshMode>onRegion</viewRefreshMode>
        <viewFormat/>
      </Link>
    </NetworkLink>
        
    <NetworkLink>
      <name>19/300985/324631.png</name>
      <Region>
        <LatLonAltBox>
          <north>39.38101803294520</north>
          <south>39.38048729252842</south>
          <east>26.67068481445314</east>
          <west>26.66999816894532</west>
        </LatLonAltBox>
        <Lod>
          <minLodPixels>128</minLodPixels>
          <maxLodPixels>-1</maxLodPixels>
        </Lod>
      </Region>
      <Link>
        <href>../../19/300985/324631.kml</href>
        <viewRefreshMode>onRegion</viewRefreshMode>
        <viewFormat/>
      </Link>
    </NetworkLink>
              </Document>
</kml>
    