<?xml version="1.0" encoding="utf-8"?>
<kml xmlns="http://www.opengis.net/kml/2.2">
  <Document>
    <name>19/301021/324473.kml</name>
    <description></description>
    <Style>
      <ListStyle id="hideChildren">
        <listItemType>checkHideChildren</listItemType>
      </ListStyle>
    </Style>
    <Region>
      <LatLonAltBox>
        <north>39.29711100375496</north>
        <south>39.29657962590612</south>
        <east>26.69540405273436</east>
        <west>26.69471740722655</west>
      </LatLonAltBox>
      <Lod>
        <minLodPixels>128</minLodPixels>
        <maxLodPixels>-1</maxLodPixels>
      </Lod>
    </Region>
    <GroundOverlay>
      <drawOrder>38</drawOrder>
      <Icon>
        <href>324473.png</href>
      </Icon>
      <LatLonBox>
        <north>39.29711100375496</north>
        <south>39.29657962590612</south>
        <east>26.69540405273436</east>
        <west>26.69471740722655</west>
      </LatLonBox>
    </GroundOverlay>
      </Document>
</kml>
    