<?xml version="1.0" encoding="utf-8"?>
<kml xmlns="http://www.opengis.net/kml/2.2">
  <Document>
    <name>19/300984/324553.kml</name>
    <description></description>
    <Style>
      <ListStyle id="hideChildren">
        <listItemType>checkHideChildren</listItemType>
      </ListStyle>
    </Style>
    <Region>
      <LatLonAltBox>
        <north>39.33960816280447</north>
        <south>39.33907710765932</south>
        <east>26.66999816894532</east>
        <west>26.66931152343751</west>
      </LatLonAltBox>
      <Lod>
        <minLodPixels>128</minLodPixels>
        <maxLodPixels>-1</maxLodPixels>
      </Lod>
    </Region>
    <GroundOverlay>
      <drawOrder>38</drawOrder>
      <Icon>
        <href>324553.png</href>
      </Icon>
      <LatLonBox>
        <north>39.33960816280447</north>
        <south>39.33907710765932</south>
        <east>26.66999816894532</east>
        <west>26.66931152343751</west>
      </LatLonBox>
    </GroundOverlay>
      </Document>
</kml>
    