<?xml version="1.0" encoding="utf-8"?>
<kml xmlns="http://www.opengis.net/kml/2.2">
  <Document>
    <name>17/75237/81142.kml</name>
    <description></description>
    <Style>
      <ListStyle id="hideChildren">
        <listItemType>checkHideChildren</listItemType>
      </ListStyle>
    </Style>
    <Region>
      <LatLonAltBox>
        <north>39.34916646551957</north>
        <south>39.34704251121732</south>
        <east>26.64733886718750</east>
        <west>26.64459228515625</west>
      </LatLonAltBox>
      <Lod>
        <minLodPixels>128</minLodPixels>
        <maxLodPixels>2048</maxLodPixels>
      </Lod>
    </Region>
    <GroundOverlay>
      <drawOrder>34</drawOrder>
      <Icon>
        <href>81142.png</href>
      </Icon>
      <LatLonBox>
        <north>39.34916646551957</north>
        <south>39.34704251121732</south>
        <east>26.64733886718750</east>
        <west>26.64459228515625</west>
      </LatLonBox>
    </GroundOverlay>

    <NetworkLink>
      <name>18/150474/162284.png</name>
      <Region>
        <LatLonAltBox>
          <north>39.34810449643775</north>
          <south>39.34704251121732</south>
          <east>26.64596557617187</east>
          <west>26.64459228515625</west>
        </LatLonAltBox>
        <Lod>
          <minLodPixels>128</minLodPixels>
          <maxLodPixels>-1</maxLodPixels>
        </Lod>
      </Region>
      <Link>
        <href>../../18/150474/162284.kml</href>
        <viewRefreshMode>onRegion</viewRefreshMode>
        <viewFormat/>
      </Link>
    </NetworkLink>
        
    <NetworkLink>
      <name>18/150475/162284.png</name>
      <Region>
        <LatLonAltBox>
          <north>39.34810449643775</north>
          <south>39.34704251121732</south>
          <east>26.64733886718750</east>
          <west>26.64596557617187</west>
        </LatLonAltBox>
        <Lod>
          <minLodPixels>128</minLodPixels>
          <maxLodPixels>-1</maxLodPixels>
        </Lod>
      </Region>
      <Link>
        <href>../../18/150475/162284.kml</href>
        <viewRefreshMode>onRegion</viewRefreshMode>
        <viewFormat/>
      </Link>
    </NetworkLink>
        
    <NetworkLink>
      <name>18/150474/162285.png</name>
      <Region>
        <LatLonAltBox>
          <north>39.34916646551957</north>
          <south>39.34810449643775</south>
          <east>26.64596557617187</east>
          <west>26.64459228515625</west>
        </LatLonAltBox>
        <Lod>
          <minLodPixels>128</minLodPixels>
          <maxLodPixels>-1</maxLodPixels>
        </Lod>
      </Region>
      <Link>
        <href>../../18/150474/162285.kml</href>
        <viewRefreshMode>onRegion</viewRefreshMode>
        <viewFormat/>
      </Link>
    </NetworkLink>
        
    <NetworkLink>
      <name>18/150475/162285.png</name>
      <Region>
        <LatLonAltBox>
          <north>39.34916646551957</north>
          <south>39.34810449643775</south>
          <east>26.64733886718750</east>
          <west>26.64596557617187</west>
        </LatLonAltBox>
        <Lod>
          <minLodPixels>128</minLodPixels>
          <maxLodPixels>-1</maxLodPixels>
        </Lod>
      </Region>
      <Link>
        <href>../../18/150475/162285.kml</href>
        <viewRefreshMode>onRegion</viewRefreshMode>
        <viewFormat/>
      </Link>
    </NetworkLink>
              </Document>
</kml>
    