<?xml version="1.0" encoding="utf-8"?>
<kml xmlns="http://www.opengis.net/kml/2.2">
  <Document>
    <name>18/150513/162293.kml</name>
    <description></description>
    <Style>
      <ListStyle id="hideChildren">
        <listItemType>checkHideChildren</listItemType>
      </ListStyle>
    </Style>
    <Region>
      <LatLonAltBox>
        <north>39.35766163717121</north>
        <south>39.35659979720230</south>
        <east>26.69952392578124</east>
        <west>26.69815063476561</west>
      </LatLonAltBox>
      <Lod>
        <minLodPixels>128</minLodPixels>
        <maxLodPixels>2048</maxLodPixels>
      </Lod>
    </Region>
    <GroundOverlay>
      <drawOrder>36</drawOrder>
      <Icon>
        <href>162293.png</href>
      </Icon>
      <LatLonBox>
        <north>39.35766163717121</north>
        <south>39.35659979720230</south>
        <east>26.69952392578124</east>
        <west>26.69815063476561</west>
      </LatLonBox>
    </GroundOverlay>

    <NetworkLink>
      <name>19/301026/324586.png</name>
      <Region>
        <LatLonAltBox>
          <north>39.35713071920419</north>
          <south>39.35659979720230</south>
          <east>26.69883728027343</east>
          <west>26.69815063476561</west>
        </LatLonAltBox>
        <Lod>
          <minLodPixels>128</minLodPixels>
          <maxLodPixels>-1</maxLodPixels>
        </Lod>
      </Region>
      <Link>
        <href>../../19/301026/324586.kml</href>
        <viewRefreshMode>onRegion</viewRefreshMode>
        <viewFormat/>
      </Link>
    </NetworkLink>
        
    <NetworkLink>
      <name>19/301027/324586.png</name>
      <Region>
        <LatLonAltBox>
          <north>39.35713071920419</north>
          <south>39.35659979720230</south>
          <east>26.69952392578124</east>
          <west>26.69883728027343</west>
        </LatLonAltBox>
        <Lod>
          <minLodPixels>128</minLodPixels>
          <maxLodPixels>-1</maxLodPixels>
        </Lod>
      </Region>
      <Link>
        <href>../../19/301027/324586.kml</href>
        <viewRefreshMode>onRegion</viewRefreshMode>
        <viewFormat/>
      </Link>
    </NetworkLink>
        
    <NetworkLink>
      <name>19/301026/324587.png</name>
      <Region>
        <LatLonAltBox>
          <north>39.35766163717121</north>
          <south>39.35713071920419</south>
          <east>26.69883728027343</east>
          <west>26.69815063476561</west>
        </LatLonAltBox>
        <Lod>
          <minLodPixels>128</minLodPixels>
          <maxLodPixels>-1</maxLodPixels>
        </Lod>
      </Region>
      <Link>
        <href>../../19/301026/324587.kml</href>
        <viewRefreshMode>onRegion</viewRefreshMode>
        <viewFormat/>
      </Link>
    </NetworkLink>
        
    <NetworkLink>
      <name>19/301027/324587.png</name>
      <Region>
        <LatLonAltBox>
          <north>39.35766163717121</north>
          <south>39.35713071920419</south>
          <east>26.69952392578124</east>
          <west>26.69883728027343</west>
        </LatLonAltBox>
        <Lod>
          <minLodPixels>128</minLodPixels>
          <maxLodPixels>-1</maxLodPixels>
        </Lod>
      </Region>
      <Link>
        <href>../../19/301027/324587.kml</href>
        <viewRefreshMode>onRegion</viewRefreshMode>
        <viewFormat/>
      </Link>
    </NetworkLink>
              </Document>
</kml>
    