<?xml version="1.0" encoding="utf-8"?>
<kml xmlns="http://www.opengis.net/kml/2.2">
  <Document>
    <name>19/301034/324612.kml</name>
    <description></description>
    <Style>
      <ListStyle id="hideChildren">
        <listItemType>checkHideChildren</listItemType>
      </ListStyle>
    </Style>
    <Region>
      <LatLonAltBox>
        <north>39.37093327496134</north>
        <south>39.37040245787161</south>
        <east>26.70433044433592</east>
        <west>26.70364379882811</west>
      </LatLonAltBox>
      <Lod>
        <minLodPixels>128</minLodPixels>
        <maxLodPixels>-1</maxLodPixels>
      </Lod>
    </Region>
    <GroundOverlay>
      <drawOrder>38</drawOrder>
      <Icon>
        <href>324612.png</href>
      </Icon>
      <LatLonBox>
        <north>39.37093327496134</north>
        <south>39.37040245787161</south>
        <east>26.70433044433592</east>
        <west>26.70364379882811</west>
      </LatLonBox>
    </GroundOverlay>
      </Document>
</kml>
    