<?xml version="1.0" encoding="utf-8"?>
<kml xmlns="http://www.opengis.net/kml/2.2">
  <Document>
    <name>17/75244/81141.kml</name>
    <description></description>
    <Style>
      <ListStyle id="hideChildren">
        <listItemType>checkHideChildren</listItemType>
      </ListStyle>
    </Style>
    <Region>
      <LatLonAltBox>
        <north>39.34704251121732</north>
        <south>39.34491849236127</south>
        <east>26.66656494140626</east>
        <west>26.66381835937501</west>
      </LatLonAltBox>
      <Lod>
        <minLodPixels>128</minLodPixels>
        <maxLodPixels>2048</maxLodPixels>
      </Lod>
    </Region>
    <GroundOverlay>
      <drawOrder>34</drawOrder>
      <Icon>
        <href>81141.png</href>
      </Icon>
      <LatLonBox>
        <north>39.34704251121732</north>
        <south>39.34491849236127</south>
        <east>26.66656494140626</east>
        <west>26.66381835937501</west>
      </LatLonBox>
    </GroundOverlay>

    <NetworkLink>
      <name>18/150488/162282.png</name>
      <Region>
        <LatLonAltBox>
          <north>39.34598050985849</north>
          <south>39.34491849236127</south>
          <east>26.66519165039064</east>
          <west>26.66381835937501</west>
        </LatLonAltBox>
        <Lod>
          <minLodPixels>128</minLodPixels>
          <maxLodPixels>-1</maxLodPixels>
        </Lod>
      </Region>
      <Link>
        <href>../../18/150488/162282.kml</href>
        <viewRefreshMode>onRegion</viewRefreshMode>
        <viewFormat/>
      </Link>
    </NetworkLink>
        
    <NetworkLink>
      <name>18/150489/162282.png</name>
      <Region>
        <LatLonAltBox>
          <north>39.34598050985849</north>
          <south>39.34491849236127</south>
          <east>26.66656494140626</east>
          <west>26.66519165039064</west>
        </LatLonAltBox>
        <Lod>
          <minLodPixels>128</minLodPixels>
          <maxLodPixels>-1</maxLodPixels>
        </Lod>
      </Region>
      <Link>
        <href>../../18/150489/162282.kml</href>
        <viewRefreshMode>onRegion</viewRefreshMode>
        <viewFormat/>
      </Link>
    </NetworkLink>
        
    <NetworkLink>
      <name>18/150488/162283.png</name>
      <Region>
        <LatLonAltBox>
          <north>39.34704251121732</north>
          <south>39.34598050985849</south>
          <east>26.66519165039064</east>
          <west>26.66381835937501</west>
        </LatLonAltBox>
        <Lod>
          <minLodPixels>128</minLodPixels>
          <maxLodPixels>-1</maxLodPixels>
        </Lod>
      </Region>
      <Link>
        <href>../../18/150488/162283.kml</href>
        <viewRefreshMode>onRegion</viewRefreshMode>
        <viewFormat/>
      </Link>
    </NetworkLink>
        
    <NetworkLink>
      <name>18/150489/162283.png</name>
      <Region>
        <LatLonAltBox>
          <north>39.34704251121732</north>
          <south>39.34598050985849</south>
          <east>26.66656494140626</east>
          <west>26.66519165039064</west>
        </LatLonAltBox>
        <Lod>
          <minLodPixels>128</minLodPixels>
          <maxLodPixels>-1</maxLodPixels>
        </Lod>
      </Region>
      <Link>
        <href>../../18/150489/162283.kml</href>
        <viewRefreshMode>onRegion</viewRefreshMode>
        <viewFormat/>
      </Link>
    </NetworkLink>
              </Document>
</kml>
    