<?xml version="1.0" encoding="utf-8"?>
<kml xmlns="http://www.opengis.net/kml/2.2">
  <Document>
    <name>19/300994/324563.kml</name>
    <description></description>
    <Style>
      <ListStyle id="hideChildren">
        <listItemType>checkHideChildren</listItemType>
      </ListStyle>
    </Style>
    <Region>
      <LatLonAltBox>
        <north>39.34491849236127</north>
        <south>39.34438747756086</south>
        <east>26.67686462402344</east>
        <west>26.67617797851563</west>
      </LatLonAltBox>
      <Lod>
        <minLodPixels>128</minLodPixels>
        <maxLodPixels>-1</maxLodPixels>
      </Lod>
    </Region>
    <GroundOverlay>
      <drawOrder>38</drawOrder>
      <Icon>
        <href>324563.png</href>
      </Icon>
      <LatLonBox>
        <north>39.34491849236127</north>
        <south>39.34438747756086</south>
        <east>26.67686462402344</east>
        <west>26.67617797851563</west>
      </LatLonBox>
    </GroundOverlay>
      </Document>
</kml>
    