<?xml version="1.0" encoding="utf-8"?>
<kml xmlns="http://www.opengis.net/kml/2.2">
  <Document>
    <name>16/37627/40561.kml</name>
    <description></description>
    <Style>
      <ListStyle id="hideChildren">
        <listItemType>checkHideChildren</listItemType>
      </ListStyle>
    </Style>
    <Region>
      <LatLonAltBox>
        <north>39.30880029600291</north>
        <south>39.30454987014581</south>
        <east>26.69677734374999</east>
        <west>26.69128417968750</west>
      </LatLonAltBox>
      <Lod>
        <minLodPixels>128</minLodPixels>
        <maxLodPixels>2048</maxLodPixels>
      </Lod>
    </Region>
    <GroundOverlay>
      <drawOrder>32</drawOrder>
      <Icon>
        <href>40561.png</href>
      </Icon>
      <LatLonBox>
        <north>39.30880029600291</north>
        <south>39.30454987014581</south>
        <east>26.69677734374999</east>
        <west>26.69128417968750</west>
      </LatLonBox>
    </GroundOverlay>

    <NetworkLink>
      <name>17/75254/81122.png</name>
      <Region>
        <LatLonAltBox>
          <north>39.30667511534213</north>
          <south>39.30454987014581</south>
          <east>26.69403076171874</east>
          <west>26.69128417968750</west>
        </LatLonAltBox>
        <Lod>
          <minLodPixels>128</minLodPixels>
          <maxLodPixels>-1</maxLodPixels>
        </Lod>
      </Region>
      <Link>
        <href>../../17/75254/81122.kml</href>
        <viewRefreshMode>onRegion</viewRefreshMode>
        <viewFormat/>
      </Link>
    </NetworkLink>
        
    <NetworkLink>
      <name>17/75255/81122.png</name>
      <Region>
        <LatLonAltBox>
          <north>39.30667511534213</north>
          <south>39.30454987014581</south>
          <east>26.69677734374999</east>
          <west>26.69403076171874</west>
        </LatLonAltBox>
        <Lod>
          <minLodPixels>128</minLodPixels>
          <maxLodPixels>-1</maxLodPixels>
        </Lod>
      </Region>
      <Link>
        <href>../../17/75255/81122.kml</href>
        <viewRefreshMode>onRegion</viewRefreshMode>
        <viewFormat/>
      </Link>
    </NetworkLink>
        
    <NetworkLink>
      <name>17/75254/81123.png</name>
      <Region>
        <LatLonAltBox>
          <north>39.30880029600291</north>
          <south>39.30667511534213</south>
          <east>26.69403076171874</east>
          <west>26.69128417968750</west>
        </LatLonAltBox>
        <Lod>
          <minLodPixels>128</minLodPixels>
          <maxLodPixels>-1</maxLodPixels>
        </Lod>
      </Region>
      <Link>
        <href>../../17/75254/81123.kml</href>
        <viewRefreshMode>onRegion</viewRefreshMode>
        <viewFormat/>
      </Link>
    </NetworkLink>
        
    <NetworkLink>
      <name>17/75255/81123.png</name>
      <Region>
        <LatLonAltBox>
          <north>39.30880029600291</north>
          <south>39.30667511534213</south>
          <east>26.69677734374999</east>
          <west>26.69403076171874</west>
        </LatLonAltBox>
        <Lod>
          <minLodPixels>128</minLodPixels>
          <maxLodPixels>-1</maxLodPixels>
        </Lod>
      </Region>
      <Link>
        <href>../../17/75255/81123.kml</href>
        <viewRefreshMode>onRegion</viewRefreshMode>
        <viewFormat/>
      </Link>
    </NetworkLink>
              </Document>
</kml>
    