<?xml version="1.0" encoding="utf-8"?>
<kml xmlns="http://www.opengis.net/kml/2.2">
  <Document>
    <name>18/150530/162289.kml</name>
    <description></description>
    <Style>
      <ListStyle id="hideChildren">
        <listItemType>checkHideChildren</listItemType>
      </ListStyle>
    </Style>
    <Region>
      <LatLonAltBox>
        <north>39.35341418045878</north>
        <south>39.35235227593244</south>
        <east>26.72286987304688</east>
        <west>26.72149658203125</west>
      </LatLonAltBox>
      <Lod>
        <minLodPixels>128</minLodPixels>
        <maxLodPixels>2048</maxLodPixels>
      </Lod>
    </Region>
    <GroundOverlay>
      <drawOrder>36</drawOrder>
      <Icon>
        <href>162289.png</href>
      </Icon>
      <LatLonBox>
        <north>39.35341418045878</north>
        <south>39.35235227593244</south>
        <east>26.72286987304688</east>
        <west>26.72149658203125</west>
      </LatLonBox>
    </GroundOverlay>

    <NetworkLink>
      <name>19/301060/324578.png</name>
      <Region>
        <LatLonAltBox>
          <north>39.35288323021300</north>
          <south>39.35235227593244</south>
          <east>26.72218322753907</east>
          <west>26.72149658203125</west>
        </LatLonAltBox>
        <Lod>
          <minLodPixels>128</minLodPixels>
          <maxLodPixels>-1</maxLodPixels>
        </Lod>
      </Region>
      <Link>
        <href>../../19/301060/324578.kml</href>
        <viewRefreshMode>onRegion</viewRefreshMode>
        <viewFormat/>
      </Link>
    </NetworkLink>
        
    <NetworkLink>
      <name>19/301061/324578.png</name>
      <Region>
        <LatLonAltBox>
          <north>39.35288323021300</north>
          <south>39.35235227593244</south>
          <east>26.72286987304688</east>
          <west>26.72218322753907</west>
        </LatLonAltBox>
        <Lod>
          <minLodPixels>128</minLodPixels>
          <maxLodPixels>-1</maxLodPixels>
        </Lod>
      </Region>
      <Link>
        <href>../../19/301061/324578.kml</href>
        <viewRefreshMode>onRegion</viewRefreshMode>
        <viewFormat/>
      </Link>
    </NetworkLink>
        
    <NetworkLink>
      <name>19/301060/324579.png</name>
      <Region>
        <LatLonAltBox>
          <north>39.35341418045878</north>
          <south>39.35288323021300</south>
          <east>26.72218322753907</east>
          <west>26.72149658203125</west>
        </LatLonAltBox>
        <Lod>
          <minLodPixels>128</minLodPixels>
          <maxLodPixels>-1</maxLodPixels>
        </Lod>
      </Region>
      <Link>
        <href>../../19/301060/324579.kml</href>
        <viewRefreshMode>onRegion</viewRefreshMode>
        <viewFormat/>
      </Link>
    </NetworkLink>
        
    <NetworkLink>
      <name>19/301061/324579.png</name>
      <Region>
        <LatLonAltBox>
          <north>39.35341418045878</north>
          <south>39.35288323021300</south>
          <east>26.72286987304688</east>
          <west>26.72218322753907</west>
        </LatLonAltBox>
        <Lod>
          <minLodPixels>128</minLodPixels>
          <maxLodPixels>-1</maxLodPixels>
        </Lod>
      </Region>
      <Link>
        <href>../../19/301061/324579.kml</href>
        <viewRefreshMode>onRegion</viewRefreshMode>
        <viewFormat/>
      </Link>
    </NetworkLink>
              </Document>
</kml>
    