<?xml version="1.0" encoding="utf-8"?>
<kml xmlns="http://www.opengis.net/kml/2.2">
  <Document>
    <name>19/301039/324595.kml</name>
    <description></description>
    <Style>
      <ListStyle id="hideChildren">
        <listItemType>checkHideChildren</listItemType>
      </ListStyle>
    </Style>
    <Region>
      <LatLonAltBox>
        <north>39.36190883564925</north>
        <south>39.36137794996196</south>
        <east>26.70776367187501</east>
        <west>26.70707702636720</west>
      </LatLonAltBox>
      <Lod>
        <minLodPixels>128</minLodPixels>
        <maxLodPixels>-1</maxLodPixels>
      </Lod>
    </Region>
    <GroundOverlay>
      <drawOrder>38</drawOrder>
      <Icon>
        <href>324595.png</href>
      </Icon>
      <LatLonBox>
        <north>39.36190883564925</north>
        <south>39.36137794996196</south>
        <east>26.70776367187501</east>
        <west>26.70707702636720</west>
      </LatLonBox>
    </GroundOverlay>
      </Document>
</kml>
    