<?xml version="1.0" encoding="utf-8"?>
<kml xmlns="http://www.opengis.net/kml/2.2">
  <Document>
    <name>14/9406/10143.kml</name>
    <description></description>
    <Style>
      <ListStyle id="hideChildren">
        <listItemType>checkHideChildren</listItemType>
      </ListStyle>
    </Style>
    <Region>
      <LatLonAltBox>
        <north>39.36827914916011</north>
        <south>39.35129035526705</south>
        <east>26.69677734374999</east>
        <west>26.67480468750000</west>
      </LatLonAltBox>
      <Lod>
        <minLodPixels>128</minLodPixels>
        <maxLodPixels>2048</maxLodPixels>
      </Lod>
    </Region>
    <GroundOverlay>
      <drawOrder>28</drawOrder>
      <Icon>
        <href>10143.png</href>
      </Icon>
      <LatLonBox>
        <north>39.36827914916011</north>
        <south>39.35129035526705</south>
        <east>26.69677734374999</east>
        <west>26.67480468750000</west>
      </LatLonBox>
    </GroundOverlay>

    <NetworkLink>
      <name>15/18812/20286.png</name>
      <Region>
        <LatLonAltBox>
          <north>39.35978526869001</north>
          <south>39.35129035526705</south>
          <east>26.68579101562500</east>
          <west>26.67480468750000</west>
        </LatLonAltBox>
        <Lod>
          <minLodPixels>128</minLodPixels>
          <maxLodPixels>-1</maxLodPixels>
        </Lod>
      </Region>
      <Link>
        <href>../../15/18812/20286.kml</href>
        <viewRefreshMode>onRegion</viewRefreshMode>
        <viewFormat/>
      </Link>
    </NetworkLink>
        
    <NetworkLink>
      <name>15/18813/20286.png</name>
      <Region>
        <LatLonAltBox>
          <north>39.35978526869001</north>
          <south>39.35129035526705</south>
          <east>26.69677734374999</east>
          <west>26.68579101562500</west>
        </LatLonAltBox>
        <Lod>
          <minLodPixels>128</minLodPixels>
          <maxLodPixels>-1</maxLodPixels>
        </Lod>
      </Region>
      <Link>
        <href>../../15/18813/20286.kml</href>
        <viewRefreshMode>onRegion</viewRefreshMode>
        <viewFormat/>
      </Link>
    </NetworkLink>
        
    <NetworkLink>
      <name>15/18812/20287.png</name>
      <Region>
        <LatLonAltBox>
          <north>39.36827914916011</north>
          <south>39.35978526869001</south>
          <east>26.68579101562500</east>
          <west>26.67480468750000</west>
        </LatLonAltBox>
        <Lod>
          <minLodPixels>128</minLodPixels>
          <maxLodPixels>-1</maxLodPixels>
        </Lod>
      </Region>
      <Link>
        <href>../../15/18812/20287.kml</href>
        <viewRefreshMode>onRegion</viewRefreshMode>
        <viewFormat/>
      </Link>
    </NetworkLink>
        
    <NetworkLink>
      <name>15/18813/20287.png</name>
      <Region>
        <LatLonAltBox>
          <north>39.36827914916011</north>
          <south>39.35978526869001</south>
          <east>26.69677734374999</east>
          <west>26.68579101562500</west>
        </LatLonAltBox>
        <Lod>
          <minLodPixels>128</minLodPixels>
          <maxLodPixels>-1</maxLodPixels>
        </Lod>
      </Region>
      <Link>
        <href>../../15/18813/20287.kml</href>
        <viewRefreshMode>onRegion</viewRefreshMode>
        <viewFormat/>
      </Link>
    </NetworkLink>
              </Document>
</kml>
    