<?xml version="1.0" encoding="utf-8"?>
<kml xmlns="http://www.opengis.net/kml/2.2">
  <Document>
    <name>19/301028/324625.kml</name>
    <description></description>
    <Style>
      <ListStyle id="hideChildren">
        <listItemType>checkHideChildren</listItemType>
      </ListStyle>
    </Style>
    <Region>
      <LatLonAltBox>
        <north>39.37783352991156</north>
        <south>39.37730276528170</south>
        <east>26.70021057128905</east>
        <west>26.69952392578124</west>
      </LatLonAltBox>
      <Lod>
        <minLodPixels>128</minLodPixels>
        <maxLodPixels>-1</maxLodPixels>
      </Lod>
    </Region>
    <GroundOverlay>
      <drawOrder>38</drawOrder>
      <Icon>
        <href>324625.png</href>
      </Icon>
      <LatLonBox>
        <north>39.37783352991156</north>
        <south>39.37730276528170</south>
        <east>26.70021057128905</east>
        <west>26.69952392578124</west>
      </LatLonBox>
    </GroundOverlay>
      </Document>
</kml>
    