<?xml version="1.0" encoding="utf-8"?>
<kml xmlns="http://www.opengis.net/kml/2.2">
  <Document>
    <name>19/300920/324510.kml</name>
    <description></description>
    <Style>
      <ListStyle id="hideChildren">
        <listItemType>checkHideChildren</listItemType>
      </ListStyle>
    </Style>
    <Region>
      <LatLonAltBox>
        <north>39.31676914869444</north>
        <south>39.31623792008407</south>
        <east>26.62605285644532</east>
        <west>26.62536621093751</west>
      </LatLonAltBox>
      <Lod>
        <minLodPixels>128</minLodPixels>
        <maxLodPixels>-1</maxLodPixels>
      </Lod>
    </Region>
    <GroundOverlay>
      <drawOrder>38</drawOrder>
      <Icon>
        <href>324510.png</href>
      </Icon>
      <LatLonBox>
        <north>39.31676914869444</north>
        <south>39.31623792008407</south>
        <east>26.62605285644532</east>
        <west>26.62536621093751</west>
      </LatLonBox>
    </GroundOverlay>
      </Document>
</kml>
    