<?xml version="1.0" encoding="utf-8"?>
<kml xmlns="http://www.opengis.net/kml/2.2">
  <Document>
    <name>14/9408/10140.kml</name>
    <description></description>
    <Style>
      <ListStyle id="hideChildren">
        <listItemType>checkHideChildren</listItemType>
      </ListStyle>
    </Style>
    <Region>
      <LatLonAltBox>
        <north>39.31730037327102</north>
        <south>39.30029918615029</south>
        <east>26.74072265624999</east>
        <west>26.71875000000000</west>
      </LatLonAltBox>
      <Lod>
        <minLodPixels>128</minLodPixels>
        <maxLodPixels>2048</maxLodPixels>
      </Lod>
    </Region>
    <GroundOverlay>
      <drawOrder>28</drawOrder>
      <Icon>
        <href>10140.png</href>
      </Icon>
      <LatLonBox>
        <north>39.31730037327102</north>
        <south>39.30029918615029</south>
        <east>26.74072265624999</east>
        <west>26.71875000000000</west>
      </LatLonBox>
    </GroundOverlay>

    <NetworkLink>
      <name>15/18816/20280.png</name>
      <Region>
        <LatLonAltBox>
          <north>39.30880029600291</north>
          <south>39.30029918615029</south>
          <east>26.72973632812500</east>
          <west>26.71875000000000</west>
        </LatLonAltBox>
        <Lod>
          <minLodPixels>128</minLodPixels>
          <maxLodPixels>-1</maxLodPixels>
        </Lod>
      </Region>
      <Link>
        <href>../../15/18816/20280.kml</href>
        <viewRefreshMode>onRegion</viewRefreshMode>
        <viewFormat/>
      </Link>
    </NetworkLink>
        
    <NetworkLink>
      <name>15/18816/20281.png</name>
      <Region>
        <LatLonAltBox>
          <north>39.31730037327102</north>
          <south>39.30880029600291</south>
          <east>26.72973632812500</east>
          <west>26.71875000000000</west>
        </LatLonAltBox>
        <Lod>
          <minLodPixels>128</minLodPixels>
          <maxLodPixels>-1</maxLodPixels>
        </Lod>
      </Region>
      <Link>
        <href>../../15/18816/20281.kml</href>
        <viewRefreshMode>onRegion</viewRefreshMode>
        <viewFormat/>
      </Link>
    </NetworkLink>
              </Document>
</kml>
    