<?xml version="1.0" encoding="utf-8"?>
<kml xmlns="http://www.opengis.net/kml/2.2">
  <Document>
    <name>18/150516/162298.kml</name>
    <description></description>
    <Style>
      <ListStyle id="hideChildren">
        <listItemType>checkHideChildren</listItemType>
      </ListStyle>
    </Style>
    <Region>
      <LatLonAltBox>
        <north>39.36297059491874</north>
        <south>39.36190883564925</south>
        <east>26.70364379882811</east>
        <west>26.70227050781249</west>
      </LatLonAltBox>
      <Lod>
        <minLodPixels>128</minLodPixels>
        <maxLodPixels>2048</maxLodPixels>
      </Lod>
    </Region>
    <GroundOverlay>
      <drawOrder>36</drawOrder>
      <Icon>
        <href>162298.png</href>
      </Icon>
      <LatLonBox>
        <north>39.36297059491874</north>
        <south>39.36190883564925</south>
        <east>26.70364379882811</east>
        <west>26.70227050781249</west>
      </LatLonBox>
    </GroundOverlay>

    <NetworkLink>
      <name>19/301032/324596.png</name>
      <Region>
        <LatLonAltBox>
          <north>39.36243971730153</north>
          <south>39.36190883564925</south>
          <east>26.70295715332030</east>
          <west>26.70227050781249</west>
        </LatLonAltBox>
        <Lod>
          <minLodPixels>128</minLodPixels>
          <maxLodPixels>-1</maxLodPixels>
        </Lod>
      </Region>
      <Link>
        <href>../../19/301032/324596.kml</href>
        <viewRefreshMode>onRegion</viewRefreshMode>
        <viewFormat/>
      </Link>
    </NetworkLink>
        
    <NetworkLink>
      <name>19/301033/324596.png</name>
      <Region>
        <LatLonAltBox>
          <north>39.36243971730153</north>
          <south>39.36190883564925</south>
          <east>26.70364379882811</east>
          <west>26.70295715332030</west>
        </LatLonAltBox>
        <Lod>
          <minLodPixels>128</minLodPixels>
          <maxLodPixels>-1</maxLodPixels>
        </Lod>
      </Region>
      <Link>
        <href>../../19/301033/324596.kml</href>
        <viewRefreshMode>onRegion</viewRefreshMode>
        <viewFormat/>
      </Link>
    </NetworkLink>
        
    <NetworkLink>
      <name>19/301032/324597.png</name>
      <Region>
        <LatLonAltBox>
          <north>39.36297059491874</north>
          <south>39.36243971730153</south>
          <east>26.70295715332030</east>
          <west>26.70227050781249</west>
        </LatLonAltBox>
        <Lod>
          <minLodPixels>128</minLodPixels>
          <maxLodPixels>-1</maxLodPixels>
        </Lod>
      </Region>
      <Link>
        <href>../../19/301032/324597.kml</href>
        <viewRefreshMode>onRegion</viewRefreshMode>
        <viewFormat/>
      </Link>
    </NetworkLink>
        
    <NetworkLink>
      <name>19/301033/324597.png</name>
      <Region>
        <LatLonAltBox>
          <north>39.36297059491874</north>
          <south>39.36243971730153</south>
          <east>26.70364379882811</east>
          <west>26.70295715332030</west>
        </LatLonAltBox>
        <Lod>
          <minLodPixels>128</minLodPixels>
          <maxLodPixels>-1</maxLodPixels>
        </Lod>
      </Region>
      <Link>
        <href>../../19/301033/324597.kml</href>
        <viewRefreshMode>onRegion</viewRefreshMode>
        <viewFormat/>
      </Link>
    </NetworkLink>
              </Document>
</kml>
    