<?xml version="1.0" encoding="utf-8"?>
<kml xmlns="http://www.opengis.net/kml/2.2">
  <Document>
    <name>19/300987/324621.kml</name>
    <description></description>
    <Style>
      <ListStyle id="hideChildren">
        <listItemType>checkHideChildren</listItemType>
      </ListStyle>
    </Style>
    <Region>
      <LatLonAltBox>
        <north>39.37571044717935</north>
        <south>39.37517966640772</south>
        <east>26.67205810546876</east>
        <west>26.67137145996095</west>
      </LatLonAltBox>
      <Lod>
        <minLodPixels>128</minLodPixels>
        <maxLodPixels>-1</maxLodPixels>
      </Lod>
    </Region>
    <GroundOverlay>
      <drawOrder>38</drawOrder>
      <Icon>
        <href>324621.png</href>
      </Icon>
      <LatLonBox>
        <north>39.37571044717935</north>
        <south>39.37517966640772</south>
        <east>26.67205810546876</east>
        <west>26.67137145996095</west>
      </LatLonBox>
    </GroundOverlay>
      </Document>
</kml>
    