<?xml version="1.0" encoding="utf-8"?>
<kml xmlns="http://www.opengis.net/kml/2.2">
  <Document>
    <name>18/150451/162243.kml</name>
    <description></description>
    <Style>
      <ListStyle id="hideChildren">
        <listItemType>checkHideChildren</listItemType>
      </ListStyle>
    </Style>
    <Region>
      <LatLonAltBox>
        <north>39.30454987014581</north>
        <south>39.30348722334712</south>
        <east>26.61437988281249</east>
        <west>26.61300659179686</west>
      </LatLonAltBox>
      <Lod>
        <minLodPixels>128</minLodPixels>
        <maxLodPixels>2048</maxLodPixels>
      </Lod>
    </Region>
    <GroundOverlay>
      <drawOrder>36</drawOrder>
      <Icon>
        <href>162243.png</href>
      </Icon>
      <LatLonBox>
        <north>39.30454987014581</north>
        <south>39.30348722334712</south>
        <east>26.61437988281249</east>
        <west>26.61300659179686</west>
      </LatLonBox>
    </GroundOverlay>

    <NetworkLink>
      <name>19/300902/324486.png</name>
      <Region>
        <LatLonAltBox>
          <north>39.30401854876314</north>
          <south>39.30348722334712</south>
          <east>26.61369323730468</east>
          <west>26.61300659179686</west>
        </LatLonAltBox>
        <Lod>
          <minLodPixels>128</minLodPixels>
          <maxLodPixels>-1</maxLodPixels>
        </Lod>
      </Region>
      <Link>
        <href>../../19/300902/324486.kml</href>
        <viewRefreshMode>onRegion</viewRefreshMode>
        <viewFormat/>
      </Link>
    </NetworkLink>
        
    <NetworkLink>
      <name>19/300903/324486.png</name>
      <Region>
        <LatLonAltBox>
          <north>39.30401854876314</north>
          <south>39.30348722334712</south>
          <east>26.61437988281249</east>
          <west>26.61369323730468</west>
        </LatLonAltBox>
        <Lod>
          <minLodPixels>128</minLodPixels>
          <maxLodPixels>-1</maxLodPixels>
        </Lod>
      </Region>
      <Link>
        <href>../../19/300903/324486.kml</href>
        <viewRefreshMode>onRegion</viewRefreshMode>
        <viewFormat/>
      </Link>
    </NetworkLink>
        
    <NetworkLink>
      <name>19/300902/324487.png</name>
      <Region>
        <LatLonAltBox>
          <north>39.30454987014581</north>
          <south>39.30401854876314</south>
          <east>26.61369323730468</east>
          <west>26.61300659179686</west>
        </LatLonAltBox>
        <Lod>
          <minLodPixels>128</minLodPixels>
          <maxLodPixels>-1</maxLodPixels>
        </Lod>
      </Region>
      <Link>
        <href>../../19/300902/324487.kml</href>
        <viewRefreshMode>onRegion</viewRefreshMode>
        <viewFormat/>
      </Link>
    </NetworkLink>
        
    <NetworkLink>
      <name>19/300903/324487.png</name>
      <Region>
        <LatLonAltBox>
          <north>39.30454987014581</north>
          <south>39.30401854876314</south>
          <east>26.61437988281249</east>
          <west>26.61369323730468</west>
        </LatLonAltBox>
        <Lod>
          <minLodPixels>128</minLodPixels>
          <maxLodPixels>-1</maxLodPixels>
        </Lod>
      </Region>
      <Link>
        <href>../../19/300903/324487.kml</href>
        <viewRefreshMode>onRegion</viewRefreshMode>
        <viewFormat/>
      </Link>
    </NetworkLink>
              </Document>
</kml>
    