<?xml version="1.0" encoding="utf-8"?>
<kml xmlns="http://www.opengis.net/kml/2.2">
  <Document>
    <name>18/150451/162309.kml</name>
    <description></description>
    <Style>
      <ListStyle id="hideChildren">
        <listItemType>checkHideChildren</listItemType>
      </ListStyle>
    </Style>
    <Region>
      <LatLonAltBox>
        <north>39.37464888160068</north>
        <south>39.37358729988046</south>
        <east>26.61437988281249</east>
        <west>26.61300659179686</west>
      </LatLonAltBox>
      <Lod>
        <minLodPixels>128</minLodPixels>
        <maxLodPixels>2048</maxLodPixels>
      </Lod>
    </Region>
    <GroundOverlay>
      <drawOrder>36</drawOrder>
      <Icon>
        <href>162309.png</href>
      </Icon>
      <LatLonBox>
        <north>39.37464888160068</north>
        <south>39.37358729988046</south>
        <east>26.61437988281249</east>
        <west>26.61300659179686</west>
      </LatLonBox>
    </GroundOverlay>

    <NetworkLink>
      <name>19/300902/324618.png</name>
      <Region>
        <LatLonAltBox>
          <north>39.37411809275825</north>
          <south>39.37358729988046</south>
          <east>26.61369323730468</east>
          <west>26.61300659179686</west>
        </LatLonAltBox>
        <Lod>
          <minLodPixels>128</minLodPixels>
          <maxLodPixels>-1</maxLodPixels>
        </Lod>
      </Region>
      <Link>
        <href>../../19/300902/324618.kml</href>
        <viewRefreshMode>onRegion</viewRefreshMode>
        <viewFormat/>
      </Link>
    </NetworkLink>
        
    <NetworkLink>
      <name>19/300903/324618.png</name>
      <Region>
        <LatLonAltBox>
          <north>39.37411809275825</north>
          <south>39.37358729988046</south>
          <east>26.61437988281249</east>
          <west>26.61369323730468</west>
        </LatLonAltBox>
        <Lod>
          <minLodPixels>128</minLodPixels>
          <maxLodPixels>-1</maxLodPixels>
        </Lod>
      </Region>
      <Link>
        <href>../../19/300903/324618.kml</href>
        <viewRefreshMode>onRegion</viewRefreshMode>
        <viewFormat/>
      </Link>
    </NetworkLink>
        
    <NetworkLink>
      <name>19/300902/324619.png</name>
      <Region>
        <LatLonAltBox>
          <north>39.37464888160068</north>
          <south>39.37411809275825</south>
          <east>26.61369323730468</east>
          <west>26.61300659179686</west>
        </LatLonAltBox>
        <Lod>
          <minLodPixels>128</minLodPixels>
          <maxLodPixels>-1</maxLodPixels>
        </Lod>
      </Region>
      <Link>
        <href>../../19/300902/324619.kml</href>
        <viewRefreshMode>onRegion</viewRefreshMode>
        <viewFormat/>
      </Link>
    </NetworkLink>
        
    <NetworkLink>
      <name>19/300903/324619.png</name>
      <Region>
        <LatLonAltBox>
          <north>39.37464888160068</north>
          <south>39.37411809275825</south>
          <east>26.61437988281249</east>
          <west>26.61369323730468</west>
        </LatLonAltBox>
        <Lod>
          <minLodPixels>128</minLodPixels>
          <maxLodPixels>-1</maxLodPixels>
        </Lod>
      </Region>
      <Link>
        <href>../../19/300903/324619.kml</href>
        <viewRefreshMode>onRegion</viewRefreshMode>
        <viewFormat/>
      </Link>
    </NetworkLink>
              </Document>
</kml>
    