<?xml version="1.0" encoding="utf-8"?>
<kml xmlns="http://www.opengis.net/kml/2.2">
  <Document>
    <name>18/150472/162262.kml</name>
    <description></description>
    <Style>
      <ListStyle id="hideChildren">
        <listItemType>checkHideChildren</listItemType>
      </ListStyle>
    </Style>
    <Region>
      <LatLonAltBox>
        <north>39.32473709379018</north>
        <south>39.32367475355144</south>
        <east>26.64321899414062</east>
        <west>26.64184570312500</west>
      </LatLonAltBox>
      <Lod>
        <minLodPixels>128</minLodPixels>
        <maxLodPixels>2048</maxLodPixels>
      </Lod>
    </Region>
    <GroundOverlay>
      <drawOrder>36</drawOrder>
      <Icon>
        <href>162262.png</href>
      </Icon>
      <LatLonBox>
        <north>39.32473709379018</north>
        <south>39.32367475355144</south>
        <east>26.64321899414062</east>
        <west>26.64184570312500</west>
      </LatLonBox>
    </GroundOverlay>

    <NetworkLink>
      <name>19/300944/324524.png</name>
      <Region>
        <LatLonAltBox>
          <north>39.32420592568780</north>
          <south>39.32367475355144</south>
          <east>26.64253234863281</east>
          <west>26.64184570312500</west>
        </LatLonAltBox>
        <Lod>
          <minLodPixels>128</minLodPixels>
          <maxLodPixels>-1</maxLodPixels>
        </Lod>
      </Region>
      <Link>
        <href>../../19/300944/324524.kml</href>
        <viewRefreshMode>onRegion</viewRefreshMode>
        <viewFormat/>
      </Link>
    </NetworkLink>
        
    <NetworkLink>
      <name>19/300945/324524.png</name>
      <Region>
        <LatLonAltBox>
          <north>39.32420592568780</north>
          <south>39.32367475355144</south>
          <east>26.64321899414062</east>
          <west>26.64253234863281</west>
        </LatLonAltBox>
        <Lod>
          <minLodPixels>128</minLodPixels>
          <maxLodPixels>-1</maxLodPixels>
        </Lod>
      </Region>
      <Link>
        <href>../../19/300945/324524.kml</href>
        <viewRefreshMode>onRegion</viewRefreshMode>
        <viewFormat/>
      </Link>
    </NetworkLink>
        
    <NetworkLink>
      <name>19/300944/324525.png</name>
      <Region>
        <LatLonAltBox>
          <north>39.32473709379018</north>
          <south>39.32420592568780</south>
          <east>26.64253234863281</east>
          <west>26.64184570312500</west>
        </LatLonAltBox>
        <Lod>
          <minLodPixels>128</minLodPixels>
          <maxLodPixels>-1</maxLodPixels>
        </Lod>
      </Region>
      <Link>
        <href>../../19/300944/324525.kml</href>
        <viewRefreshMode>onRegion</viewRefreshMode>
        <viewFormat/>
      </Link>
    </NetworkLink>
        
    <NetworkLink>
      <name>19/300945/324525.png</name>
      <Region>
        <LatLonAltBox>
          <north>39.32473709379018</north>
          <south>39.32420592568780</south>
          <east>26.64321899414062</east>
          <west>26.64253234863281</west>
        </LatLonAltBox>
        <Lod>
          <minLodPixels>128</minLodPixels>
          <maxLodPixels>-1</maxLodPixels>
        </Lod>
      </Region>
      <Link>
        <href>../../19/300945/324525.kml</href>
        <viewRefreshMode>onRegion</viewRefreshMode>
        <viewFormat/>
      </Link>
    </NetworkLink>
              </Document>
</kml>
    