<?xml version="1.0" encoding="utf-8"?>
<kml xmlns="http://www.opengis.net/kml/2.2">
  <Document>
    <name>19/301074/324506.kml</name>
    <description></description>
    <Style>
      <ListStyle id="hideChildren">
        <listItemType>checkHideChildren</listItemType>
      </ListStyle>
    </Style>
    <Region>
      <LatLonAltBox>
        <north>39.31464421005062</north>
        <south>39.31411296530539</south>
        <east>26.73179626464843</east>
        <west>26.73110961914062</west>
      </LatLonAltBox>
      <Lod>
        <minLodPixels>128</minLodPixels>
        <maxLodPixels>-1</maxLodPixels>
      </Lod>
    </Region>
    <GroundOverlay>
      <drawOrder>38</drawOrder>
      <Icon>
        <href>324506.png</href>
      </Icon>
      <LatLonBox>
        <north>39.31464421005062</north>
        <south>39.31411296530539</south>
        <east>26.73179626464843</east>
        <west>26.73110961914062</west>
      </LatLonBox>
    </GroundOverlay>
      </Document>
</kml>
    