<?xml version="1.0" encoding="utf-8"?>
<kml xmlns="http://www.opengis.net/kml/2.2">
  <Document>
    <name>18/150477/162266.kml</name>
    <description></description>
    <Style>
      <ListStyle id="hideChildren">
        <listItemType>checkHideChildren</listItemType>
      </ListStyle>
    </Style>
    <Region>
      <LatLonAltBox>
        <north>39.32898629338457</north>
        <south>39.32792401769030</south>
        <east>26.65008544921875</east>
        <west>26.64871215820312</west>
      </LatLonAltBox>
      <Lod>
        <minLodPixels>128</minLodPixels>
        <maxLodPixels>2048</maxLodPixels>
      </Lod>
    </Region>
    <GroundOverlay>
      <drawOrder>36</drawOrder>
      <Icon>
        <href>162266.png</href>
      </Icon>
      <LatLonBox>
        <north>39.32898629338457</north>
        <south>39.32792401769030</south>
        <east>26.65008544921875</east>
        <west>26.64871215820312</west>
      </LatLonBox>
    </GroundOverlay>

    <NetworkLink>
      <name>19/300954/324532.png</name>
      <Region>
        <LatLonAltBox>
          <north>39.32845515755447</north>
          <south>39.32792401769030</south>
          <east>26.64939880371093</east>
          <west>26.64871215820312</west>
        </LatLonAltBox>
        <Lod>
          <minLodPixels>128</minLodPixels>
          <maxLodPixels>-1</maxLodPixels>
        </Lod>
      </Region>
      <Link>
        <href>../../19/300954/324532.kml</href>
        <viewRefreshMode>onRegion</viewRefreshMode>
        <viewFormat/>
      </Link>
    </NetworkLink>
        
    <NetworkLink>
      <name>19/300955/324532.png</name>
      <Region>
        <LatLonAltBox>
          <north>39.32845515755447</north>
          <south>39.32792401769030</south>
          <east>26.65008544921875</east>
          <west>26.64939880371093</west>
        </LatLonAltBox>
        <Lod>
          <minLodPixels>128</minLodPixels>
          <maxLodPixels>-1</maxLodPixels>
        </Lod>
      </Region>
      <Link>
        <href>../../19/300955/324532.kml</href>
        <viewRefreshMode>onRegion</viewRefreshMode>
        <viewFormat/>
      </Link>
    </NetworkLink>
        
    <NetworkLink>
      <name>19/300954/324533.png</name>
      <Region>
        <LatLonAltBox>
          <north>39.32898629338457</north>
          <south>39.32845515755447</south>
          <east>26.64939880371093</east>
          <west>26.64871215820312</west>
        </LatLonAltBox>
        <Lod>
          <minLodPixels>128</minLodPixels>
          <maxLodPixels>-1</maxLodPixels>
        </Lod>
      </Region>
      <Link>
        <href>../../19/300954/324533.kml</href>
        <viewRefreshMode>onRegion</viewRefreshMode>
        <viewFormat/>
      </Link>
    </NetworkLink>
        
    <NetworkLink>
      <name>19/300955/324533.png</name>
      <Region>
        <LatLonAltBox>
          <north>39.32898629338457</north>
          <south>39.32845515755447</south>
          <east>26.65008544921875</east>
          <west>26.64939880371093</west>
        </LatLonAltBox>
        <Lod>
          <minLodPixels>128</minLodPixels>
          <maxLodPixels>-1</maxLodPixels>
        </Lod>
      </Region>
      <Link>
        <href>../../19/300955/324533.kml</href>
        <viewRefreshMode>onRegion</viewRefreshMode>
        <viewFormat/>
      </Link>
    </NetworkLink>
              </Document>
</kml>
    