<?xml version="1.0" encoding="utf-8"?>
<kml xmlns="http://www.opengis.net/kml/2.2">
  <Document>
    <name>18/150503/162319.kml</name>
    <description></description>
    <Style>
      <ListStyle id="hideChildren">
        <listItemType>checkHideChildren</listItemType>
      </ListStyle>
    </Style>
    <Region>
      <LatLonAltBox>
        <north>39.38526381099777</north>
        <south>39.38420239069844</south>
        <east>26.68579101562500</east>
        <west>26.68441772460938</west>
      </LatLonAltBox>
      <Lod>
        <minLodPixels>128</minLodPixels>
        <maxLodPixels>2048</maxLodPixels>
      </Lod>
    </Region>
    <GroundOverlay>
      <drawOrder>36</drawOrder>
      <Icon>
        <href>162319.png</href>
      </Icon>
      <LatLonBox>
        <north>39.38526381099777</north>
        <south>39.38420239069844</south>
        <east>26.68579101562500</east>
        <west>26.68441772460938</west>
      </LatLonBox>
    </GroundOverlay>

    <NetworkLink>
      <name>19/301006/324638.png</name>
      <Region>
        <LatLonAltBox>
          <north>39.38473310286594</north>
          <south>39.38420239069844</south>
          <east>26.68510437011719</east>
          <west>26.68441772460938</west>
        </LatLonAltBox>
        <Lod>
          <minLodPixels>128</minLodPixels>
          <maxLodPixels>-1</maxLodPixels>
        </Lod>
      </Region>
      <Link>
        <href>../../19/301006/324638.kml</href>
        <viewRefreshMode>onRegion</viewRefreshMode>
        <viewFormat/>
      </Link>
    </NetworkLink>
        
    <NetworkLink>
      <name>19/301007/324638.png</name>
      <Region>
        <LatLonAltBox>
          <north>39.38473310286594</north>
          <south>39.38420239069844</south>
          <east>26.68579101562500</east>
          <west>26.68510437011719</west>
        </LatLonAltBox>
        <Lod>
          <minLodPixels>128</minLodPixels>
          <maxLodPixels>-1</maxLodPixels>
        </Lod>
      </Region>
      <Link>
        <href>../../19/301007/324638.kml</href>
        <viewRefreshMode>onRegion</viewRefreshMode>
        <viewFormat/>
      </Link>
    </NetworkLink>
        
    <NetworkLink>
      <name>19/301006/324639.png</name>
      <Region>
        <LatLonAltBox>
          <north>39.38526381099777</north>
          <south>39.38473310286594</south>
          <east>26.68510437011719</east>
          <west>26.68441772460938</west>
        </LatLonAltBox>
        <Lod>
          <minLodPixels>128</minLodPixels>
          <maxLodPixels>-1</maxLodPixels>
        </Lod>
      </Region>
      <Link>
        <href>../../19/301006/324639.kml</href>
        <viewRefreshMode>onRegion</viewRefreshMode>
        <viewFormat/>
      </Link>
    </NetworkLink>
        
    <NetworkLink>
      <name>19/301007/324639.png</name>
      <Region>
        <LatLonAltBox>
          <north>39.38526381099777</north>
          <south>39.38473310286594</south>
          <east>26.68579101562500</east>
          <west>26.68510437011719</west>
        </LatLonAltBox>
        <Lod>
          <minLodPixels>128</minLodPixels>
          <maxLodPixels>-1</maxLodPixels>
        </Lod>
      </Region>
      <Link>
        <href>../../19/301007/324639.kml</href>
        <viewRefreshMode>onRegion</viewRefreshMode>
        <viewFormat/>
      </Link>
    </NetworkLink>
              </Document>
</kml>
    