<?xml version="1.0" encoding="utf-8"?>
<kml xmlns="http://www.opengis.net/kml/2.2">
  <Document>
    <name>17/75245/81129.kml</name>
    <description></description>
    <Style>
      <ListStyle id="hideChildren">
        <listItemType>checkHideChildren</listItemType>
      </ListStyle>
    </Style>
    <Region>
      <LatLonAltBox>
        <north>39.32155002466662</north>
        <south>39.31942523123952</south>
        <east>26.66931152343751</east>
        <west>26.66656494140626</west>
      </LatLonAltBox>
      <Lod>
        <minLodPixels>128</minLodPixels>
        <maxLodPixels>2048</maxLodPixels>
      </Lod>
    </Region>
    <GroundOverlay>
      <drawOrder>34</drawOrder>
      <Icon>
        <href>81129.png</href>
      </Icon>
      <LatLonBox>
        <north>39.32155002466662</north>
        <south>39.31942523123952</south>
        <east>26.66931152343751</east>
        <west>26.66656494140626</west>
      </LatLonBox>
    </GroundOverlay>

    <NetworkLink>
      <name>18/150490/162258.png</name>
      <Region>
        <LatLonAltBox>
          <north>39.32048763602080</north>
          <south>39.31942523123952</south>
          <east>26.66793823242189</east>
          <west>26.66656494140626</west>
        </LatLonAltBox>
        <Lod>
          <minLodPixels>128</minLodPixels>
          <maxLodPixels>-1</maxLodPixels>
        </Lod>
      </Region>
      <Link>
        <href>../../18/150490/162258.kml</href>
        <viewRefreshMode>onRegion</viewRefreshMode>
        <viewFormat/>
      </Link>
    </NetworkLink>
        
    <NetworkLink>
      <name>18/150491/162258.png</name>
      <Region>
        <LatLonAltBox>
          <north>39.32048763602080</north>
          <south>39.31942523123952</south>
          <east>26.66931152343751</east>
          <west>26.66793823242189</west>
        </LatLonAltBox>
        <Lod>
          <minLodPixels>128</minLodPixels>
          <maxLodPixels>-1</maxLodPixels>
        </Lod>
      </Region>
      <Link>
        <href>../../18/150491/162258.kml</href>
        <viewRefreshMode>onRegion</viewRefreshMode>
        <viewFormat/>
      </Link>
    </NetworkLink>
        
    <NetworkLink>
      <name>18/150490/162259.png</name>
      <Region>
        <LatLonAltBox>
          <north>39.32155002466662</north>
          <south>39.32048763602080</south>
          <east>26.66793823242189</east>
          <west>26.66656494140626</west>
        </LatLonAltBox>
        <Lod>
          <minLodPixels>128</minLodPixels>
          <maxLodPixels>-1</maxLodPixels>
        </Lod>
      </Region>
      <Link>
        <href>../../18/150490/162259.kml</href>
        <viewRefreshMode>onRegion</viewRefreshMode>
        <viewFormat/>
      </Link>
    </NetworkLink>
        
    <NetworkLink>
      <name>18/150491/162259.png</name>
      <Region>
        <LatLonAltBox>
          <north>39.32155002466662</north>
          <south>39.32048763602080</south>
          <east>26.66931152343751</east>
          <west>26.66793823242189</west>
        </LatLonAltBox>
        <Lod>
          <minLodPixels>128</minLodPixels>
          <maxLodPixels>-1</maxLodPixels>
        </Lod>
      </Region>
      <Link>
        <href>../../18/150491/162259.kml</href>
        <viewRefreshMode>onRegion</viewRefreshMode>
        <viewFormat/>
      </Link>
    </NetworkLink>
              </Document>
</kml>
    