<?xml version="1.0" encoding="utf-8"?>
<kml xmlns="http://www.opengis.net/kml/2.2">
  <Document>
    <name>18/150481/162314.kml</name>
    <description></description>
    <Style>
      <ListStyle id="hideChildren">
        <listItemType>checkHideChildren</listItemType>
      </ListStyle>
    </Style>
    <Region>
      <LatLonAltBox>
        <north>39.37995654807611</north>
        <south>39.37889504706486</south>
        <east>26.65557861328124</east>
        <west>26.65420532226561</west>
      </LatLonAltBox>
      <Lod>
        <minLodPixels>128</minLodPixels>
        <maxLodPixels>2048</maxLodPixels>
      </Lod>
    </Region>
    <GroundOverlay>
      <drawOrder>36</drawOrder>
      <Icon>
        <href>162314.png</href>
      </Icon>
      <LatLonBox>
        <north>39.37995654807611</north>
        <south>39.37889504706486</south>
        <east>26.65557861328124</east>
        <west>26.65420532226561</west>
      </LatLonBox>
    </GroundOverlay>

    <NetworkLink>
      <name>19/300962/324628.png</name>
      <Region>
        <LatLonAltBox>
          <north>39.37942579958823</north>
          <south>39.37889504706486</south>
          <east>26.65489196777343</east>
          <west>26.65420532226561</west>
        </LatLonAltBox>
        <Lod>
          <minLodPixels>128</minLodPixels>
          <maxLodPixels>-1</maxLodPixels>
        </Lod>
      </Region>
      <Link>
        <href>../../19/300962/324628.kml</href>
        <viewRefreshMode>onRegion</viewRefreshMode>
        <viewFormat/>
      </Link>
    </NetworkLink>
        
    <NetworkLink>
      <name>19/300963/324628.png</name>
      <Region>
        <LatLonAltBox>
          <north>39.37942579958823</north>
          <south>39.37889504706486</south>
          <east>26.65557861328124</east>
          <west>26.65489196777343</west>
        </LatLonAltBox>
        <Lod>
          <minLodPixels>128</minLodPixels>
          <maxLodPixels>-1</maxLodPixels>
        </Lod>
      </Region>
      <Link>
        <href>../../19/300963/324628.kml</href>
        <viewRefreshMode>onRegion</viewRefreshMode>
        <viewFormat/>
      </Link>
    </NetworkLink>
        
    <NetworkLink>
      <name>19/300962/324629.png</name>
      <Region>
        <LatLonAltBox>
          <north>39.37995654807611</north>
          <south>39.37942579958823</south>
          <east>26.65489196777343</east>
          <west>26.65420532226561</west>
        </LatLonAltBox>
        <Lod>
          <minLodPixels>128</minLodPixels>
          <maxLodPixels>-1</maxLodPixels>
        </Lod>
      </Region>
      <Link>
        <href>../../19/300962/324629.kml</href>
        <viewRefreshMode>onRegion</viewRefreshMode>
        <viewFormat/>
      </Link>
    </NetworkLink>
        
    <NetworkLink>
      <name>19/300963/324629.png</name>
      <Region>
        <LatLonAltBox>
          <north>39.37995654807611</north>
          <south>39.37942579958823</south>
          <east>26.65557861328124</east>
          <west>26.65489196777343</west>
        </LatLonAltBox>
        <Lod>
          <minLodPixels>128</minLodPixels>
          <maxLodPixels>-1</maxLodPixels>
        </Lod>
      </Region>
      <Link>
        <href>../../19/300963/324629.kml</href>
        <viewRefreshMode>onRegion</viewRefreshMode>
        <viewFormat/>
      </Link>
    </NetworkLink>
              </Document>
</kml>
    