<?xml version="1.0" encoding="utf-8"?>
<kml xmlns="http://www.opengis.net/kml/2.2">
  <Document>
    <name>19/301051/324467.kml</name>
    <description></description>
    <Style>
      <ListStyle id="hideChildren">
        <listItemType>checkHideChildren</listItemType>
      </ListStyle>
    </Style>
    <Region>
      <LatLonAltBox>
        <north>39.29392267616436</north>
        <south>39.29339127411664</south>
        <east>26.71600341796876</east>
        <west>26.71531677246095</west>
      </LatLonAltBox>
      <Lod>
        <minLodPixels>128</minLodPixels>
        <maxLodPixels>-1</maxLodPixels>
      </Lod>
    </Region>
    <GroundOverlay>
      <drawOrder>38</drawOrder>
      <Icon>
        <href>324467.png</href>
      </Icon>
      <LatLonBox>
        <north>39.29392267616436</north>
        <south>39.29339127411664</south>
        <east>26.71600341796876</east>
        <west>26.71531677246095</west>
      </LatLonBox>
    </GroundOverlay>
      </Document>
</kml>
    