<?xml version="1.0" encoding="utf-8"?>
<kml xmlns="http://www.opengis.net/kml/2.2">
  <Document>
    <name>18/150508/162283.kml</name>
    <description></description>
    <Style>
      <ListStyle id="hideChildren">
        <listItemType>checkHideChildren</listItemType>
      </ListStyle>
    </Style>
    <Region>
      <LatLonAltBox>
        <north>39.34704251121732</north>
        <south>39.34598050985849</south>
        <east>26.69265747070312</east>
        <west>26.69128417968750</west>
      </LatLonAltBox>
      <Lod>
        <minLodPixels>128</minLodPixels>
        <maxLodPixels>2048</maxLodPixels>
      </Lod>
    </Region>
    <GroundOverlay>
      <drawOrder>36</drawOrder>
      <Icon>
        <href>162283.png</href>
      </Icon>
      <LatLonBox>
        <north>39.34704251121732</north>
        <south>39.34598050985849</south>
        <east>26.69265747070312</east>
        <west>26.69128417968750</west>
      </LatLonBox>
    </GroundOverlay>

    <NetworkLink>
      <name>19/301016/324566.png</name>
      <Region>
        <LatLonAltBox>
          <north>39.34651151255520</north>
          <south>39.34598050985849</south>
          <east>26.69197082519531</east>
          <west>26.69128417968750</west>
        </LatLonAltBox>
        <Lod>
          <minLodPixels>128</minLodPixels>
          <maxLodPixels>-1</maxLodPixels>
        </Lod>
      </Region>
      <Link>
        <href>../../19/301016/324566.kml</href>
        <viewRefreshMode>onRegion</viewRefreshMode>
        <viewFormat/>
      </Link>
    </NetworkLink>
        
    <NetworkLink>
      <name>19/301017/324566.png</name>
      <Region>
        <LatLonAltBox>
          <north>39.34651151255520</north>
          <south>39.34598050985849</south>
          <east>26.69265747070312</east>
          <west>26.69197082519531</west>
        </LatLonAltBox>
        <Lod>
          <minLodPixels>128</minLodPixels>
          <maxLodPixels>-1</maxLodPixels>
        </Lod>
      </Region>
      <Link>
        <href>../../19/301017/324566.kml</href>
        <viewRefreshMode>onRegion</viewRefreshMode>
        <viewFormat/>
      </Link>
    </NetworkLink>
        
    <NetworkLink>
      <name>19/301016/324567.png</name>
      <Region>
        <LatLonAltBox>
          <north>39.34704251121732</north>
          <south>39.34651151255520</south>
          <east>26.69197082519531</east>
          <west>26.69128417968750</west>
        </LatLonAltBox>
        <Lod>
          <minLodPixels>128</minLodPixels>
          <maxLodPixels>-1</maxLodPixels>
        </Lod>
      </Region>
      <Link>
        <href>../../19/301016/324567.kml</href>
        <viewRefreshMode>onRegion</viewRefreshMode>
        <viewFormat/>
      </Link>
    </NetworkLink>
        
    <NetworkLink>
      <name>19/301017/324567.png</name>
      <Region>
        <LatLonAltBox>
          <north>39.34704251121732</north>
          <south>39.34651151255520</south>
          <east>26.69265747070312</east>
          <west>26.69197082519531</west>
        </LatLonAltBox>
        <Lod>
          <minLodPixels>128</minLodPixels>
          <maxLodPixels>-1</maxLodPixels>
        </Lod>
      </Region>
      <Link>
        <href>../../19/301017/324567.kml</href>
        <viewRefreshMode>onRegion</viewRefreshMode>
        <viewFormat/>
      </Link>
    </NetworkLink>
              </Document>
</kml>
    