<?xml version="1.0" encoding="utf-8"?>
<kml xmlns="http://www.opengis.net/kml/2.2">
  <Document>
    <name>17/75267/81122.kml</name>
    <description></description>
    <Style>
      <ListStyle id="hideChildren">
        <listItemType>checkHideChildren</listItemType>
      </ListStyle>
    </Style>
    <Region>
      <LatLonAltBox>
        <north>39.30667511534213</north>
        <south>39.30454987014581</south>
        <east>26.72973632812500</east>
        <west>26.72698974609375</west>
      </LatLonAltBox>
      <Lod>
        <minLodPixels>128</minLodPixels>
        <maxLodPixels>2048</maxLodPixels>
      </Lod>
    </Region>
    <GroundOverlay>
      <drawOrder>34</drawOrder>
      <Icon>
        <href>81122.png</href>
      </Icon>
      <LatLonBox>
        <north>39.30667511534213</north>
        <south>39.30454987014581</south>
        <east>26.72973632812500</east>
        <west>26.72698974609375</west>
      </LatLonBox>
    </GroundOverlay>

    <NetworkLink>
      <name>18/150534/162244.png</name>
      <Region>
        <LatLonAltBox>
          <north>39.30561250081085</north>
          <south>39.30454987014581</south>
          <east>26.72836303710938</east>
          <west>26.72698974609375</west>
        </LatLonAltBox>
        <Lod>
          <minLodPixels>128</minLodPixels>
          <maxLodPixels>-1</maxLodPixels>
        </Lod>
      </Region>
      <Link>
        <href>../../18/150534/162244.kml</href>
        <viewRefreshMode>onRegion</viewRefreshMode>
        <viewFormat/>
      </Link>
    </NetworkLink>
        
    <NetworkLink>
      <name>18/150535/162244.png</name>
      <Region>
        <LatLonAltBox>
          <north>39.30561250081085</north>
          <south>39.30454987014581</south>
          <east>26.72973632812500</east>
          <west>26.72836303710938</west>
        </LatLonAltBox>
        <Lod>
          <minLodPixels>128</minLodPixels>
          <maxLodPixels>-1</maxLodPixels>
        </Lod>
      </Region>
      <Link>
        <href>../../18/150535/162244.kml</href>
        <viewRefreshMode>onRegion</viewRefreshMode>
        <viewFormat/>
      </Link>
    </NetworkLink>
        
    <NetworkLink>
      <name>18/150534/162245.png</name>
      <Region>
        <LatLonAltBox>
          <north>39.30667511534213</north>
          <south>39.30561250081085</south>
          <east>26.72836303710938</east>
          <west>26.72698974609375</west>
        </LatLonAltBox>
        <Lod>
          <minLodPixels>128</minLodPixels>
          <maxLodPixels>-1</maxLodPixels>
        </Lod>
      </Region>
      <Link>
        <href>../../18/150534/162245.kml</href>
        <viewRefreshMode>onRegion</viewRefreshMode>
        <viewFormat/>
      </Link>
    </NetworkLink>
        
    <NetworkLink>
      <name>18/150535/162245.png</name>
      <Region>
        <LatLonAltBox>
          <north>39.30667511534213</north>
          <south>39.30561250081085</south>
          <east>26.72973632812500</east>
          <west>26.72836303710938</west>
        </LatLonAltBox>
        <Lod>
          <minLodPixels>128</minLodPixels>
          <maxLodPixels>-1</maxLodPixels>
        </Lod>
      </Region>
      <Link>
        <href>../../18/150535/162245.kml</href>
        <viewRefreshMode>onRegion</viewRefreshMode>
        <viewFormat/>
      </Link>
    </NetworkLink>
              </Document>
</kml>
    