<?xml version="1.0" encoding="utf-8"?>
<kml xmlns="http://www.opengis.net/kml/2.2">
  <Document>
    <name>19/301018/324576.kml</name>
    <description></description>
    <Style>
      <ListStyle id="hideChildren">
        <listItemType>checkHideChildren</listItemType>
      </ListStyle>
    </Style>
    <Region>
      <LatLonAltBox>
        <north>39.35182131761713</north>
        <south>39.35129035526705</south>
        <east>26.69334411621093</east>
        <west>26.69265747070312</west>
      </LatLonAltBox>
      <Lod>
        <minLodPixels>128</minLodPixels>
        <maxLodPixels>-1</maxLodPixels>
      </Lod>
    </Region>
    <GroundOverlay>
      <drawOrder>38</drawOrder>
      <Icon>
        <href>324576.png</href>
      </Icon>
      <LatLonBox>
        <north>39.35182131761713</north>
        <south>39.35129035526705</south>
        <east>26.69334411621093</east>
        <west>26.69265747070312</west>
      </LatLonBox>
    </GroundOverlay>
      </Document>
</kml>
    