<?xml version="1.0" encoding="utf-8"?>
<kml xmlns="http://www.opengis.net/kml/2.2">
  <Document>
    <name>19/301023/324500.kml</name>
    <description></description>
    <Style>
      <ListStyle id="hideChildren">
        <listItemType>checkHideChildren</listItemType>
      </ListStyle>
    </Style>
    <Region>
      <LatLonAltBox>
        <north>39.31145668107426</north>
        <south>39.31092541212715</south>
        <east>26.69677734374999</east>
        <west>26.69609069824218</west>
      </LatLonAltBox>
      <Lod>
        <minLodPixels>128</minLodPixels>
        <maxLodPixels>-1</maxLodPixels>
      </Lod>
    </Region>
    <GroundOverlay>
      <drawOrder>38</drawOrder>
      <Icon>
        <href>324500.png</href>
      </Icon>
      <LatLonBox>
        <north>39.31145668107426</north>
        <south>39.31092541212715</south>
        <east>26.69677734374999</east>
        <west>26.69609069824218</west>
      </LatLonBox>
    </GroundOverlay>
      </Document>
</kml>
    