<?xml version="1.0" encoding="utf-8"?>
<kml xmlns="http://www.opengis.net/kml/2.2">
  <Document>
    <name>17/75256/81126.kml</name>
    <description></description>
    <Style>
      <ListStyle id="hideChildren">
        <listItemType>checkHideChildren</listItemType>
      </ListStyle>
    </Style>
    <Region>
      <LatLonAltBox>
        <north>39.31517545076215</north>
        <south>39.31305046371388</south>
        <east>26.69952392578124</east>
        <west>26.69677734374999</west>
      </LatLonAltBox>
      <Lod>
        <minLodPixels>128</minLodPixels>
        <maxLodPixels>2048</maxLodPixels>
      </Lod>
    </Region>
    <GroundOverlay>
      <drawOrder>34</drawOrder>
      <Icon>
        <href>81126.png</href>
      </Icon>
      <LatLonBox>
        <north>39.31517545076215</north>
        <south>39.31305046371388</south>
        <east>26.69952392578124</east>
        <west>26.69677734374999</west>
      </LatLonBox>
    </GroundOverlay>

    <NetworkLink>
      <name>18/150512/162252.png</name>
      <Region>
        <LatLonAltBox>
          <north>39.31411296530539</north>
          <south>39.31305046371388</south>
          <east>26.69815063476561</east>
          <west>26.69677734374999</west>
        </LatLonAltBox>
        <Lod>
          <minLodPixels>128</minLodPixels>
          <maxLodPixels>-1</maxLodPixels>
        </Lod>
      </Region>
      <Link>
        <href>../../18/150512/162252.kml</href>
        <viewRefreshMode>onRegion</viewRefreshMode>
        <viewFormat/>
      </Link>
    </NetworkLink>
        
    <NetworkLink>
      <name>18/150513/162252.png</name>
      <Region>
        <LatLonAltBox>
          <north>39.31411296530539</north>
          <south>39.31305046371388</south>
          <east>26.69952392578124</east>
          <west>26.69815063476561</west>
        </LatLonAltBox>
        <Lod>
          <minLodPixels>128</minLodPixels>
          <maxLodPixels>-1</maxLodPixels>
        </Lod>
      </Region>
      <Link>
        <href>../../18/150513/162252.kml</href>
        <viewRefreshMode>onRegion</viewRefreshMode>
        <viewFormat/>
      </Link>
    </NetworkLink>
        
    <NetworkLink>
      <name>18/150512/162253.png</name>
      <Region>
        <LatLonAltBox>
          <north>39.31517545076215</north>
          <south>39.31411296530539</south>
          <east>26.69815063476561</east>
          <west>26.69677734374999</west>
        </LatLonAltBox>
        <Lod>
          <minLodPixels>128</minLodPixels>
          <maxLodPixels>-1</maxLodPixels>
        </Lod>
      </Region>
      <Link>
        <href>../../18/150512/162253.kml</href>
        <viewRefreshMode>onRegion</viewRefreshMode>
        <viewFormat/>
      </Link>
    </NetworkLink>
        
    <NetworkLink>
      <name>18/150513/162253.png</name>
      <Region>
        <LatLonAltBox>
          <north>39.31517545076215</north>
          <south>39.31411296530539</south>
          <east>26.69952392578124</east>
          <west>26.69815063476561</west>
        </LatLonAltBox>
        <Lod>
          <minLodPixels>128</minLodPixels>
          <maxLodPixels>-1</maxLodPixels>
        </Lod>
      </Region>
      <Link>
        <href>../../18/150513/162253.kml</href>
        <viewRefreshMode>onRegion</viewRefreshMode>
        <viewFormat/>
      </Link>
    </NetworkLink>
              </Document>
</kml>
    