<?xml version="1.0" encoding="utf-8"?>
<kml xmlns="http://www.opengis.net/kml/2.2">
  <Document>
    <name>19/300995/324538.kml</name>
    <description></description>
    <Style>
      <ListStyle id="hideChildren">
        <listItemType>checkHideChildren</listItemType>
      </ListStyle>
    </Style>
    <Region>
      <LatLonAltBox>
        <north>39.33164191202314</north>
        <south>39.33111079636372</south>
        <east>26.67755126953125</east>
        <west>26.67686462402344</west>
      </LatLonAltBox>
      <Lod>
        <minLodPixels>128</minLodPixels>
        <maxLodPixels>-1</maxLodPixels>
      </Lod>
    </Region>
    <GroundOverlay>
      <drawOrder>38</drawOrder>
      <Icon>
        <href>324538.png</href>
      </Icon>
      <LatLonBox>
        <north>39.33164191202314</north>
        <south>39.33111079636372</south>
        <east>26.67755126953125</east>
        <west>26.67686462402344</west>
      </LatLonBox>
    </GroundOverlay>
      </Document>
</kml>
    