<?xml version="1.0" encoding="utf-8"?>
<kml xmlns="http://www.opengis.net/kml/2.2">
  <Document>
    <name>19/300953/324551.kml</name>
    <description></description>
    <Style>
      <ListStyle id="hideChildren">
        <listItemType>checkHideChildren</listItemType>
      </ListStyle>
    </Style>
    <Region>
      <LatLonAltBox>
        <north>39.33854604847979</north>
        <south>39.33801498526585</south>
        <east>26.64871215820312</east>
        <west>26.64802551269531</west>
      </LatLonAltBox>
      <Lod>
        <minLodPixels>128</minLodPixels>
        <maxLodPixels>-1</maxLodPixels>
      </Lod>
    </Region>
    <GroundOverlay>
      <drawOrder>38</drawOrder>
      <Icon>
        <href>324551.png</href>
      </Icon>
      <LatLonBox>
        <north>39.33854604847979</north>
        <south>39.33801498526585</south>
        <east>26.64871215820312</east>
        <west>26.64802551269531</west>
      </LatLonBox>
    </GroundOverlay>
      </Document>
</kml>
    