<?xml version="1.0" encoding="utf-8"?>
<kml xmlns="http://www.opengis.net/kml/2.2">
  <Document>
    <name>17/75242/81132.kml</name>
    <description></description>
    <Style>
      <ListStyle id="hideChildren">
        <listItemType>checkHideChildren</listItemType>
      </ListStyle>
    </Style>
    <Region>
      <LatLonAltBox>
        <north>39.32792401769030</north>
        <south>39.32579941789298</south>
        <east>26.66107177734374</east>
        <west>26.65832519531249</west>
      </LatLonAltBox>
      <Lod>
        <minLodPixels>128</minLodPixels>
        <maxLodPixels>2048</maxLodPixels>
      </Lod>
    </Region>
    <GroundOverlay>
      <drawOrder>34</drawOrder>
      <Icon>
        <href>81132.png</href>
      </Icon>
      <LatLonBox>
        <north>39.32792401769030</north>
        <south>39.32579941789298</south>
        <east>26.66107177734374</east>
        <west>26.65832519531249</west>
      </LatLonBox>
    </GroundOverlay>

    <NetworkLink>
      <name>18/150484/162264.png</name>
      <Region>
        <LatLonAltBox>
          <north>39.32686172585973</north>
          <south>39.32579941789298</south>
          <east>26.65969848632811</east>
          <west>26.65832519531249</west>
        </LatLonAltBox>
        <Lod>
          <minLodPixels>128</minLodPixels>
          <maxLodPixels>-1</maxLodPixels>
        </Lod>
      </Region>
      <Link>
        <href>../../18/150484/162264.kml</href>
        <viewRefreshMode>onRegion</viewRefreshMode>
        <viewFormat/>
      </Link>
    </NetworkLink>
        
    <NetworkLink>
      <name>18/150485/162264.png</name>
      <Region>
        <LatLonAltBox>
          <north>39.32686172585973</north>
          <south>39.32579941789298</south>
          <east>26.66107177734374</east>
          <west>26.65969848632811</west>
        </LatLonAltBox>
        <Lod>
          <minLodPixels>128</minLodPixels>
          <maxLodPixels>-1</maxLodPixels>
        </Lod>
      </Region>
      <Link>
        <href>../../18/150485/162264.kml</href>
        <viewRefreshMode>onRegion</viewRefreshMode>
        <viewFormat/>
      </Link>
    </NetworkLink>
        
    <NetworkLink>
      <name>18/150484/162265.png</name>
      <Region>
        <LatLonAltBox>
          <north>39.32792401769030</north>
          <south>39.32686172585973</south>
          <east>26.65969848632811</east>
          <west>26.65832519531249</west>
        </LatLonAltBox>
        <Lod>
          <minLodPixels>128</minLodPixels>
          <maxLodPixels>-1</maxLodPixels>
        </Lod>
      </Region>
      <Link>
        <href>../../18/150484/162265.kml</href>
        <viewRefreshMode>onRegion</viewRefreshMode>
        <viewFormat/>
      </Link>
    </NetworkLink>
        
    <NetworkLink>
      <name>18/150485/162265.png</name>
      <Region>
        <LatLonAltBox>
          <north>39.32792401769030</north>
          <south>39.32686172585973</south>
          <east>26.66107177734374</east>
          <west>26.65969848632811</west>
        </LatLonAltBox>
        <Lod>
          <minLodPixels>128</minLodPixels>
          <maxLodPixels>-1</maxLodPixels>
        </Lod>
      </Region>
      <Link>
        <href>../../18/150485/162265.kml</href>
        <viewRefreshMode>onRegion</viewRefreshMode>
        <viewFormat/>
      </Link>
    </NetworkLink>
              </Document>
</kml>
    