<?xml version="1.0" encoding="utf-8"?>
<kml xmlns="http://www.opengis.net/kml/2.2">
  <Document>
    <name>19/300923/324639.kml</name>
    <description></description>
    <Style>
      <ListStyle id="hideChildren">
        <listItemType>checkHideChildren</listItemType>
      </ListStyle>
    </Style>
    <Region>
      <LatLonAltBox>
        <north>39.38526381099777</north>
        <south>39.38473310286594</south>
        <east>26.62811279296876</east>
        <west>26.62742614746095</west>
      </LatLonAltBox>
      <Lod>
        <minLodPixels>128</minLodPixels>
        <maxLodPixels>-1</maxLodPixels>
      </Lod>
    </Region>
    <GroundOverlay>
      <drawOrder>38</drawOrder>
      <Icon>
        <href>324639.png</href>
      </Icon>
      <LatLonBox>
        <north>39.38526381099777</north>
        <south>39.38473310286594</south>
        <east>26.62811279296876</east>
        <west>26.62742614746095</west>
      </LatLonBox>
    </GroundOverlay>
      </Document>
</kml>
    