<?xml version="1.0" encoding="utf-8"?>
<kml xmlns="http://www.opengis.net/kml/2.2">
  <Document>
    <name>16/37619/40578.kml</name>
    <description></description>
    <Style>
      <ListStyle id="hideChildren">
        <listItemType>checkHideChildren</listItemType>
      </ListStyle>
    </Style>
    <Region>
      <LatLonAltBox>
        <north>39.38101803294520</north>
        <south>39.37677199661635</south>
        <east>26.65283203124999</east>
        <west>26.64733886718750</west>
      </LatLonAltBox>
      <Lod>
        <minLodPixels>128</minLodPixels>
        <maxLodPixels>2048</maxLodPixels>
      </Lod>
    </Region>
    <GroundOverlay>
      <drawOrder>32</drawOrder>
      <Icon>
        <href>40578.png</href>
      </Icon>
      <LatLonBox>
        <north>39.38101803294520</north>
        <south>39.37677199661635</south>
        <east>26.65283203124999</east>
        <west>26.64733886718750</west>
      </LatLonBox>
    </GroundOverlay>

    <NetworkLink>
      <name>17/75238/81156.png</name>
      <Region>
        <LatLonAltBox>
          <north>39.37889504706486</north>
          <south>39.37677199661635</south>
          <east>26.65008544921875</east>
          <west>26.64733886718750</west>
        </LatLonAltBox>
        <Lod>
          <minLodPixels>128</minLodPixels>
          <maxLodPixels>-1</maxLodPixels>
        </Lod>
      </Region>
      <Link>
        <href>../../17/75238/81156.kml</href>
        <viewRefreshMode>onRegion</viewRefreshMode>
        <viewFormat/>
      </Link>
    </NetworkLink>
        
    <NetworkLink>
      <name>17/75239/81156.png</name>
      <Region>
        <LatLonAltBox>
          <north>39.37889504706486</north>
          <south>39.37677199661635</south>
          <east>26.65283203124999</east>
          <west>26.65008544921875</west>
        </LatLonAltBox>
        <Lod>
          <minLodPixels>128</minLodPixels>
          <maxLodPixels>-1</maxLodPixels>
        </Lod>
      </Region>
      <Link>
        <href>../../17/75239/81156.kml</href>
        <viewRefreshMode>onRegion</viewRefreshMode>
        <viewFormat/>
      </Link>
    </NetworkLink>
        
    <NetworkLink>
      <name>17/75238/81157.png</name>
      <Region>
        <LatLonAltBox>
          <north>39.38101803294520</north>
          <south>39.37889504706486</south>
          <east>26.65008544921875</east>
          <west>26.64733886718750</west>
        </LatLonAltBox>
        <Lod>
          <minLodPixels>128</minLodPixels>
          <maxLodPixels>-1</maxLodPixels>
        </Lod>
      </Region>
      <Link>
        <href>../../17/75238/81157.kml</href>
        <viewRefreshMode>onRegion</viewRefreshMode>
        <viewFormat/>
      </Link>
    </NetworkLink>
        
    <NetworkLink>
      <name>17/75239/81157.png</name>
      <Region>
        <LatLonAltBox>
          <north>39.38101803294520</north>
          <south>39.37889504706486</south>
          <east>26.65283203124999</east>
          <west>26.65008544921875</west>
        </LatLonAltBox>
        <Lod>
          <minLodPixels>128</minLodPixels>
          <maxLodPixels>-1</maxLodPixels>
        </Lod>
      </Region>
      <Link>
        <href>../../17/75239/81157.kml</href>
        <viewRefreshMode>onRegion</viewRefreshMode>
        <viewFormat/>
      </Link>
    </NetworkLink>
              </Document>
</kml>
    