<?xml version="1.0" encoding="utf-8"?>
<kml xmlns="http://www.opengis.net/kml/2.2">
  <Document>
    <name>19/300902/324498.kml</name>
    <description></description>
    <Style>
      <ListStyle id="hideChildren">
        <listItemType>checkHideChildren</listItemType>
      </ListStyle>
    </Style>
    <Region>
      <LatLonAltBox>
        <north>39.31039413914645</north>
        <south>39.30986286213216</south>
        <east>26.61369323730468</east>
        <west>26.61300659179686</west>
      </LatLonAltBox>
      <Lod>
        <minLodPixels>128</minLodPixels>
        <maxLodPixels>-1</maxLodPixels>
      </Lod>
    </Region>
    <GroundOverlay>
      <drawOrder>38</drawOrder>
      <Icon>
        <href>324498.png</href>
      </Icon>
      <LatLonBox>
        <north>39.31039413914645</north>
        <south>39.30986286213216</south>
        <east>26.61369323730468</east>
        <west>26.61300659179686</west>
      </LatLonBox>
    </GroundOverlay>
      </Document>
</kml>
    