<?xml version="1.0" encoding="utf-8"?>
<kml xmlns="http://www.opengis.net/kml/2.2">
  <Document>
    <name>18/150488/162286.kml</name>
    <description></description>
    <Style>
      <ListStyle id="hideChildren">
        <listItemType>checkHideChildren</listItemType>
      </ListStyle>
    </Style>
    <Region>
      <LatLonAltBox>
        <north>39.35022841846271</north>
        <south>39.34916646551957</south>
        <east>26.66519165039064</east>
        <west>26.66381835937501</west>
      </LatLonAltBox>
      <Lod>
        <minLodPixels>128</minLodPixels>
        <maxLodPixels>2048</maxLodPixels>
      </Lod>
    </Region>
    <GroundOverlay>
      <drawOrder>36</drawOrder>
      <Icon>
        <href>162286.png</href>
      </Icon>
      <LatLonBox>
        <north>39.35022841846271</north>
        <south>39.34916646551957</south>
        <east>26.66519165039064</east>
        <west>26.66381835937501</west>
      </LatLonBox>
    </GroundOverlay>

    <NetworkLink>
      <name>19/300976/324572.png</name>
      <Region>
        <LatLonAltBox>
          <north>39.34969744400848</north>
          <south>39.34916646551957</south>
          <east>26.66450500488283</east>
          <west>26.66381835937501</west>
        </LatLonAltBox>
        <Lod>
          <minLodPixels>128</minLodPixels>
          <maxLodPixels>-1</maxLodPixels>
        </Lod>
      </Region>
      <Link>
        <href>../../19/300976/324572.kml</href>
        <viewRefreshMode>onRegion</viewRefreshMode>
        <viewFormat/>
      </Link>
    </NetworkLink>
        
    <NetworkLink>
      <name>19/300977/324572.png</name>
      <Region>
        <LatLonAltBox>
          <north>39.34969744400848</north>
          <south>39.34916646551957</south>
          <east>26.66519165039064</east>
          <west>26.66450500488283</west>
        </LatLonAltBox>
        <Lod>
          <minLodPixels>128</minLodPixels>
          <maxLodPixels>-1</maxLodPixels>
        </Lod>
      </Region>
      <Link>
        <href>../../19/300977/324572.kml</href>
        <viewRefreshMode>onRegion</viewRefreshMode>
        <viewFormat/>
      </Link>
    </NetworkLink>
        
    <NetworkLink>
      <name>19/300976/324573.png</name>
      <Region>
        <LatLonAltBox>
          <north>39.35022841846271</north>
          <south>39.34969744400848</south>
          <east>26.66450500488283</east>
          <west>26.66381835937501</west>
        </LatLonAltBox>
        <Lod>
          <minLodPixels>128</minLodPixels>
          <maxLodPixels>-1</maxLodPixels>
        </Lod>
      </Region>
      <Link>
        <href>../../19/300976/324573.kml</href>
        <viewRefreshMode>onRegion</viewRefreshMode>
        <viewFormat/>
      </Link>
    </NetworkLink>
        
    <NetworkLink>
      <name>19/300977/324573.png</name>
      <Region>
        <LatLonAltBox>
          <north>39.35022841846271</north>
          <south>39.34969744400848</south>
          <east>26.66519165039064</east>
          <west>26.66450500488283</west>
        </LatLonAltBox>
        <Lod>
          <minLodPixels>128</minLodPixels>
          <maxLodPixels>-1</maxLodPixels>
        </Lod>
      </Region>
      <Link>
        <href>../../19/300977/324573.kml</href>
        <viewRefreshMode>onRegion</viewRefreshMode>
        <viewFormat/>
      </Link>
    </NetworkLink>
              </Document>
</kml>
    