<?xml version="1.0" encoding="utf-8"?>
<kml xmlns="http://www.opengis.net/kml/2.2">
  <Document>
    <name>17/75263/81120.kml</name>
    <description></description>
    <Style>
      <ListStyle id="hideChildren">
        <listItemType>checkHideChildren</listItemType>
      </ListStyle>
    </Style>
    <Region>
      <LatLonAltBox>
        <north>39.30242456041487</north>
        <south>39.30029918615029</south>
        <east>26.71875000000000</east>
        <west>26.71600341796876</west>
      </LatLonAltBox>
      <Lod>
        <minLodPixels>128</minLodPixels>
        <maxLodPixels>2048</maxLodPixels>
      </Lod>
    </Region>
    <GroundOverlay>
      <drawOrder>34</drawOrder>
      <Icon>
        <href>81120.png</href>
      </Icon>
      <LatLonBox>
        <north>39.30242456041487</north>
        <south>39.30029918615029</south>
        <east>26.71875000000000</east>
        <west>26.71600341796876</west>
      </LatLonBox>
    </GroundOverlay>

    <NetworkLink>
      <name>18/150526/162240.png</name>
      <Region>
        <LatLonAltBox>
          <north>39.30136188134922</north>
          <south>39.30029918615029</south>
          <east>26.71737670898438</east>
          <west>26.71600341796876</west>
        </LatLonAltBox>
        <Lod>
          <minLodPixels>128</minLodPixels>
          <maxLodPixels>-1</maxLodPixels>
        </Lod>
      </Region>
      <Link>
        <href>../../18/150526/162240.kml</href>
        <viewRefreshMode>onRegion</viewRefreshMode>
        <viewFormat/>
      </Link>
    </NetworkLink>
        
    <NetworkLink>
      <name>18/150527/162240.png</name>
      <Region>
        <LatLonAltBox>
          <north>39.30136188134922</north>
          <south>39.30029918615029</south>
          <east>26.71875000000000</east>
          <west>26.71737670898438</west>
        </LatLonAltBox>
        <Lod>
          <minLodPixels>128</minLodPixels>
          <maxLodPixels>-1</maxLodPixels>
        </Lod>
      </Region>
      <Link>
        <href>../../18/150527/162240.kml</href>
        <viewRefreshMode>onRegion</viewRefreshMode>
        <viewFormat/>
      </Link>
    </NetworkLink>
        
    <NetworkLink>
      <name>18/150526/162241.png</name>
      <Region>
        <LatLonAltBox>
          <north>39.30242456041487</north>
          <south>39.30136188134922</south>
          <east>26.71737670898438</east>
          <west>26.71600341796876</west>
        </LatLonAltBox>
        <Lod>
          <minLodPixels>128</minLodPixels>
          <maxLodPixels>-1</maxLodPixels>
        </Lod>
      </Region>
      <Link>
        <href>../../18/150526/162241.kml</href>
        <viewRefreshMode>onRegion</viewRefreshMode>
        <viewFormat/>
      </Link>
    </NetworkLink>
        
    <NetworkLink>
      <name>18/150527/162241.png</name>
      <Region>
        <LatLonAltBox>
          <north>39.30242456041487</north>
          <south>39.30136188134922</south>
          <east>26.71875000000000</east>
          <west>26.71737670898438</west>
        </LatLonAltBox>
        <Lod>
          <minLodPixels>128</minLodPixels>
          <maxLodPixels>-1</maxLodPixels>
        </Lod>
      </Region>
      <Link>
        <href>../../18/150527/162241.kml</href>
        <viewRefreshMode>onRegion</viewRefreshMode>
        <viewFormat/>
      </Link>
    </NetworkLink>
              </Document>
</kml>
    