<?xml version="1.0" encoding="utf-8"?>
<kml xmlns="http://www.opengis.net/kml/2.2">
  <Document>
    <name>19/300915/324592.kml</name>
    <description></description>
    <Style>
      <ListStyle id="hideChildren">
        <listItemType>checkHideChildren</listItemType>
      </ListStyle>
    </Style>
    <Region>
      <LatLonAltBox>
        <north>39.36031616648231</north>
        <south>39.35978526869001</south>
        <east>26.62261962890626</east>
        <west>26.62193298339845</west>
      </LatLonAltBox>
      <Lod>
        <minLodPixels>128</minLodPixels>
        <maxLodPixels>-1</maxLodPixels>
      </Lod>
    </Region>
    <GroundOverlay>
      <drawOrder>38</drawOrder>
      <Icon>
        <href>324592.png</href>
      </Icon>
      <LatLonBox>
        <north>39.36031616648231</north>
        <south>39.35978526869001</south>
        <east>26.62261962890626</east>
        <west>26.62193298339845</west>
      </LatLonBox>
    </GroundOverlay>
      </Document>
</kml>
    