<?xml version="1.0" encoding="utf-8"?>
<kml xmlns="http://www.opengis.net/kml/2.2">
  <Document>
    <name>19/300960/324634.kml</name>
    <description></description>
    <Style>
      <ListStyle id="hideChildren">
        <listItemType>checkHideChildren</listItemType>
      </ListStyle>
    </Style>
    <Region>
      <LatLonAltBox>
        <north>39.38261022998208</north>
        <south>39.38207950167204</south>
        <east>26.65351867675780</east>
        <west>26.65283203124999</west>
      </LatLonAltBox>
      <Lod>
        <minLodPixels>128</minLodPixels>
        <maxLodPixels>-1</maxLodPixels>
      </Lod>
    </Region>
    <GroundOverlay>
      <drawOrder>38</drawOrder>
      <Icon>
        <href>324634.png</href>
      </Icon>
      <LatLonBox>
        <north>39.38261022998208</north>
        <south>39.38207950167204</south>
        <east>26.65351867675780</east>
        <west>26.65283203124999</west>
      </LatLonBox>
    </GroundOverlay>
      </Document>
</kml>
    