<?xml version="1.0" encoding="utf-8"?>
<kml xmlns="http://www.opengis.net/kml/2.2">
  <Document>
    <name>18/150518/162239.kml</name>
    <description></description>
    <Style>
      <ListStyle id="hideChildren">
        <listItemType>checkHideChildren</listItemType>
      </ListStyle>
    </Style>
    <Region>
      <LatLonAltBox>
        <north>39.30029918615029</north>
        <south>39.29923647481817</south>
        <east>26.70639038085939</east>
        <west>26.70501708984374</west>
      </LatLonAltBox>
      <Lod>
        <minLodPixels>128</minLodPixels>
        <maxLodPixels>2048</maxLodPixels>
      </Lod>
    </Region>
    <GroundOverlay>
      <drawOrder>36</drawOrder>
      <Icon>
        <href>162239.png</href>
      </Icon>
      <LatLonBox>
        <north>39.30029918615029</north>
        <south>39.29923647481817</south>
        <east>26.70639038085939</east>
        <west>26.70501708984374</west>
      </LatLonBox>
    </GroundOverlay>

    <NetworkLink>
      <name>19/301036/324478.png</name>
      <Region>
        <LatLonAltBox>
          <north>39.29976783250089</north>
          <south>39.29923647481817</south>
          <east>26.70570373535158</east>
          <west>26.70501708984374</west>
        </LatLonAltBox>
        <Lod>
          <minLodPixels>128</minLodPixels>
          <maxLodPixels>-1</maxLodPixels>
        </Lod>
      </Region>
      <Link>
        <href>../../19/301036/324478.kml</href>
        <viewRefreshMode>onRegion</viewRefreshMode>
        <viewFormat/>
      </Link>
    </NetworkLink>
        
    <NetworkLink>
      <name>19/301037/324478.png</name>
      <Region>
        <LatLonAltBox>
          <north>39.29976783250089</north>
          <south>39.29923647481817</south>
          <east>26.70639038085939</east>
          <west>26.70570373535158</west>
        </LatLonAltBox>
        <Lod>
          <minLodPixels>128</minLodPixels>
          <maxLodPixels>-1</maxLodPixels>
        </Lod>
      </Region>
      <Link>
        <href>../../19/301037/324478.kml</href>
        <viewRefreshMode>onRegion</viewRefreshMode>
        <viewFormat/>
      </Link>
    </NetworkLink>
        
    <NetworkLink>
      <name>19/301036/324479.png</name>
      <Region>
        <LatLonAltBox>
          <north>39.30029918615029</north>
          <south>39.29976783250089</south>
          <east>26.70570373535158</east>
          <west>26.70501708984374</west>
        </LatLonAltBox>
        <Lod>
          <minLodPixels>128</minLodPixels>
          <maxLodPixels>-1</maxLodPixels>
        </Lod>
      </Region>
      <Link>
        <href>../../19/301036/324479.kml</href>
        <viewRefreshMode>onRegion</viewRefreshMode>
        <viewFormat/>
      </Link>
    </NetworkLink>
        
    <NetworkLink>
      <name>19/301037/324479.png</name>
      <Region>
        <LatLonAltBox>
          <north>39.30029918615029</north>
          <south>39.29976783250089</south>
          <east>26.70639038085939</east>
          <west>26.70570373535158</west>
        </LatLonAltBox>
        <Lod>
          <minLodPixels>128</minLodPixels>
          <maxLodPixels>-1</maxLodPixels>
        </Lod>
      </Region>
      <Link>
        <href>../../19/301037/324479.kml</href>
        <viewRefreshMode>onRegion</viewRefreshMode>
        <viewFormat/>
      </Link>
    </NetworkLink>
              </Document>
</kml>
    