<?xml version="1.0" encoding="utf-8"?>
<kml xmlns="http://www.opengis.net/kml/2.2">
  <Document>
    <name>18/150469/162300.kml</name>
    <description></description>
    <Style>
      <ListStyle id="hideChildren">
        <listItemType>checkHideChildren</listItemType>
      </ListStyle>
    </Style>
    <Region>
      <LatLonAltBox>
        <north>39.36509406503689</north>
        <south>39.36403233804798</south>
        <east>26.63909912109375</east>
        <west>26.63772583007813</west>
      </LatLonAltBox>
      <Lod>
        <minLodPixels>128</minLodPixels>
        <maxLodPixels>2048</maxLodPixels>
      </Lod>
    </Region>
    <GroundOverlay>
      <drawOrder>36</drawOrder>
      <Icon>
        <href>162300.png</href>
      </Icon>
      <LatLonBox>
        <north>39.36509406503689</north>
        <south>39.36403233804798</south>
        <east>26.63909912109375</east>
        <west>26.63772583007813</west>
      </LatLonBox>
    </GroundOverlay>

    <NetworkLink>
      <name>19/300938/324600.png</name>
      <Region>
        <LatLonAltBox>
          <north>39.36456320355997</north>
          <south>39.36403233804798</south>
          <east>26.63841247558594</east>
          <west>26.63772583007813</west>
        </LatLonAltBox>
        <Lod>
          <minLodPixels>128</minLodPixels>
          <maxLodPixels>-1</maxLodPixels>
        </Lod>
      </Region>
      <Link>
        <href>../../19/300938/324600.kml</href>
        <viewRefreshMode>onRegion</viewRefreshMode>
        <viewFormat/>
      </Link>
    </NetworkLink>
        
    <NetworkLink>
      <name>19/300939/324600.png</name>
      <Region>
        <LatLonAltBox>
          <north>39.36456320355997</north>
          <south>39.36403233804798</south>
          <east>26.63909912109375</east>
          <west>26.63841247558594</west>
        </LatLonAltBox>
        <Lod>
          <minLodPixels>128</minLodPixels>
          <maxLodPixels>-1</maxLodPixels>
        </Lod>
      </Region>
      <Link>
        <href>../../19/300939/324600.kml</href>
        <viewRefreshMode>onRegion</viewRefreshMode>
        <viewFormat/>
      </Link>
    </NetworkLink>
        
    <NetworkLink>
      <name>19/300938/324601.png</name>
      <Region>
        <LatLonAltBox>
          <north>39.36509406503689</north>
          <south>39.36456320355997</south>
          <east>26.63841247558594</east>
          <west>26.63772583007813</west>
        </LatLonAltBox>
        <Lod>
          <minLodPixels>128</minLodPixels>
          <maxLodPixels>-1</maxLodPixels>
        </Lod>
      </Region>
      <Link>
        <href>../../19/300938/324601.kml</href>
        <viewRefreshMode>onRegion</viewRefreshMode>
        <viewFormat/>
      </Link>
    </NetworkLink>
        
    <NetworkLink>
      <name>19/300939/324601.png</name>
      <Region>
        <LatLonAltBox>
          <north>39.36509406503689</north>
          <south>39.36456320355997</south>
          <east>26.63909912109375</east>
          <west>26.63841247558594</west>
        </LatLonAltBox>
        <Lod>
          <minLodPixels>128</minLodPixels>
          <maxLodPixels>-1</maxLodPixels>
        </Lod>
      </Region>
      <Link>
        <href>../../19/300939/324601.kml</href>
        <viewRefreshMode>onRegion</viewRefreshMode>
        <viewFormat/>
      </Link>
    </NetworkLink>
              </Document>
</kml>
    