<?xml version="1.0" encoding="utf-8"?>
<kml xmlns="http://www.opengis.net/kml/2.2">
  <Document>
    <name>17/75226/81145.kml</name>
    <description></description>
    <Style>
      <ListStyle id="hideChildren">
        <listItemType>checkHideChildren</listItemType>
      </ListStyle>
    </Style>
    <Region>
      <LatLonAltBox>
        <north>39.35553794109382</north>
        <south>39.35341418045878</south>
        <east>26.61712646484374</east>
        <west>26.61437988281249</west>
      </LatLonAltBox>
      <Lod>
        <minLodPixels>128</minLodPixels>
        <maxLodPixels>2048</maxLodPixels>
      </Lod>
    </Region>
    <GroundOverlay>
      <drawOrder>34</drawOrder>
      <Icon>
        <href>81145.png</href>
      </Icon>
      <LatLonBox>
        <north>39.35553794109382</north>
        <south>39.35341418045878</south>
        <east>26.61712646484374</east>
        <west>26.61437988281249</west>
      </LatLonBox>
    </GroundOverlay>

    <NetworkLink>
      <name>18/150452/162290.png</name>
      <Region>
        <LatLonAltBox>
          <north>39.35447606884596</north>
          <south>39.35341418045878</south>
          <east>26.61575317382811</east>
          <west>26.61437988281249</west>
        </LatLonAltBox>
        <Lod>
          <minLodPixels>128</minLodPixels>
          <maxLodPixels>-1</maxLodPixels>
        </Lod>
      </Region>
      <Link>
        <href>../../18/150452/162290.kml</href>
        <viewRefreshMode>onRegion</viewRefreshMode>
        <viewFormat/>
      </Link>
    </NetworkLink>
        
    <NetworkLink>
      <name>18/150453/162290.png</name>
      <Region>
        <LatLonAltBox>
          <north>39.35447606884596</north>
          <south>39.35341418045878</south>
          <east>26.61712646484374</east>
          <west>26.61575317382811</west>
        </LatLonAltBox>
        <Lod>
          <minLodPixels>128</minLodPixels>
          <maxLodPixels>-1</maxLodPixels>
        </Lod>
      </Region>
      <Link>
        <href>../../18/150453/162290.kml</href>
        <viewRefreshMode>onRegion</viewRefreshMode>
        <viewFormat/>
      </Link>
    </NetworkLink>
        
    <NetworkLink>
      <name>18/150452/162291.png</name>
      <Region>
        <LatLonAltBox>
          <north>39.35553794109382</north>
          <south>39.35447606884596</south>
          <east>26.61575317382811</east>
          <west>26.61437988281249</west>
        </LatLonAltBox>
        <Lod>
          <minLodPixels>128</minLodPixels>
          <maxLodPixels>-1</maxLodPixels>
        </Lod>
      </Region>
      <Link>
        <href>../../18/150452/162291.kml</href>
        <viewRefreshMode>onRegion</viewRefreshMode>
        <viewFormat/>
      </Link>
    </NetworkLink>
        
    <NetworkLink>
      <name>18/150453/162291.png</name>
      <Region>
        <LatLonAltBox>
          <north>39.35553794109382</north>
          <south>39.35447606884596</south>
          <east>26.61712646484374</east>
          <west>26.61575317382811</west>
        </LatLonAltBox>
        <Lod>
          <minLodPixels>128</minLodPixels>
          <maxLodPixels>-1</maxLodPixels>
        </Lod>
      </Region>
      <Link>
        <href>../../18/150453/162291.kml</href>
        <viewRefreshMode>onRegion</viewRefreshMode>
        <viewFormat/>
      </Link>
    </NetworkLink>
              </Document>
</kml>
    