<?xml version="1.0" encoding="utf-8"?>
<kml xmlns="http://www.opengis.net/kml/2.2">
  <Document>
    <name>19/301048/324581.kml</name>
    <description></description>
    <Style>
      <ListStyle id="hideChildren">
        <listItemType>checkHideChildren</listItemType>
      </ListStyle>
    </Style>
    <Region>
      <LatLonAltBox>
        <north>39.35447606884596</north>
        <south>39.35394512666976</south>
        <east>26.71394348144532</east>
        <west>26.71325683593751</west>
      </LatLonAltBox>
      <Lod>
        <minLodPixels>128</minLodPixels>
        <maxLodPixels>-1</maxLodPixels>
      </Lod>
    </Region>
    <GroundOverlay>
      <drawOrder>38</drawOrder>
      <Icon>
        <href>324581.png</href>
      </Icon>
      <LatLonBox>
        <north>39.35447606884596</north>
        <south>39.35394512666976</south>
        <east>26.71394348144532</east>
        <west>26.71325683593751</west>
      </LatLonBox>
    </GroundOverlay>
      </Document>
</kml>
    