<?xml version="1.0" encoding="utf-8"?>
<kml xmlns="http://www.opengis.net/kml/2.2">
  <Document>
    <name>16/37624/40573.kml</name>
    <description></description>
    <Style>
      <ListStyle id="hideChildren">
        <listItemType>checkHideChildren</listItemType>
      </ListStyle>
    </Style>
    <Region>
      <LatLonAltBox>
        <north>39.35978526869001</north>
        <south>39.35553794109382</south>
        <east>26.68029785156250</east>
        <west>26.67480468750000</west>
      </LatLonAltBox>
      <Lod>
        <minLodPixels>128</minLodPixels>
        <maxLodPixels>2048</maxLodPixels>
      </Lod>
    </Region>
    <GroundOverlay>
      <drawOrder>32</drawOrder>
      <Icon>
        <href>40573.png</href>
      </Icon>
      <LatLonBox>
        <north>39.35978526869001</north>
        <south>39.35553794109382</south>
        <east>26.68029785156250</east>
        <west>26.67480468750000</west>
      </LatLonBox>
    </GroundOverlay>

    <NetworkLink>
      <name>17/75248/81146.png</name>
      <Region>
        <LatLonAltBox>
          <north>39.35766163717121</north>
          <south>39.35553794109382</south>
          <east>26.67755126953125</east>
          <west>26.67480468750000</west>
        </LatLonAltBox>
        <Lod>
          <minLodPixels>128</minLodPixels>
          <maxLodPixels>-1</maxLodPixels>
        </Lod>
      </Region>
      <Link>
        <href>../../17/75248/81146.kml</href>
        <viewRefreshMode>onRegion</viewRefreshMode>
        <viewFormat/>
      </Link>
    </NetworkLink>
        
    <NetworkLink>
      <name>17/75249/81146.png</name>
      <Region>
        <LatLonAltBox>
          <north>39.35766163717121</north>
          <south>39.35553794109382</south>
          <east>26.68029785156250</east>
          <west>26.67755126953125</west>
        </LatLonAltBox>
        <Lod>
          <minLodPixels>128</minLodPixels>
          <maxLodPixels>-1</maxLodPixels>
        </Lod>
      </Region>
      <Link>
        <href>../../17/75249/81146.kml</href>
        <viewRefreshMode>onRegion</viewRefreshMode>
        <viewFormat/>
      </Link>
    </NetworkLink>
        
    <NetworkLink>
      <name>17/75248/81147.png</name>
      <Region>
        <LatLonAltBox>
          <north>39.35978526869001</north>
          <south>39.35766163717121</south>
          <east>26.67755126953125</east>
          <west>26.67480468750000</west>
        </LatLonAltBox>
        <Lod>
          <minLodPixels>128</minLodPixels>
          <maxLodPixels>-1</maxLodPixels>
        </Lod>
      </Region>
      <Link>
        <href>../../17/75248/81147.kml</href>
        <viewRefreshMode>onRegion</viewRefreshMode>
        <viewFormat/>
      </Link>
    </NetworkLink>
        
    <NetworkLink>
      <name>17/75249/81147.png</name>
      <Region>
        <LatLonAltBox>
          <north>39.35978526869001</north>
          <south>39.35766163717121</south>
          <east>26.68029785156250</east>
          <west>26.67755126953125</west>
        </LatLonAltBox>
        <Lod>
          <minLodPixels>128</minLodPixels>
          <maxLodPixels>-1</maxLodPixels>
        </Lod>
      </Region>
      <Link>
        <href>../../17/75249/81147.kml</href>
        <viewRefreshMode>onRegion</viewRefreshMode>
        <viewFormat/>
      </Link>
    </NetworkLink>
              </Document>
</kml>
    