<?xml version="1.0" encoding="utf-8"?>
<kml xmlns="http://www.opengis.net/kml/2.2">
  <Document>
    <name>19/300968/324472.kml</name>
    <description></description>
    <Style>
      <ListStyle id="hideChildren">
        <listItemType>checkHideChildren</listItemType>
      </ListStyle>
    </Style>
    <Region>
      <LatLonAltBox>
        <north>39.29657962590612</north>
        <south>39.29604824402409</south>
        <east>26.65901184082030</east>
        <west>26.65832519531249</west>
      </LatLonAltBox>
      <Lod>
        <minLodPixels>128</minLodPixels>
        <maxLodPixels>-1</maxLodPixels>
      </Lod>
    </Region>
    <GroundOverlay>
      <drawOrder>38</drawOrder>
      <Icon>
        <href>324472.png</href>
      </Icon>
      <LatLonBox>
        <north>39.29657962590612</north>
        <south>39.29604824402409</south>
        <east>26.65901184082030</east>
        <west>26.65832519531249</west>
      </LatLonBox>
    </GroundOverlay>
      </Document>
</kml>
    