<?xml version="1.0" encoding="utf-8"?>
<kml xmlns="http://www.opengis.net/kml/2.2">
  <Document>
    <name>18/150501/162297.kml</name>
    <description></description>
    <Style>
      <ListStyle id="hideChildren">
        <listItemType>checkHideChildren</listItemType>
      </ListStyle>
    </Style>
    <Region>
      <LatLonAltBox>
        <north>39.36190883564925</north>
        <south>39.36084706023964</south>
        <east>26.68304443359375</east>
        <west>26.68167114257812</west>
      </LatLonAltBox>
      <Lod>
        <minLodPixels>128</minLodPixels>
        <maxLodPixels>2048</maxLodPixels>
      </Lod>
    </Region>
    <GroundOverlay>
      <drawOrder>36</drawOrder>
      <Icon>
        <href>162297.png</href>
      </Icon>
      <LatLonBox>
        <north>39.36190883564925</north>
        <south>39.36084706023964</south>
        <east>26.68304443359375</east>
        <west>26.68167114257812</west>
      </LatLonBox>
    </GroundOverlay>

    <NetworkLink>
      <name>19/301002/324594.png</name>
      <Region>
        <LatLonAltBox>
          <north>39.36137794996196</north>
          <south>39.36084706023964</south>
          <east>26.68235778808594</east>
          <west>26.68167114257812</west>
        </LatLonAltBox>
        <Lod>
          <minLodPixels>128</minLodPixels>
          <maxLodPixels>-1</maxLodPixels>
        </Lod>
      </Region>
      <Link>
        <href>../../19/301002/324594.kml</href>
        <viewRefreshMode>onRegion</viewRefreshMode>
        <viewFormat/>
      </Link>
    </NetworkLink>
        
    <NetworkLink>
      <name>19/301003/324594.png</name>
      <Region>
        <LatLonAltBox>
          <north>39.36137794996196</north>
          <south>39.36084706023964</south>
          <east>26.68304443359375</east>
          <west>26.68235778808594</west>
        </LatLonAltBox>
        <Lod>
          <minLodPixels>128</minLodPixels>
          <maxLodPixels>-1</maxLodPixels>
        </Lod>
      </Region>
      <Link>
        <href>../../19/301003/324594.kml</href>
        <viewRefreshMode>onRegion</viewRefreshMode>
        <viewFormat/>
      </Link>
    </NetworkLink>
        
    <NetworkLink>
      <name>19/301002/324595.png</name>
      <Region>
        <LatLonAltBox>
          <north>39.36190883564925</north>
          <south>39.36137794996196</south>
          <east>26.68235778808594</east>
          <west>26.68167114257812</west>
        </LatLonAltBox>
        <Lod>
          <minLodPixels>128</minLodPixels>
          <maxLodPixels>-1</maxLodPixels>
        </Lod>
      </Region>
      <Link>
        <href>../../19/301002/324595.kml</href>
        <viewRefreshMode>onRegion</viewRefreshMode>
        <viewFormat/>
      </Link>
    </NetworkLink>
        
    <NetworkLink>
      <name>19/301003/324595.png</name>
      <Region>
        <LatLonAltBox>
          <north>39.36190883564925</north>
          <south>39.36137794996196</south>
          <east>26.68304443359375</east>
          <west>26.68235778808594</west>
        </LatLonAltBox>
        <Lod>
          <minLodPixels>128</minLodPixels>
          <maxLodPixels>-1</maxLodPixels>
        </Lod>
      </Region>
      <Link>
        <href>../../19/301003/324595.kml</href>
        <viewRefreshMode>onRegion</viewRefreshMode>
        <viewFormat/>
      </Link>
    </NetworkLink>
              </Document>
</kml>
    