<?xml version="1.0" encoding="utf-8"?>
<kml xmlns="http://www.opengis.net/kml/2.2">
  <Document>
    <name>19/301064/324623.kml</name>
    <description></description>
    <Style>
      <ListStyle id="hideChildren">
        <listItemType>checkHideChildren</listItemType>
      </ListStyle>
    </Style>
    <Region>
      <LatLonAltBox>
        <north>39.37677199661635</north>
        <south>39.37624122391557</south>
        <east>26.72492980957031</east>
        <west>26.72424316406250</west>
      </LatLonAltBox>
      <Lod>
        <minLodPixels>128</minLodPixels>
        <maxLodPixels>-1</maxLodPixels>
      </Lod>
    </Region>
    <GroundOverlay>
      <drawOrder>38</drawOrder>
      <Icon>
        <href>324623.png</href>
      </Icon>
      <LatLonBox>
        <north>39.37677199661635</north>
        <south>39.37624122391557</south>
        <east>26.72492980957031</east>
        <west>26.72424316406250</west>
      </LatLonBox>
    </GroundOverlay>
      </Document>
</kml>
    