<?xml version="1.0" encoding="utf-8"?>
<kml xmlns="http://www.opengis.net/kml/2.2">
  <Document>
    <name>18/150519/162312.kml</name>
    <description></description>
    <Style>
      <ListStyle id="hideChildren">
        <listItemType>checkHideChildren</listItemType>
      </ListStyle>
    </Style>
    <Region>
      <LatLonAltBox>
        <north>39.37783352991156</north>
        <south>39.37677199661635</south>
        <east>26.70776367187501</east>
        <west>26.70639038085939</west>
      </LatLonAltBox>
      <Lod>
        <minLodPixels>128</minLodPixels>
        <maxLodPixels>2048</maxLodPixels>
      </Lod>
    </Region>
    <GroundOverlay>
      <drawOrder>36</drawOrder>
      <Icon>
        <href>162312.png</href>
      </Icon>
      <LatLonBox>
        <north>39.37783352991156</north>
        <south>39.37677199661635</south>
        <east>26.70776367187501</east>
        <west>26.70639038085939</west>
      </LatLonBox>
    </GroundOverlay>

    <NetworkLink>
      <name>19/301038/324624.png</name>
      <Region>
        <LatLonAltBox>
          <north>39.37730276528170</north>
          <south>39.37677199661635</south>
          <east>26.70707702636720</east>
          <west>26.70639038085939</west>
        </LatLonAltBox>
        <Lod>
          <minLodPixels>128</minLodPixels>
          <maxLodPixels>-1</maxLodPixels>
        </Lod>
      </Region>
      <Link>
        <href>../../19/301038/324624.kml</href>
        <viewRefreshMode>onRegion</viewRefreshMode>
        <viewFormat/>
      </Link>
    </NetworkLink>
        
    <NetworkLink>
      <name>19/301039/324624.png</name>
      <Region>
        <LatLonAltBox>
          <north>39.37730276528170</north>
          <south>39.37677199661635</south>
          <east>26.70776367187501</east>
          <west>26.70707702636720</west>
        </LatLonAltBox>
        <Lod>
          <minLodPixels>128</minLodPixels>
          <maxLodPixels>-1</maxLodPixels>
        </Lod>
      </Region>
      <Link>
        <href>../../19/301039/324624.kml</href>
        <viewRefreshMode>onRegion</viewRefreshMode>
        <viewFormat/>
      </Link>
    </NetworkLink>
        
    <NetworkLink>
      <name>19/301038/324625.png</name>
      <Region>
        <LatLonAltBox>
          <north>39.37783352991156</north>
          <south>39.37730276528170</south>
          <east>26.70707702636720</east>
          <west>26.70639038085939</west>
        </LatLonAltBox>
        <Lod>
          <minLodPixels>128</minLodPixels>
          <maxLodPixels>-1</maxLodPixels>
        </Lod>
      </Region>
      <Link>
        <href>../../19/301038/324625.kml</href>
        <viewRefreshMode>onRegion</viewRefreshMode>
        <viewFormat/>
      </Link>
    </NetworkLink>
        
    <NetworkLink>
      <name>19/301039/324625.png</name>
      <Region>
        <LatLonAltBox>
          <north>39.37783352991156</north>
          <south>39.37730276528170</south>
          <east>26.70776367187501</east>
          <west>26.70707702636720</west>
        </LatLonAltBox>
        <Lod>
          <minLodPixels>128</minLodPixels>
          <maxLodPixels>-1</maxLodPixels>
        </Lod>
      </Region>
      <Link>
        <href>../../19/301039/324625.kml</href>
        <viewRefreshMode>onRegion</viewRefreshMode>
        <viewFormat/>
      </Link>
    </NetworkLink>
              </Document>
</kml>
    