<?xml version="1.0" encoding="utf-8"?>
<kml xmlns="http://www.opengis.net/kml/2.2">
  <Document>
    <name>19/300905/324470.kml</name>
    <description></description>
    <Style>
      <ListStyle id="hideChildren">
        <listItemType>checkHideChildren</listItemType>
      </ListStyle>
    </Style>
    <Region>
      <LatLonAltBox>
        <north>39.29551685810888</north>
        <south>39.29498546816051</south>
        <east>26.61575317382811</east>
        <west>26.61506652832030</west>
      </LatLonAltBox>
      <Lod>
        <minLodPixels>128</minLodPixels>
        <maxLodPixels>-1</maxLodPixels>
      </Lod>
    </Region>
    <GroundOverlay>
      <drawOrder>38</drawOrder>
      <Icon>
        <href>324470.png</href>
      </Icon>
      <LatLonBox>
        <north>39.29551685810888</north>
        <south>39.29498546816051</south>
        <east>26.61575317382811</east>
        <west>26.61506652832030</west>
      </LatLonBox>
    </GroundOverlay>
      </Document>
</kml>
    