<?xml version="1.0" encoding="utf-8"?>
<kml xmlns="http://www.opengis.net/kml/2.2">
  <Document>
    <name>19/300954/324476.kml</name>
    <description></description>
    <Style>
      <ListStyle id="hideChildren">
        <listItemType>checkHideChildren</listItemType>
      </ListStyle>
    </Style>
    <Region>
      <LatLonAltBox>
        <north>39.29870511310224</north>
        <south>39.29817374735305</south>
        <east>26.64939880371093</east>
        <west>26.64871215820312</west>
      </LatLonAltBox>
      <Lod>
        <minLodPixels>128</minLodPixels>
        <maxLodPixels>-1</maxLodPixels>
      </Lod>
    </Region>
    <GroundOverlay>
      <drawOrder>38</drawOrder>
      <Icon>
        <href>324476.png</href>
      </Icon>
      <LatLonBox>
        <north>39.29870511310224</north>
        <south>39.29817374735305</south>
        <east>26.64939880371093</east>
        <west>26.64871215820312</west>
      </LatLonBox>
    </GroundOverlay>
      </Document>
</kml>
    