<?xml version="1.0" encoding="utf-8"?>
<kml xmlns="http://www.opengis.net/kml/2.2">
  <Document>
    <name>17/75239/81146.kml</name>
    <description></description>
    <Style>
      <ListStyle id="hideChildren">
        <listItemType>checkHideChildren</listItemType>
      </ListStyle>
    </Style>
    <Region>
      <LatLonAltBox>
        <north>39.35766163717121</north>
        <south>39.35553794109382</south>
        <east>26.65283203124999</east>
        <west>26.65008544921875</west>
      </LatLonAltBox>
      <Lod>
        <minLodPixels>128</minLodPixels>
        <maxLodPixels>2048</maxLodPixels>
      </Lod>
    </Region>
    <GroundOverlay>
      <drawOrder>34</drawOrder>
      <Icon>
        <href>81146.png</href>
      </Icon>
      <LatLonBox>
        <north>39.35766163717121</north>
        <south>39.35553794109382</south>
        <east>26.65283203124999</east>
        <west>26.65008544921875</west>
      </LatLonBox>
    </GroundOverlay>

    <NetworkLink>
      <name>18/150478/162292.png</name>
      <Region>
        <LatLonAltBox>
          <north>39.35659979720230</north>
          <south>39.35553794109382</south>
          <east>26.65145874023436</east>
          <west>26.65008544921875</west>
        </LatLonAltBox>
        <Lod>
          <minLodPixels>128</minLodPixels>
          <maxLodPixels>-1</maxLodPixels>
        </Lod>
      </Region>
      <Link>
        <href>../../18/150478/162292.kml</href>
        <viewRefreshMode>onRegion</viewRefreshMode>
        <viewFormat/>
      </Link>
    </NetworkLink>
        
    <NetworkLink>
      <name>18/150479/162292.png</name>
      <Region>
        <LatLonAltBox>
          <north>39.35659979720230</north>
          <south>39.35553794109382</south>
          <east>26.65283203124999</east>
          <west>26.65145874023436</west>
        </LatLonAltBox>
        <Lod>
          <minLodPixels>128</minLodPixels>
          <maxLodPixels>-1</maxLodPixels>
        </Lod>
      </Region>
      <Link>
        <href>../../18/150479/162292.kml</href>
        <viewRefreshMode>onRegion</viewRefreshMode>
        <viewFormat/>
      </Link>
    </NetworkLink>
        
    <NetworkLink>
      <name>18/150478/162293.png</name>
      <Region>
        <LatLonAltBox>
          <north>39.35766163717121</north>
          <south>39.35659979720230</south>
          <east>26.65145874023436</east>
          <west>26.65008544921875</west>
        </LatLonAltBox>
        <Lod>
          <minLodPixels>128</minLodPixels>
          <maxLodPixels>-1</maxLodPixels>
        </Lod>
      </Region>
      <Link>
        <href>../../18/150478/162293.kml</href>
        <viewRefreshMode>onRegion</viewRefreshMode>
        <viewFormat/>
      </Link>
    </NetworkLink>
        
    <NetworkLink>
      <name>18/150479/162293.png</name>
      <Region>
        <LatLonAltBox>
          <north>39.35766163717121</north>
          <south>39.35659979720230</south>
          <east>26.65283203124999</east>
          <west>26.65145874023436</west>
        </LatLonAltBox>
        <Lod>
          <minLodPixels>128</minLodPixels>
          <maxLodPixels>-1</maxLodPixels>
        </Lod>
      </Region>
      <Link>
        <href>../../18/150479/162293.kml</href>
        <viewRefreshMode>onRegion</viewRefreshMode>
        <viewFormat/>
      </Link>
    </NetworkLink>
              </Document>
</kml>
    