<?xml version="1.0" encoding="utf-8"?>
<kml xmlns="http://www.opengis.net/kml/2.2">
  <Document>
    <name>17/75252/81149.kml</name>
    <description></description>
    <Style>
      <ListStyle id="hideChildren">
        <listItemType>checkHideChildren</listItemType>
      </ListStyle>
    </Style>
    <Region>
      <LatLonAltBox>
        <north>39.36403233804798</north>
        <south>39.36190883564925</south>
        <east>26.68853759765625</east>
        <west>26.68579101562500</west>
      </LatLonAltBox>
      <Lod>
        <minLodPixels>128</minLodPixels>
        <maxLodPixels>2048</maxLodPixels>
      </Lod>
    </Region>
    <GroundOverlay>
      <drawOrder>34</drawOrder>
      <Icon>
        <href>81149.png</href>
      </Icon>
      <LatLonBox>
        <north>39.36403233804798</north>
        <south>39.36190883564925</south>
        <east>26.68853759765625</east>
        <west>26.68579101562500</west>
      </LatLonBox>
    </GroundOverlay>

    <NetworkLink>
      <name>18/150504/162298.png</name>
      <Region>
        <LatLonAltBox>
          <north>39.36297059491874</north>
          <south>39.36190883564925</south>
          <east>26.68716430664062</east>
          <west>26.68579101562500</west>
        </LatLonAltBox>
        <Lod>
          <minLodPixels>128</minLodPixels>
          <maxLodPixels>-1</maxLodPixels>
        </Lod>
      </Region>
      <Link>
        <href>../../18/150504/162298.kml</href>
        <viewRefreshMode>onRegion</viewRefreshMode>
        <viewFormat/>
      </Link>
    </NetworkLink>
        
    <NetworkLink>
      <name>18/150505/162298.png</name>
      <Region>
        <LatLonAltBox>
          <north>39.36297059491874</north>
          <south>39.36190883564925</south>
          <east>26.68853759765625</east>
          <west>26.68716430664062</west>
        </LatLonAltBox>
        <Lod>
          <minLodPixels>128</minLodPixels>
          <maxLodPixels>-1</maxLodPixels>
        </Lod>
      </Region>
      <Link>
        <href>../../18/150505/162298.kml</href>
        <viewRefreshMode>onRegion</viewRefreshMode>
        <viewFormat/>
      </Link>
    </NetworkLink>
        
    <NetworkLink>
      <name>18/150504/162299.png</name>
      <Region>
        <LatLonAltBox>
          <north>39.36403233804798</north>
          <south>39.36297059491874</south>
          <east>26.68716430664062</east>
          <west>26.68579101562500</west>
        </LatLonAltBox>
        <Lod>
          <minLodPixels>128</minLodPixels>
          <maxLodPixels>-1</maxLodPixels>
        </Lod>
      </Region>
      <Link>
        <href>../../18/150504/162299.kml</href>
        <viewRefreshMode>onRegion</viewRefreshMode>
        <viewFormat/>
      </Link>
    </NetworkLink>
        
    <NetworkLink>
      <name>18/150505/162299.png</name>
      <Region>
        <LatLonAltBox>
          <north>39.36403233804798</north>
          <south>39.36297059491874</south>
          <east>26.68853759765625</east>
          <west>26.68716430664062</west>
        </LatLonAltBox>
        <Lod>
          <minLodPixels>128</minLodPixels>
          <maxLodPixels>-1</maxLodPixels>
        </Lod>
      </Region>
      <Link>
        <href>../../18/150505/162299.kml</href>
        <viewRefreshMode>onRegion</viewRefreshMode>
        <viewFormat/>
      </Link>
    </NetworkLink>
              </Document>
</kml>
    