<?xml version="1.0" encoding="utf-8"?>
<kml xmlns="http://www.opengis.net/kml/2.2">
  <Document>
    <name>18/150487/162257.kml</name>
    <description></description>
    <Style>
      <ListStyle id="hideChildren">
        <listItemType>checkHideChildren</listItemType>
      </ListStyle>
    </Style>
    <Region>
      <LatLonAltBox>
        <north>39.31942523123952</north>
        <south>39.31836281032287</south>
        <east>26.66381835937501</east>
        <west>26.66244506835936</west>
      </LatLonAltBox>
      <Lod>
        <minLodPixels>128</minLodPixels>
        <maxLodPixels>2048</maxLodPixels>
      </Lod>
    </Region>
    <GroundOverlay>
      <drawOrder>36</drawOrder>
      <Icon>
        <href>162257.png</href>
      </Icon>
      <LatLonBox>
        <north>39.31942523123952</north>
        <south>39.31836281032287</south>
        <east>26.66381835937501</east>
        <west>26.66244506835936</west>
      </LatLonBox>
    </GroundOverlay>

    <NetworkLink>
      <name>19/300974/324514.png</name>
      <Region>
        <LatLonAltBox>
          <north>39.31889402279811</north>
          <south>39.31836281032287</south>
          <east>26.66313171386720</east>
          <west>26.66244506835936</west>
        </LatLonAltBox>
        <Lod>
          <minLodPixels>128</minLodPixels>
          <maxLodPixels>-1</maxLodPixels>
        </Lod>
      </Region>
      <Link>
        <href>../../19/300974/324514.kml</href>
        <viewRefreshMode>onRegion</viewRefreshMode>
        <viewFormat/>
      </Link>
    </NetworkLink>
        
    <NetworkLink>
      <name>19/300975/324514.png</name>
      <Region>
        <LatLonAltBox>
          <north>39.31889402279811</north>
          <south>39.31836281032287</south>
          <east>26.66381835937501</east>
          <west>26.66313171386720</west>
        </LatLonAltBox>
        <Lod>
          <minLodPixels>128</minLodPixels>
          <maxLodPixels>-1</maxLodPixels>
        </Lod>
      </Region>
      <Link>
        <href>../../19/300975/324514.kml</href>
        <viewRefreshMode>onRegion</viewRefreshMode>
        <viewFormat/>
      </Link>
    </NetworkLink>
        
    <NetworkLink>
      <name>19/300974/324515.png</name>
      <Region>
        <LatLonAltBox>
          <north>39.31942523123952</north>
          <south>39.31889402279811</south>
          <east>26.66313171386720</east>
          <west>26.66244506835936</west>
        </LatLonAltBox>
        <Lod>
          <minLodPixels>128</minLodPixels>
          <maxLodPixels>-1</maxLodPixels>
        </Lod>
      </Region>
      <Link>
        <href>../../19/300974/324515.kml</href>
        <viewRefreshMode>onRegion</viewRefreshMode>
        <viewFormat/>
      </Link>
    </NetworkLink>
        
    <NetworkLink>
      <name>19/300975/324515.png</name>
      <Region>
        <LatLonAltBox>
          <north>39.31942523123952</north>
          <south>39.31889402279811</south>
          <east>26.66381835937501</east>
          <west>26.66313171386720</west>
        </LatLonAltBox>
        <Lod>
          <minLodPixels>128</minLodPixels>
          <maxLodPixels>-1</maxLodPixels>
        </Lod>
      </Region>
      <Link>
        <href>../../19/300975/324515.kml</href>
        <viewRefreshMode>onRegion</viewRefreshMode>
        <viewFormat/>
      </Link>
    </NetworkLink>
              </Document>
</kml>
    