<?xml version="1.0" encoding="utf-8"?>
<kml xmlns="http://www.opengis.net/kml/2.2">
  <Document>
    <name>19/301050/324517.kml</name>
    <description></description>
    <Style>
      <ListStyle id="hideChildren">
        <listItemType>checkHideChildren</listItemType>
      </ListStyle>
    </Style>
    <Region>
      <LatLonAltBox>
        <north>39.32048763602080</north>
        <south>39.31995643564706</south>
        <east>26.71531677246095</east>
        <west>26.71463012695314</west>
      </LatLonAltBox>
      <Lod>
        <minLodPixels>128</minLodPixels>
        <maxLodPixels>-1</maxLodPixels>
      </Lod>
    </Region>
    <GroundOverlay>
      <drawOrder>38</drawOrder>
      <Icon>
        <href>324517.png</href>
      </Icon>
      <LatLonBox>
        <north>39.32048763602080</north>
        <south>39.31995643564706</south>
        <east>26.71531677246095</east>
        <west>26.71463012695314</west>
      </LatLonBox>
    </GroundOverlay>
      </Document>
</kml>
    