<?xml version="1.0" encoding="utf-8"?>
<kml xmlns="http://www.opengis.net/kml/2.2">
  <Document>
    <name>14/9407/10142.kml</name>
    <description></description>
    <Style>
      <ListStyle id="hideChildren">
        <listItemType>checkHideChildren</listItemType>
      </ListStyle>
    </Style>
    <Region>
      <LatLonAltBox>
        <north>39.35129035526705</north>
        <south>39.33429742980725</south>
        <east>26.71875000000000</east>
        <west>26.69677734374999</west>
      </LatLonAltBox>
      <Lod>
        <minLodPixels>128</minLodPixels>
        <maxLodPixels>2048</maxLodPixels>
      </Lod>
    </Region>
    <GroundOverlay>
      <drawOrder>28</drawOrder>
      <Icon>
        <href>10142.png</href>
      </Icon>
      <LatLonBox>
        <north>39.35129035526705</north>
        <south>39.33429742980725</south>
        <east>26.71875000000000</east>
        <west>26.69677734374999</west>
      </LatLonBox>
    </GroundOverlay>

    <NetworkLink>
      <name>15/18814/20284.png</name>
      <Region>
        <LatLonAltBox>
          <north>39.34279440895236</north>
          <south>39.33429742980725</south>
          <east>26.70776367187501</east>
          <west>26.69677734374999</west>
        </LatLonAltBox>
        <Lod>
          <minLodPixels>128</minLodPixels>
          <maxLodPixels>-1</maxLodPixels>
        </Lod>
      </Region>
      <Link>
        <href>../../15/18814/20284.kml</href>
        <viewRefreshMode>onRegion</viewRefreshMode>
        <viewFormat/>
      </Link>
    </NetworkLink>
        
    <NetworkLink>
      <name>15/18815/20284.png</name>
      <Region>
        <LatLonAltBox>
          <north>39.34279440895236</north>
          <south>39.33429742980725</south>
          <east>26.71875000000000</east>
          <west>26.70776367187501</west>
        </LatLonAltBox>
        <Lod>
          <minLodPixels>128</minLodPixels>
          <maxLodPixels>-1</maxLodPixels>
        </Lod>
      </Region>
      <Link>
        <href>../../15/18815/20284.kml</href>
        <viewRefreshMode>onRegion</viewRefreshMode>
        <viewFormat/>
      </Link>
    </NetworkLink>
        
    <NetworkLink>
      <name>15/18814/20285.png</name>
      <Region>
        <LatLonAltBox>
          <north>39.35129035526705</north>
          <south>39.34279440895236</south>
          <east>26.70776367187501</east>
          <west>26.69677734374999</west>
        </LatLonAltBox>
        <Lod>
          <minLodPixels>128</minLodPixels>
          <maxLodPixels>-1</maxLodPixels>
        </Lod>
      </Region>
      <Link>
        <href>../../15/18814/20285.kml</href>
        <viewRefreshMode>onRegion</viewRefreshMode>
        <viewFormat/>
      </Link>
    </NetworkLink>
        
    <NetworkLink>
      <name>15/18815/20285.png</name>
      <Region>
        <LatLonAltBox>
          <north>39.35129035526705</north>
          <south>39.34279440895236</south>
          <east>26.71875000000000</east>
          <west>26.70776367187501</west>
        </LatLonAltBox>
        <Lod>
          <minLodPixels>128</minLodPixels>
          <maxLodPixels>-1</maxLodPixels>
        </Lod>
      </Region>
      <Link>
        <href>../../15/18815/20285.kml</href>
        <viewRefreshMode>onRegion</viewRefreshMode>
        <viewFormat/>
      </Link>
    </NetworkLink>
              </Document>
</kml>
    