<?xml version="1.0" encoding="utf-8"?>
<kml xmlns="http://www.opengis.net/kml/2.2">
  <Document>
    <name>19/300966/324486.kml</name>
    <description></description>
    <Style>
      <ListStyle id="hideChildren">
        <listItemType>checkHideChildren</listItemType>
      </ListStyle>
    </Style>
    <Region>
      <LatLonAltBox>
        <north>39.30401854876314</north>
        <south>39.30348722334712</south>
        <east>26.65763854980467</east>
        <west>26.65695190429686</west>
      </LatLonAltBox>
      <Lod>
        <minLodPixels>128</minLodPixels>
        <maxLodPixels>-1</maxLodPixels>
      </Lod>
    </Region>
    <GroundOverlay>
      <drawOrder>38</drawOrder>
      <Icon>
        <href>324486.png</href>
      </Icon>
      <LatLonBox>
        <north>39.30401854876314</north>
        <south>39.30348722334712</south>
        <east>26.65763854980467</east>
        <west>26.65695190429686</west>
      </LatLonBox>
    </GroundOverlay>
      </Document>
</kml>
    