<?xml version="1.0" encoding="utf-8"?>
<kml xmlns="http://www.opengis.net/kml/2.2">
  <Document>
    <name>19/300980/324545.kml</name>
    <description></description>
    <Style>
      <ListStyle id="hideChildren">
        <listItemType>checkHideChildren</listItemType>
      </ListStyle>
    </Style>
    <Region>
      <LatLonAltBox>
        <north>39.33535960868119</north>
        <south>39.33482852126136</south>
        <east>26.66725158691408</east>
        <west>26.66656494140626</west>
      </LatLonAltBox>
      <Lod>
        <minLodPixels>128</minLodPixels>
        <maxLodPixels>-1</maxLodPixels>
      </Lod>
    </Region>
    <GroundOverlay>
      <drawOrder>38</drawOrder>
      <Icon>
        <href>324545.png</href>
      </Icon>
      <LatLonBox>
        <north>39.33535960868119</north>
        <south>39.33482852126136</south>
        <east>26.66725158691408</east>
        <west>26.66656494140626</west>
      </LatLonBox>
    </GroundOverlay>
      </Document>
</kml>
    