<?xml version="1.0" encoding="utf-8"?>
<kml xmlns="http://www.opengis.net/kml/2.2">
  <Document>
    <name>18/150475/162240.kml</name>
    <description></description>
    <Style>
      <ListStyle id="hideChildren">
        <listItemType>checkHideChildren</listItemType>
      </ListStyle>
    </Style>
    <Region>
      <LatLonAltBox>
        <north>39.30136188134922</north>
        <south>39.30029918615029</south>
        <east>26.64733886718750</east>
        <west>26.64596557617187</west>
      </LatLonAltBox>
      <Lod>
        <minLodPixels>128</minLodPixels>
        <maxLodPixels>2048</maxLodPixels>
      </Lod>
    </Region>
    <GroundOverlay>
      <drawOrder>36</drawOrder>
      <Icon>
        <href>162240.png</href>
      </Icon>
      <LatLonBox>
        <north>39.30136188134922</north>
        <south>39.30029918615029</south>
        <east>26.64733886718750</east>
        <west>26.64596557617187</west>
      </LatLonBox>
    </GroundOverlay>

    <NetworkLink>
      <name>19/300950/324480.png</name>
      <Region>
        <LatLonAltBox>
          <north>39.30083053576642</north>
          <south>39.30029918615029</south>
          <east>26.64665222167968</east>
          <west>26.64596557617187</west>
        </LatLonAltBox>
        <Lod>
          <minLodPixels>128</minLodPixels>
          <maxLodPixels>-1</maxLodPixels>
        </Lod>
      </Region>
      <Link>
        <href>../../19/300950/324480.kml</href>
        <viewRefreshMode>onRegion</viewRefreshMode>
        <viewFormat/>
      </Link>
    </NetworkLink>
        
    <NetworkLink>
      <name>19/300951/324480.png</name>
      <Region>
        <LatLonAltBox>
          <north>39.30083053576642</north>
          <south>39.30029918615029</south>
          <east>26.64733886718750</east>
          <west>26.64665222167968</west>
        </LatLonAltBox>
        <Lod>
          <minLodPixels>128</minLodPixels>
          <maxLodPixels>-1</maxLodPixels>
        </Lod>
      </Region>
      <Link>
        <href>../../19/300951/324480.kml</href>
        <viewRefreshMode>onRegion</viewRefreshMode>
        <viewFormat/>
      </Link>
    </NetworkLink>
        
    <NetworkLink>
      <name>19/300950/324481.png</name>
      <Region>
        <LatLonAltBox>
          <north>39.30136188134922</north>
          <south>39.30083053576642</south>
          <east>26.64665222167968</east>
          <west>26.64596557617187</west>
        </LatLonAltBox>
        <Lod>
          <minLodPixels>128</minLodPixels>
          <maxLodPixels>-1</maxLodPixels>
        </Lod>
      </Region>
      <Link>
        <href>../../19/300950/324481.kml</href>
        <viewRefreshMode>onRegion</viewRefreshMode>
        <viewFormat/>
      </Link>
    </NetworkLink>
        
    <NetworkLink>
      <name>19/300951/324481.png</name>
      <Region>
        <LatLonAltBox>
          <north>39.30136188134922</north>
          <south>39.30083053576642</south>
          <east>26.64733886718750</east>
          <west>26.64665222167968</west>
        </LatLonAltBox>
        <Lod>
          <minLodPixels>128</minLodPixels>
          <maxLodPixels>-1</maxLodPixels>
        </Lod>
      </Region>
      <Link>
        <href>../../19/300951/324481.kml</href>
        <viewRefreshMode>onRegion</viewRefreshMode>
        <viewFormat/>
      </Link>
    </NetworkLink>
              </Document>
</kml>
    