<?xml version="1.0" encoding="utf-8"?>
<kml xmlns="http://www.opengis.net/kml/2.2">
  <Document>
    <name>19/301052/324606.kml</name>
    <description></description>
    <Style>
      <ListStyle id="hideChildren">
        <listItemType>checkHideChildren</listItemType>
      </ListStyle>
    </Style>
    <Region>
      <LatLonAltBox>
        <north>39.36774831189420</north>
        <south>39.36721747059307</south>
        <east>26.71669006347657</east>
        <west>26.71600341796876</west>
      </LatLonAltBox>
      <Lod>
        <minLodPixels>128</minLodPixels>
        <maxLodPixels>-1</maxLodPixels>
      </Lod>
    </Region>
    <GroundOverlay>
      <drawOrder>38</drawOrder>
      <Icon>
        <href>324606.png</href>
      </Icon>
      <LatLonBox>
        <north>39.36774831189420</north>
        <south>39.36721747059307</south>
        <east>26.71669006347657</east>
        <west>26.71600341796876</west>
      </LatLonBox>
    </GroundOverlay>
      </Document>
</kml>
    