<?xml version="1.0" encoding="utf-8"?>
<kml xmlns="http://www.opengis.net/kml/2.2">
  <Document>
    <name>19/300951/324543.kml</name>
    <description></description>
    <Style>
      <ListStyle id="hideChildren">
        <listItemType>checkHideChildren</listItemType>
      </ListStyle>
    </Style>
    <Region>
      <LatLonAltBox>
        <north>39.33429742980725</north>
        <south>39.33376633431887</south>
        <east>26.64733886718750</east>
        <west>26.64665222167968</west>
      </LatLonAltBox>
      <Lod>
        <minLodPixels>128</minLodPixels>
        <maxLodPixels>-1</maxLodPixels>
      </Lod>
    </Region>
    <GroundOverlay>
      <drawOrder>38</drawOrder>
      <Icon>
        <href>324543.png</href>
      </Icon>
      <LatLonBox>
        <north>39.33429742980725</north>
        <south>39.33376633431887</south>
        <east>26.64733886718750</east>
        <west>26.64665222167968</west>
      </LatLonBox>
    </GroundOverlay>
      </Document>
</kml>
    