<?xml version="1.0" encoding="utf-8"?>
<kml xmlns="http://www.opengis.net/kml/2.2">
  <Document>
    <name>18/150501/162274.kml</name>
    <description></description>
    <Style>
      <ListStyle id="hideChildren">
        <listItemType>checkHideChildren</listItemType>
      </ListStyle>
    </Style>
    <Region>
      <LatLonAltBox>
        <north>39.33748391801758</north>
        <south>39.33642177141801</south>
        <east>26.68304443359375</east>
        <west>26.68167114257812</west>
      </LatLonAltBox>
      <Lod>
        <minLodPixels>128</minLodPixels>
        <maxLodPixels>2048</maxLodPixels>
      </Lod>
    </Region>
    <GroundOverlay>
      <drawOrder>36</drawOrder>
      <Icon>
        <href>162274.png</href>
      </Icon>
      <LatLonBox>
        <north>39.33748391801758</north>
        <south>39.33642177141801</south>
        <east>26.68304443359375</east>
        <west>26.68167114257812</west>
      </LatLonBox>
    </GroundOverlay>

    <NetworkLink>
      <name>19/301002/324548.png</name>
      <Region>
        <LatLonAltBox>
          <north>39.33695284673498</north>
          <south>39.33642177141801</south>
          <east>26.68235778808594</east>
          <west>26.68167114257812</west>
        </LatLonAltBox>
        <Lod>
          <minLodPixels>128</minLodPixels>
          <maxLodPixels>-1</maxLodPixels>
        </Lod>
      </Region>
      <Link>
        <href>../../19/301002/324548.kml</href>
        <viewRefreshMode>onRegion</viewRefreshMode>
        <viewFormat/>
      </Link>
    </NetworkLink>
        
    <NetworkLink>
      <name>19/301003/324548.png</name>
      <Region>
        <LatLonAltBox>
          <north>39.33695284673498</north>
          <south>39.33642177141801</south>
          <east>26.68304443359375</east>
          <west>26.68235778808594</west>
        </LatLonAltBox>
        <Lod>
          <minLodPixels>128</minLodPixels>
          <maxLodPixels>-1</maxLodPixels>
        </Lod>
      </Region>
      <Link>
        <href>../../19/301003/324548.kml</href>
        <viewRefreshMode>onRegion</viewRefreshMode>
        <viewFormat/>
      </Link>
    </NetworkLink>
        
    <NetworkLink>
      <name>19/301002/324549.png</name>
      <Region>
        <LatLonAltBox>
          <north>39.33748391801758</north>
          <south>39.33695284673498</south>
          <east>26.68235778808594</east>
          <west>26.68167114257812</west>
        </LatLonAltBox>
        <Lod>
          <minLodPixels>128</minLodPixels>
          <maxLodPixels>-1</maxLodPixels>
        </Lod>
      </Region>
      <Link>
        <href>../../19/301002/324549.kml</href>
        <viewRefreshMode>onRegion</viewRefreshMode>
        <viewFormat/>
      </Link>
    </NetworkLink>
        
    <NetworkLink>
      <name>19/301003/324549.png</name>
      <Region>
        <LatLonAltBox>
          <north>39.33748391801758</north>
          <south>39.33695284673498</south>
          <east>26.68304443359375</east>
          <west>26.68235778808594</west>
        </LatLonAltBox>
        <Lod>
          <minLodPixels>128</minLodPixels>
          <maxLodPixels>-1</maxLodPixels>
        </Lod>
      </Region>
      <Link>
        <href>../../19/301003/324549.kml</href>
        <viewRefreshMode>onRegion</viewRefreshMode>
        <viewFormat/>
      </Link>
    </NetworkLink>
              </Document>
</kml>
    