<?xml version="1.0" encoding="utf-8"?>
<kml xmlns="http://www.opengis.net/kml/2.2">
  <Document>
    <name>19/300893/324610.kml</name>
    <description></description>
    <Style>
      <ListStyle id="hideChildren">
        <listItemType>checkHideChildren</listItemType>
      </ListStyle>
    </Style>
    <Region>
      <LatLonAltBox>
        <north>39.36987163674661</north>
        <south>39.36934081158634</south>
        <east>26.60751342773437</east>
        <west>26.60682678222656</west>
      </LatLonAltBox>
      <Lod>
        <minLodPixels>128</minLodPixels>
        <maxLodPixels>-1</maxLodPixels>
      </Lod>
    </Region>
    <GroundOverlay>
      <drawOrder>38</drawOrder>
      <Icon>
        <href>324610.png</href>
      </Icon>
      <LatLonBox>
        <north>39.36987163674661</north>
        <south>39.36934081158634</south>
        <east>26.60751342773437</east>
        <west>26.60682678222656</west>
      </LatLonBox>
    </GroundOverlay>
      </Document>
</kml>
    