<?xml version="1.0" encoding="utf-8"?>
<kml xmlns="http://www.opengis.net/kml/2.2">
  <Document>
    <name>19/301027/324524.kml</name>
    <description></description>
    <Style>
      <ListStyle id="hideChildren">
        <listItemType>checkHideChildren</listItemType>
      </ListStyle>
    </Style>
    <Region>
      <LatLonAltBox>
        <north>39.32420592568780</north>
        <south>39.32367475355144</south>
        <east>26.69952392578124</east>
        <west>26.69883728027343</west>
      </LatLonAltBox>
      <Lod>
        <minLodPixels>128</minLodPixels>
        <maxLodPixels>-1</maxLodPixels>
      </Lod>
    </Region>
    <GroundOverlay>
      <drawOrder>38</drawOrder>
      <Icon>
        <href>324524.png</href>
      </Icon>
      <LatLonBox>
        <north>39.32420592568780</north>
        <south>39.32367475355144</south>
        <east>26.69952392578124</east>
        <west>26.69883728027343</west>
      </LatLonBox>
    </GroundOverlay>
      </Document>
</kml>
    