<?xml version="1.0" encoding="utf-8"?>
<kml xmlns="http://www.opengis.net/kml/2.2">
  <Document>
    <name>18/150529/162292.kml</name>
    <description></description>
    <Style>
      <ListStyle id="hideChildren">
        <listItemType>checkHideChildren</listItemType>
      </ListStyle>
    </Style>
    <Region>
      <LatLonAltBox>
        <north>39.35659979720230</north>
        <south>39.35553794109382</south>
        <east>26.72149658203125</east>
        <west>26.72012329101563</west>
      </LatLonAltBox>
      <Lod>
        <minLodPixels>128</minLodPixels>
        <maxLodPixels>2048</maxLodPixels>
      </Lod>
    </Region>
    <GroundOverlay>
      <drawOrder>36</drawOrder>
      <Icon>
        <href>162292.png</href>
      </Icon>
      <LatLonBox>
        <north>39.35659979720230</north>
        <south>39.35553794109382</south>
        <east>26.72149658203125</east>
        <west>26.72012329101563</west>
      </LatLonBox>
    </GroundOverlay>

    <NetworkLink>
      <name>19/301058/324584.png</name>
      <Region>
        <LatLonAltBox>
          <north>39.35606887116548</north>
          <south>39.35553794109382</south>
          <east>26.72080993652344</east>
          <west>26.72012329101563</west>
        </LatLonAltBox>
        <Lod>
          <minLodPixels>128</minLodPixels>
          <maxLodPixels>-1</maxLodPixels>
        </Lod>
      </Region>
      <Link>
        <href>../../19/301058/324584.kml</href>
        <viewRefreshMode>onRegion</viewRefreshMode>
        <viewFormat/>
      </Link>
    </NetworkLink>
        
    <NetworkLink>
      <name>19/301059/324584.png</name>
      <Region>
        <LatLonAltBox>
          <north>39.35606887116548</north>
          <south>39.35553794109382</south>
          <east>26.72149658203125</east>
          <west>26.72080993652344</west>
        </LatLonAltBox>
        <Lod>
          <minLodPixels>128</minLodPixels>
          <maxLodPixels>-1</maxLodPixels>
        </Lod>
      </Region>
      <Link>
        <href>../../19/301059/324584.kml</href>
        <viewRefreshMode>onRegion</viewRefreshMode>
        <viewFormat/>
      </Link>
    </NetworkLink>
        
    <NetworkLink>
      <name>19/301058/324585.png</name>
      <Region>
        <LatLonAltBox>
          <north>39.35659979720230</north>
          <south>39.35606887116548</south>
          <east>26.72080993652344</east>
          <west>26.72012329101563</west>
        </LatLonAltBox>
        <Lod>
          <minLodPixels>128</minLodPixels>
          <maxLodPixels>-1</maxLodPixels>
        </Lod>
      </Region>
      <Link>
        <href>../../19/301058/324585.kml</href>
        <viewRefreshMode>onRegion</viewRefreshMode>
        <viewFormat/>
      </Link>
    </NetworkLink>
        
    <NetworkLink>
      <name>19/301059/324585.png</name>
      <Region>
        <LatLonAltBox>
          <north>39.35659979720230</north>
          <south>39.35606887116548</south>
          <east>26.72149658203125</east>
          <west>26.72080993652344</west>
        </LatLonAltBox>
        <Lod>
          <minLodPixels>128</minLodPixels>
          <maxLodPixels>-1</maxLodPixels>
        </Lod>
      </Region>
      <Link>
        <href>../../19/301059/324585.kml</href>
        <viewRefreshMode>onRegion</viewRefreshMode>
        <viewFormat/>
      </Link>
    </NetworkLink>
              </Document>
</kml>
    