<?xml version="1.0" encoding="utf-8"?>
<kml xmlns="http://www.opengis.net/kml/2.2">
  <Document>
    <name>15/18816/20283.kml</name>
    <description></description>
    <Style>
      <ListStyle id="hideChildren">
        <listItemType>checkHideChildren</listItemType>
      </ListStyle>
    </Style>
    <Region>
      <LatLonAltBox>
        <north>39.33429742980725</north>
        <south>39.32579941789298</south>
        <east>26.72973632812500</east>
        <west>26.71875000000000</west>
      </LatLonAltBox>
      <Lod>
        <minLodPixels>128</minLodPixels>
        <maxLodPixels>2048</maxLodPixels>
      </Lod>
    </Region>
    <GroundOverlay>
      <drawOrder>30</drawOrder>
      <Icon>
        <href>20283.png</href>
      </Icon>
      <LatLonBox>
        <north>39.33429742980725</north>
        <south>39.32579941789298</south>
        <east>26.72973632812500</east>
        <west>26.71875000000000</west>
      </LatLonBox>
    </GroundOverlay>

    <NetworkLink>
      <name>16/37632/40566.png</name>
      <Region>
        <LatLonAltBox>
          <north>39.33004855294242</north>
          <south>39.32579941789298</south>
          <east>26.72424316406250</east>
          <west>26.71875000000000</west>
        </LatLonAltBox>
        <Lod>
          <minLodPixels>128</minLodPixels>
          <maxLodPixels>-1</maxLodPixels>
        </Lod>
      </Region>
      <Link>
        <href>../../16/37632/40566.kml</href>
        <viewRefreshMode>onRegion</viewRefreshMode>
        <viewFormat/>
      </Link>
    </NetworkLink>
        
    <NetworkLink>
      <name>16/37633/40566.png</name>
      <Region>
        <LatLonAltBox>
          <north>39.33004855294242</north>
          <south>39.32579941789298</south>
          <east>26.72973632812500</east>
          <west>26.72424316406250</west>
        </LatLonAltBox>
        <Lod>
          <minLodPixels>128</minLodPixels>
          <maxLodPixels>-1</maxLodPixels>
        </Lod>
      </Region>
      <Link>
        <href>../../16/37633/40566.kml</href>
        <viewRefreshMode>onRegion</viewRefreshMode>
        <viewFormat/>
      </Link>
    </NetworkLink>
        
    <NetworkLink>
      <name>16/37632/40567.png</name>
      <Region>
        <LatLonAltBox>
          <north>39.33429742980725</north>
          <south>39.33004855294242</south>
          <east>26.72424316406250</east>
          <west>26.71875000000000</west>
        </LatLonAltBox>
        <Lod>
          <minLodPixels>128</minLodPixels>
          <maxLodPixels>-1</maxLodPixels>
        </Lod>
      </Region>
      <Link>
        <href>../../16/37632/40567.kml</href>
        <viewRefreshMode>onRegion</viewRefreshMode>
        <viewFormat/>
      </Link>
    </NetworkLink>
        
    <NetworkLink>
      <name>16/37633/40567.png</name>
      <Region>
        <LatLonAltBox>
          <north>39.33429742980725</north>
          <south>39.33004855294242</south>
          <east>26.72973632812500</east>
          <west>26.72424316406250</west>
        </LatLonAltBox>
        <Lod>
          <minLodPixels>128</minLodPixels>
          <maxLodPixels>-1</maxLodPixels>
        </Lod>
      </Region>
      <Link>
        <href>../../16/37633/40567.kml</href>
        <viewRefreshMode>onRegion</viewRefreshMode>
        <viewFormat/>
      </Link>
    </NetworkLink>
              </Document>
</kml>
    