<?xml version="1.0" encoding="utf-8"?>
<kml xmlns="http://www.opengis.net/kml/2.2">
  <Document>
    <name>19/301058/324608.kml</name>
    <description></description>
    <Style>
      <ListStyle id="hideChildren">
        <listItemType>checkHideChildren</listItemType>
      </ListStyle>
    </Style>
    <Region>
      <LatLonAltBox>
        <north>39.36880998239084</north>
        <south>39.36827914916011</south>
        <east>26.72080993652344</east>
        <west>26.72012329101563</west>
      </LatLonAltBox>
      <Lod>
        <minLodPixels>128</minLodPixels>
        <maxLodPixels>-1</maxLodPixels>
      </Lod>
    </Region>
    <GroundOverlay>
      <drawOrder>38</drawOrder>
      <Icon>
        <href>324608.png</href>
      </Icon>
      <LatLonBox>
        <north>39.36880998239084</north>
        <south>39.36827914916011</south>
        <east>26.72080993652344</east>
        <west>26.72012329101563</west>
      </LatLonBox>
    </GroundOverlay>
      </Document>
</kml>
    