<?xml version="1.0" encoding="utf-8"?>
<kml xmlns="http://www.opengis.net/kml/2.2">
  <Document>
    <name>18/150476/162280.kml</name>
    <description></description>
    <Style>
      <ListStyle id="hideChildren">
        <listItemType>checkHideChildren</listItemType>
      </ListStyle>
    </Style>
    <Region>
      <LatLonAltBox>
        <north>39.34385645872588</north>
        <south>39.34279440895236</south>
        <east>26.64871215820312</east>
        <west>26.64733886718750</west>
      </LatLonAltBox>
      <Lod>
        <minLodPixels>128</minLodPixels>
        <maxLodPixels>2048</maxLodPixels>
      </Lod>
    </Region>
    <GroundOverlay>
      <drawOrder>36</drawOrder>
      <Icon>
        <href>162280.png</href>
      </Icon>
      <LatLonBox>
        <north>39.34385645872588</north>
        <south>39.34279440895236</south>
        <east>26.64871215820312</east>
        <west>26.64733886718750</west>
      </LatLonBox>
    </GroundOverlay>

    <NetworkLink>
      <name>19/300952/324560.png</name>
      <Region>
        <LatLonAltBox>
          <north>39.34332543585639</north>
          <south>39.34279440895236</south>
          <east>26.64802551269531</east>
          <west>26.64733886718750</west>
        </LatLonAltBox>
        <Lod>
          <minLodPixels>128</minLodPixels>
          <maxLodPixels>-1</maxLodPixels>
        </Lod>
      </Region>
      <Link>
        <href>../../19/300952/324560.kml</href>
        <viewRefreshMode>onRegion</viewRefreshMode>
        <viewFormat/>
      </Link>
    </NetworkLink>
        
    <NetworkLink>
      <name>19/300953/324560.png</name>
      <Region>
        <LatLonAltBox>
          <north>39.34332543585639</north>
          <south>39.34279440895236</south>
          <east>26.64871215820312</east>
          <west>26.64802551269531</west>
        </LatLonAltBox>
        <Lod>
          <minLodPixels>128</minLodPixels>
          <maxLodPixels>-1</maxLodPixels>
        </Lod>
      </Region>
      <Link>
        <href>../../19/300953/324560.kml</href>
        <viewRefreshMode>onRegion</viewRefreshMode>
        <viewFormat/>
      </Link>
    </NetworkLink>
        
    <NetworkLink>
      <name>19/300952/324561.png</name>
      <Region>
        <LatLonAltBox>
          <north>39.34385645872588</north>
          <south>39.34332543585639</south>
          <east>26.64802551269531</east>
          <west>26.64733886718750</west>
        </LatLonAltBox>
        <Lod>
          <minLodPixels>128</minLodPixels>
          <maxLodPixels>-1</maxLodPixels>
        </Lod>
      </Region>
      <Link>
        <href>../../19/300952/324561.kml</href>
        <viewRefreshMode>onRegion</viewRefreshMode>
        <viewFormat/>
      </Link>
    </NetworkLink>
        
    <NetworkLink>
      <name>19/300953/324561.png</name>
      <Region>
        <LatLonAltBox>
          <north>39.34385645872588</north>
          <south>39.34332543585639</south>
          <east>26.64871215820312</east>
          <west>26.64802551269531</west>
        </LatLonAltBox>
        <Lod>
          <minLodPixels>128</minLodPixels>
          <maxLodPixels>-1</maxLodPixels>
        </Lod>
      </Region>
      <Link>
        <href>../../19/300953/324561.kml</href>
        <viewRefreshMode>onRegion</viewRefreshMode>
        <viewFormat/>
      </Link>
    </NetworkLink>
              </Document>
</kml>
    