<?xml version="1.0" encoding="utf-8"?>
<kml xmlns="http://www.opengis.net/kml/2.2">
  <Document>
    <name>18/150486/162235.kml</name>
    <description></description>
    <Style>
      <ListStyle id="hideChildren">
        <listItemType>checkHideChildren</listItemType>
      </ListStyle>
    </Style>
    <Region>
      <LatLonAltBox>
        <north>39.29604824402409</north>
        <south>39.29498546816051</south>
        <east>26.66244506835936</east>
        <west>26.66107177734374</west>
      </LatLonAltBox>
      <Lod>
        <minLodPixels>128</minLodPixels>
        <maxLodPixels>2048</maxLodPixels>
      </Lod>
    </Region>
    <GroundOverlay>
      <drawOrder>36</drawOrder>
      <Icon>
        <href>162235.png</href>
      </Icon>
      <LatLonBox>
        <north>39.29604824402409</north>
        <south>39.29498546816051</south>
        <east>26.66244506835936</east>
        <west>26.66107177734374</west>
      </LatLonBox>
    </GroundOverlay>

    <NetworkLink>
      <name>19/300972/324470.png</name>
      <Region>
        <LatLonAltBox>
          <north>39.29551685810888</north>
          <south>39.29498546816051</south>
          <east>26.66175842285155</east>
          <west>26.66107177734374</west>
        </LatLonAltBox>
        <Lod>
          <minLodPixels>128</minLodPixels>
          <maxLodPixels>-1</maxLodPixels>
        </Lod>
      </Region>
      <Link>
        <href>../../19/300972/324470.kml</href>
        <viewRefreshMode>onRegion</viewRefreshMode>
        <viewFormat/>
      </Link>
    </NetworkLink>
        
    <NetworkLink>
      <name>19/300973/324470.png</name>
      <Region>
        <LatLonAltBox>
          <north>39.29551685810888</north>
          <south>39.29498546816051</south>
          <east>26.66244506835936</east>
          <west>26.66175842285155</west>
        </LatLonAltBox>
        <Lod>
          <minLodPixels>128</minLodPixels>
          <maxLodPixels>-1</maxLodPixels>
        </Lod>
      </Region>
      <Link>
        <href>../../19/300973/324470.kml</href>
        <viewRefreshMode>onRegion</viewRefreshMode>
        <viewFormat/>
      </Link>
    </NetworkLink>
        
    <NetworkLink>
      <name>19/300972/324471.png</name>
      <Region>
        <LatLonAltBox>
          <north>39.29604824402409</north>
          <south>39.29551685810888</south>
          <east>26.66175842285155</east>
          <west>26.66107177734374</west>
        </LatLonAltBox>
        <Lod>
          <minLodPixels>128</minLodPixels>
          <maxLodPixels>-1</maxLodPixels>
        </Lod>
      </Region>
      <Link>
        <href>../../19/300972/324471.kml</href>
        <viewRefreshMode>onRegion</viewRefreshMode>
        <viewFormat/>
      </Link>
    </NetworkLink>
        
    <NetworkLink>
      <name>19/300973/324471.png</name>
      <Region>
        <LatLonAltBox>
          <north>39.29604824402409</north>
          <south>39.29551685810888</south>
          <east>26.66244506835936</east>
          <west>26.66175842285155</west>
        </LatLonAltBox>
        <Lod>
          <minLodPixels>128</minLodPixels>
          <maxLodPixels>-1</maxLodPixels>
        </Lod>
      </Region>
      <Link>
        <href>../../19/300973/324471.kml</href>
        <viewRefreshMode>onRegion</viewRefreshMode>
        <viewFormat/>
      </Link>
    </NetworkLink>
              </Document>
</kml>
    