<?xml version="1.0" encoding="utf-8"?>
<kml xmlns="http://www.opengis.net/kml/2.2">
  <Document>
    <name>16/37617/40566.kml</name>
    <description></description>
    <Style>
      <ListStyle id="hideChildren">
        <listItemType>checkHideChildren</listItemType>
      </ListStyle>
    </Style>
    <Region>
      <LatLonAltBox>
        <north>39.33004855294242</north>
        <south>39.32579941789298</south>
        <east>26.64184570312500</east>
        <west>26.63635253906250</west>
      </LatLonAltBox>
      <Lod>
        <minLodPixels>128</minLodPixels>
        <maxLodPixels>2048</maxLodPixels>
      </Lod>
    </Region>
    <GroundOverlay>
      <drawOrder>32</drawOrder>
      <Icon>
        <href>40566.png</href>
      </Icon>
      <LatLonBox>
        <north>39.33004855294242</north>
        <south>39.32579941789298</south>
        <east>26.64184570312500</east>
        <west>26.63635253906250</west>
      </LatLonBox>
    </GroundOverlay>

    <NetworkLink>
      <name>17/75234/81132.png</name>
      <Region>
        <LatLonAltBox>
          <north>39.32792401769030</north>
          <south>39.32579941789298</south>
          <east>26.63909912109375</east>
          <west>26.63635253906250</west>
        </LatLonAltBox>
        <Lod>
          <minLodPixels>128</minLodPixels>
          <maxLodPixels>-1</maxLodPixels>
        </Lod>
      </Region>
      <Link>
        <href>../../17/75234/81132.kml</href>
        <viewRefreshMode>onRegion</viewRefreshMode>
        <viewFormat/>
      </Link>
    </NetworkLink>
        
    <NetworkLink>
      <name>17/75235/81132.png</name>
      <Region>
        <LatLonAltBox>
          <north>39.32792401769030</north>
          <south>39.32579941789298</south>
          <east>26.64184570312500</east>
          <west>26.63909912109375</west>
        </LatLonAltBox>
        <Lod>
          <minLodPixels>128</minLodPixels>
          <maxLodPixels>-1</maxLodPixels>
        </Lod>
      </Region>
      <Link>
        <href>../../17/75235/81132.kml</href>
        <viewRefreshMode>onRegion</viewRefreshMode>
        <viewFormat/>
      </Link>
    </NetworkLink>
        
    <NetworkLink>
      <name>17/75234/81133.png</name>
      <Region>
        <LatLonAltBox>
          <north>39.33004855294242</north>
          <south>39.32792401769030</south>
          <east>26.63909912109375</east>
          <west>26.63635253906250</west>
        </LatLonAltBox>
        <Lod>
          <minLodPixels>128</minLodPixels>
          <maxLodPixels>-1</maxLodPixels>
        </Lod>
      </Region>
      <Link>
        <href>../../17/75234/81133.kml</href>
        <viewRefreshMode>onRegion</viewRefreshMode>
        <viewFormat/>
      </Link>
    </NetworkLink>
        
    <NetworkLink>
      <name>17/75235/81133.png</name>
      <Region>
        <LatLonAltBox>
          <north>39.33004855294242</north>
          <south>39.32792401769030</south>
          <east>26.64184570312500</east>
          <west>26.63909912109375</west>
        </LatLonAltBox>
        <Lod>
          <minLodPixels>128</minLodPixels>
          <maxLodPixels>-1</maxLodPixels>
        </Lod>
      </Region>
      <Link>
        <href>../../17/75235/81133.kml</href>
        <viewRefreshMode>onRegion</viewRefreshMode>
        <viewFormat/>
      </Link>
    </NetworkLink>
              </Document>
</kml>
    