{
"type": "FeatureCollection",
"name": "mustemilat",
"crs": { "type": "name", "properties": { "name": "urn:ogc:def:crs:OGC:1.3:CRS84" } },
"features": [
{ "type": "Feature", "properties": { "fid": 3257, "Layer": "Outbuildings" }, "geometry": { "type": "MultiPolygon", "coordinates": [ [ [ [ 26.692567099341726, 39.313573971278934 ], [ 26.69262478209205, 39.313630551888529 ], [ 26.692654809825086, 39.313614056409605 ], [ 26.692596760579288, 39.313557594054792 ], [ 26.692567099341726, 39.313573971278934 ] ] ] ] } },
{ "type": "Feature", "properties": { "fid": 3258, "Layer": "Outbuildings" }, "geometry": { "type": "MultiPolygon", "coordinates": [ [ [ [ 26.692546917253047, 39.313607845557136 ], [ 26.692572260694078, 39.313593671318813 ], [ 26.692614243419516, 39.313636340409893 ], [ 26.692546917253047, 39.313607845557136 ] ] ] ] } },
{ "type": "Feature", "properties": { "fid": 3259, "Layer": "Outbuildings" }, "geometry": { "type": "MultiPolygon", "coordinates": [ [ [ [ 26.692546917253047, 39.313607845557136 ], [ 26.692587130807311, 39.313651233678129 ], [ 26.692614071423165, 39.31363616594232 ], [ 26.692546917253047, 39.313607845557136 ] ] ] ] } },
{ "type": "Feature", "properties": { "fid": 3260, "Layer": "Outbuildings" }, "geometry": { "type": "MultiPolygon", "coordinates": [ [ [ [ 26.692538308660012, 39.3136292576893 ], [ 26.692514005694967, 39.313644836077593 ], [ 26.692540005495413, 39.313669873667017 ], [ 26.692545664254965, 39.313674640968607 ], [ 26.692552712489995, 39.313670141940271 ], [ 26.69257175478597, 39.313659679328893 ], [ 26.692538308660012, 39.3136292576893 ] ] ] ] } },
{ "type": "Feature", "properties": { "fid": 4353, "Layer": "Outbuildings" }, "geometry": { "type": "MultiPolygon", "coordinates": [ [ [ [ 26.693201505215253, 39.315434688115836 ], [ 26.69322509423667, 39.315465966724801 ], [ 26.693273040341253, 39.315433892387219 ], [ 26.693244310274142, 39.315404910237604 ], [ 26.693201505215253, 39.315434688115836 ] ] ] ] } },
{ "type": "Feature", "properties": { "fid": 4472, "Layer": "Outbuildings" }, "geometry": { "type": "MultiPolygon", "coordinates": [ [ [ [ 26.69344276281652, 39.315694223756239 ], [ 26.693456927884643, 39.31571298118596 ], [ 26.693421094907954, 39.315729309196747 ], [ 26.693407391776894, 39.315707858148222 ], [ 26.69344276281652, 39.315694223756239 ] ] ] ] } },
{ "type": "Feature", "properties": { "fid": 7389, "Layer": "Outbuildings" }, "geometry": { "type": "MultiPolygon", "coordinates": [ [ [ [ 26.697409125514696, 39.325615834655011 ], [ 26.697370691022137, 39.325628318501749 ], [ 26.697378912386643, 39.325647266732915 ], [ 26.697418305442152, 39.32563507627912 ], [ 26.697409125514696, 39.325615834655011 ] ] ] ] } },
{ "type": "Feature", "properties": { "fid": 7685, "Layer": "Outbuildings" }, "geometry": { "type": "MultiPolygon", "coordinates": [ [ [ [ 26.690889704086587, 39.312831847812582 ], [ 26.690830275286018, 39.312804545579141 ], [ 26.690774144788399, 39.312884034585558 ], [ 26.690835614715887, 39.312909687706252 ], [ 26.690889704086587, 39.312831847812582 ] ] ] ] } },
{ "type": "Feature", "properties": { "fid": 7710, "Layer": "Outbuildings" }, "geometry": { "type": "MultiPolygon", "coordinates": [ [ [ [ 26.690550725068057, 39.313168793703511 ], [ 26.69060014162207, 39.313188253285581 ], [ 26.690627596512567, 39.313154101398887 ], [ 26.690580153957274, 39.313130121345047 ], [ 26.690550725068057, 39.313168793703511 ] ] ] ] } },
{ "type": "Feature", "properties": { "fid": 7864, "Layer": "Outbuildings" }, "geometry": { "type": "MultiPolygon", "coordinates": [ [ [ [ 26.689678389584017, 39.31265137202351 ], [ 26.689636789220764, 39.312639361079434 ], [ 26.689663033046219, 39.31259020512239 ], [ 26.689704636702469, 39.312602864158229 ], [ 26.689678389584017, 39.31265137202351 ] ] ] ] } },
{ "type": "Feature", "properties": { "fid": 7865, "Layer": "Outbuildings" }, "geometry": { "type": "MultiPolygon", "coordinates": [ [ [ [ 26.689693958711679, 39.312599614591164 ], [ 26.689663033046219, 39.31259020512239 ], [ 26.689680636830335, 39.312561462173264 ], [ 26.689707790545022, 39.312569788648567 ], [ 26.689693958711679, 39.312599614591164 ] ] ] ] } },
{ "type": "Feature", "properties": { "fid": 7866, "Layer": "Outbuildings" }, "geometry": { "type": "MultiPolygon", "coordinates": [ [ [ [ 26.689707790545022, 39.312569788648567 ], [ 26.689713673506603, 39.312559745884897 ], [ 26.689732261826968, 39.312519726093505 ], [ 26.689705827456738, 39.312509662604882 ], [ 26.689680636830335, 39.312561462173264 ], [ 26.689707790545022, 39.312569788648567 ] ] ] ] } },
{ "type": "Feature", "properties": { "fid": 7952, "Layer": "Outbuildings" }, "geometry": { "type": "MultiPolygon", "coordinates": [ [ [ [ 26.691054775319497, 39.313183518009026 ], [ 26.691044813445611, 39.313196318021056 ], [ 26.691074854893049, 39.313208777067409 ], [ 26.691082042320311, 39.313196559286745 ], [ 26.691054775319497, 39.313183518009026 ] ] ] ] } },
{ "type": "Feature", "properties": { "fid": 8107, "Layer": "Outbuildings" }, "geometry": { "type": "MultiPolygon", "coordinates": [ [ [ [ 26.690768367483919, 39.313015252926235 ], [ 26.690800726118621, 39.313029866558061 ], [ 26.690778392462867, 39.313065585368925 ], [ 26.690743135955856, 39.31304923084268 ], [ 26.690768367483919, 39.313015252926235 ] ] ] ] } },
{ "type": "Feature", "properties": { "fid": 8114, "Layer": "Outbuildings" }, "geometry": { "type": "MultiPolygon", "coordinates": [ [ [ [ 26.691390713929653, 39.312478441998891 ], [ 26.691380639509433, 39.312492089131801 ], [ 26.691418772680766, 39.312509531070454 ], [ 26.691431444255031, 39.312493939070521 ], [ 26.691390713929653, 39.312478441998891 ] ] ] ] } },
{ "type": "Feature", "properties": { "fid": 8156, "Layer": "Outbuildings" }, "geometry": { "type": "MultiPolygon", "coordinates": [ [ [ [ 26.691145978815975, 39.3127078238238 ], [ 26.691176709100656, 39.312717566538304 ], [ 26.691191025308232, 39.312695966451791 ], [ 26.691162255343791, 39.312684070624599 ], [ 26.691145978815975, 39.3127078238238 ] ] ] ] } },
{ "type": "Feature", "properties": { "fid": 8157, "Layer": "Outbuildings" }, "geometry": { "type": "MultiPolygon", "coordinates": [ [ [ [ 26.689903974428439, 39.312717118353596 ], [ 26.689884945738719, 39.312709922177113 ], [ 26.689909560616432, 39.312670042668373 ], [ 26.689823404060903, 39.312636108536275 ], [ 26.689834895533263, 39.312620887568734 ], [ 26.689935813000812, 39.312664402643264 ], [ 26.689903974428439, 39.312717118353596 ] ] ] ] } },
{ "type": "Feature", "properties": { "fid": 8158, "Layer": "Outbuildings" }, "geometry": { "type": "MultiPolygon", "coordinates": [ [ [ [ 26.689781906576389, 39.312600262023167 ], [ 26.689772784277718, 39.312616172115547 ], [ 26.689720237324455, 39.312595476856714 ], [ 26.689727809752338, 39.312580634842945 ], [ 26.689781906576389, 39.312600262023167 ] ] ] ] } },
{ "type": "Feature", "properties": { "fid": 8159, "Layer": "Outbuildings" }, "geometry": { "type": "MultiPolygon", "coordinates": [ [ [ [ 26.690351052799798, 39.312692145976229 ], [ 26.690342610966642, 39.312705265036165 ], [ 26.690288868223053, 39.312685276558973 ], [ 26.690298558729555, 39.312672366083234 ], [ 26.690351052799798, 39.312692145976229 ] ] ] ] } },
{ "type": "Feature", "properties": { "fid": 8160, "Layer": "Outbuildings" }, "geometry": { "type": "MultiPolygon", "coordinates": [ [ [ [ 26.689980615560636, 39.312492151143104 ], [ 26.68997213110384, 39.312507323439405 ], [ 26.689917292290136, 39.312485002843665 ], [ 26.689926938087311, 39.312472861121819 ], [ 26.689980615560636, 39.312492151143104 ] ] ] ] } },
{ "type": "Feature", "properties": { "fid": 8161, "Layer": "Outbuildings" }, "geometry": { "type": "MultiPolygon", "coordinates": [ [ [ [ 26.689894846976721, 39.312461484132911 ], [ 26.689887344993959, 39.312472812868094 ], [ 26.689833250986116, 39.312450794936645 ], [ 26.689841456044341, 39.312438666239672 ], [ 26.689894846976721, 39.312461484132911 ] ] ] ] } },
{ "type": "Feature", "properties": { "fid": 8162, "Layer": "Outbuildings" }, "geometry": { "type": "MultiPolygon", "coordinates": [ [ [ [ 26.690228308616867, 39.312495311804653 ], [ 26.690278942245431, 39.312508834790023 ], [ 26.690268304135191, 39.312528944481102 ], [ 26.69022077557679, 39.312513757002939 ], [ 26.690228308616867, 39.312495311804653 ] ] ] ] } },
{ "type": "Feature", "properties": { "fid": 8174, "Layer": "Outbuildings" }, "geometry": { "type": "MultiPolygon", "coordinates": [ [ [ [ 26.694082344833433, 39.316653609065511 ], [ 26.694161912672364, 39.316639762086226 ], [ 26.694155797346664, 39.316605202663716 ], [ 26.69407427667003, 39.316617411398383 ], [ 26.694082344833433, 39.316653609065511 ] ] ] ] } },
{ "type": "Feature", "properties": { "fid": 8181, "Layer": "Outbuildings" }, "geometry": { "type": "MultiPolygon", "coordinates": [ [ [ [ 26.6943587309149, 39.316647468026332 ], [ 26.694310970647301, 39.316651523839312 ], [ 26.694319040040341, 39.31668780251313 ], [ 26.694363090979099, 39.316678743580631 ], [ 26.6943587309149, 39.316647468026332 ] ] ] ] } },
{ "type": "Feature", "properties": { "fid": 8182, "Layer": "Outbuildings" }, "geometry": { "type": "MultiPolygon", "coordinates": [ [ [ [ 26.694296027988923, 39.316561324614938 ], [ 26.694258003431727, 39.31656561000581 ], [ 26.694246753878144, 39.316516280548541 ], [ 26.694285702809779, 39.316511599150587 ], [ 26.694296027988923, 39.316561324614938 ] ] ] ] } },
{ "type": "Feature", "properties": { "fid": 8183, "Layer": "Outbuildings" }, "geometry": { "type": "MultiPolygon", "coordinates": [ [ [ [ 26.693661915176278, 39.31656144497682 ], [ 26.693672576209408, 39.316584355225949 ], [ 26.693735882211911, 39.31656924683432 ], [ 26.693724547215137, 39.31654627959697 ], [ 26.693661915176278, 39.31656144497682 ] ] ] ] } },
{ "type": "Feature", "properties": { "fid": 8263, "Layer": "Outbuildings" }, "geometry": { "type": "MultiPolygon", "coordinates": [ [ [ [ 26.693782544085881, 39.315921243336831 ], [ 26.693791663863777, 39.315936885542506 ], [ 26.693742134699516, 39.315952839093349 ], [ 26.693732890389732, 39.315937727179254 ], [ 26.693782544085881, 39.315921243336831 ] ] ] ] } },
{ "type": "Feature", "properties": { "fid": 8265, "Layer": "Outbuildings" }, "geometry": { "type": "MultiPolygon", "coordinates": [ [ [ [ 26.694139418159043, 39.31582404581129 ], [ 26.693885161833943, 39.315891402362347 ], [ 26.693913415006072, 39.315935975210621 ], [ 26.694163326185002, 39.31587239869949 ], [ 26.694139418159043, 39.31582404581129 ] ] ] ] } },
{ "type": "Feature", "properties": { "fid": 8266, "Layer": "Outbuildings" }, "geometry": { "type": "MultiPolygon", "coordinates": [ [ [ [ 26.694163326185002, 39.31587239869949 ], [ 26.693913415006072, 39.315935975210621 ], [ 26.693936697887541, 39.315975404774193 ], [ 26.69418214217567, 39.315914469749686 ], [ 26.694163326185002, 39.31587239869949 ] ] ] ] } },
{ "type": "Feature", "properties": { "fid": 8267, "Layer": "Outbuildings" }, "geometry": { "type": "MultiPolygon", "coordinates": [ [ [ [ 26.69418214217567, 39.315914469749686 ], [ 26.693936697887541, 39.315975404774193 ], [ 26.693961845569671, 39.316018864311779 ], [ 26.694199141688923, 39.315960480544632 ], [ 26.69418214217567, 39.315914469749686 ] ] ] ] } },
{ "type": "Feature", "properties": { "fid": 8268, "Layer": "Outbuildings" }, "geometry": { "type": "MultiPolygon", "coordinates": [ [ [ [ 26.693961845569671, 39.316018864311779 ], [ 26.694095697247207, 39.315985886453284 ], [ 26.694107932983783, 39.316017104367219 ], [ 26.693983154519021, 39.316051432184821 ], [ 26.693961845569671, 39.316018864311779 ] ] ] ] } },
{ "type": "Feature", "properties": { "fid": 8269, "Layer": "Outbuildings" }, "geometry": { "type": "MultiPolygon", "coordinates": [ [ [ [ 26.694012456379728, 39.316096220095673 ], [ 26.694084880929452, 39.316314238271694 ], [ 26.694004795401884, 39.316333390192383 ], [ 26.693931612813923, 39.316112698415232 ], [ 26.694012456379728, 39.316096220095673 ] ] ] ] } },
{ "type": "Feature", "properties": { "fid": 8281, "Layer": "Outbuildings" }, "geometry": { "type": "MultiPolygon", "coordinates": [ [ [ [ 26.693700761889005, 39.315749320453151 ], [ 26.693727472104666, 39.31578544519072 ], [ 26.69369820405846, 39.315796612119748 ], [ 26.693671549379523, 39.315762161575357 ], [ 26.693700761889005, 39.315749320453151 ] ] ] ] } },
{ "type": "Feature", "properties": { "fid": 9103, "Layer": "Outbuildings" }, "geometry": { "type": "MultiPolygon", "coordinates": [ [ [ [ 26.695330102104105, 39.323054975895552 ], [ 26.695338999555592, 39.323093881728632 ], [ 26.695355207509643, 39.32309168216193 ], [ 26.69537325456098, 39.323087797668208 ], [ 26.695364809377008, 39.323048445858355 ], [ 26.695330102104105, 39.323054975895552 ] ] ] ] } },
{ "type": "Feature", "properties": { "fid": 9115, "Layer": "Outbuildings" }, "geometry": { "type": "MultiPolygon", "coordinates": [ [ [ [ 26.695436037543558, 39.323487720977262 ], [ 26.695468955074293, 39.323479305029593 ], [ 26.695455340776746, 39.32344299055093 ], [ 26.695423891309066, 39.323450772355898 ], [ 26.695436037543558, 39.323487720977262 ] ] ] ] } },
{ "type": "Feature", "properties": { "fid": 9136, "Layer": "Outbuildings" }, "geometry": { "type": "MultiPolygon", "coordinates": [ [ [ [ 26.695426001529373, 39.323317717269731 ], [ 26.695394859463796, 39.323323279990547 ], [ 26.695374580177614, 39.32327251750938 ], [ 26.69540875600692, 39.323264708885915 ], [ 26.695426001529373, 39.323317717269731 ] ] ] ] } },
{ "type": "Feature", "properties": { "fid": 9137, "Layer": "Outbuildings" }, "geometry": { "type": "MultiPolygon", "coordinates": [ [ [ [ 26.695235219264937, 39.323399390458931 ], [ 26.695204119579429, 39.323408517600953 ], [ 26.695157384042304, 39.323320187789676 ], [ 26.695196036582811, 39.323303167718521 ], [ 26.695235219264937, 39.323399390458931 ] ] ] ] } },
{ "type": "Feature", "properties": { "fid": 9483, "Layer": "Outbuildings" }, "geometry": { "type": "MultiPolygon", "coordinates": [ [ [ [ 26.696861989376018, 39.324668385718532 ], [ 26.69683249979888, 39.324679922423556 ], [ 26.696872684167975, 39.32474241367273 ], [ 26.696902625450655, 39.324732114508741 ], [ 26.696861989376018, 39.324668385718532 ] ] ] ] } },
{ "type": "Feature", "properties": { "fid": 9493, "Layer": "Outbuildings" }, "geometry": { "type": "MultiPolygon", "coordinates": [ [ [ [ 26.696792582724779, 39.326603527479676 ], [ 26.696881811668895, 39.32657903266022 ], [ 26.696903090571016, 39.326625792156356 ], [ 26.696816242362424, 39.326652071508832 ], [ 26.696792607818551, 39.326603520255489 ], [ 26.696792582724779, 39.326603527479676 ] ] ] ] } },
{ "type": "Feature", "properties": { "fid": 9500, "Layer": "Outbuildings" }, "geometry": { "type": "MultiPolygon", "coordinates": [ [ [ [ 26.696126928825244, 39.325630183471262 ], [ 26.696101801915869, 39.325643027133488 ], [ 26.696087117106153, 39.325625695446433 ], [ 26.696112243111138, 39.325612850885449 ], [ 26.696126928825244, 39.325630183471262 ] ] ] ] } },
{ "type": "Feature", "properties": { "fid": 9536, "Layer": "Outbuildings" }, "geometry": { "type": "MultiPolygon", "coordinates": [ [ [ [ 26.697391633573609, 39.325892141906117 ], [ 26.697439743504344, 39.325873612510726 ], [ 26.697409731423814, 39.32581658448558 ], [ 26.69735616706993, 39.325833590532859 ], [ 26.697391633573609, 39.325892141906117 ] ] ] ] } },
{ "type": "Feature", "properties": { "fid": 9545, "Layer": "Outbuildings" }, "geometry": { "type": "MultiPolygon", "coordinates": [ [ [ [ 26.697485065102136, 39.32572367310182 ], [ 26.697503327181792, 39.325716711464693 ], [ 26.697476162143882, 39.325660405362477 ], [ 26.697458608238055, 39.325666288256812 ], [ 26.697485065102136, 39.32572367310182 ] ] ] ] } },
{ "type": "Feature", "properties": { "fid": 9575, "Layer": "Outbuildings" }, "geometry": { "type": "MultiPolygon", "coordinates": [ [ [ [ 26.696895391794357, 39.326135532707241 ], [ 26.696882429086813, 39.326110544816565 ], [ 26.696852108035582, 39.326120032259091 ], [ 26.69686353236267, 39.326148864182919 ], [ 26.696895391794357, 39.326135532707241 ] ] ] ] } },
{ "type": "Feature", "properties": { "fid": 9785, "Layer": "Outbuildings" }, "geometry": { "type": "MultiPolygon", "coordinates": [ [ [ [ 26.693601280133365, 39.316768483249191 ], [ 26.693598818305517, 39.31679853640113 ], [ 26.693549433493509, 39.316798696110908 ], [ 26.693551828226635, 39.31676335744843 ], [ 26.693601280133365, 39.316768483249191 ] ] ] ] } },
{ "type": "Feature", "properties": { "fid": 9811, "Layer": "Outbuildings" }, "geometry": { "type": "MultiPolygon", "coordinates": [ [ [ [ 26.696172690945275, 39.316938346661459 ], [ 26.696135057607702, 39.31693 ], [ 26.69612, 39.31696 ], [ 26.696155372949228, 39.31697 ], [ 26.696172690945275, 39.316938346661459 ] ] ] ] } },
{ "type": "Feature", "properties": { "fid": 9898, "Layer": "Outbuildings" }, "geometry": { "type": "MultiPolygon", "coordinates": [ [ [ [ 26.695713487189543, 39.319406459074976 ], [ 26.695678370091404, 39.319382160066212 ], [ 26.69570012796822, 39.319364308433855 ], [ 26.695712802512801, 39.31937142036805 ], [ 26.695731263913235, 39.319382928597101 ], [ 26.695713487189543, 39.319406459074976 ] ] ] ] } },
{ "type": "Feature", "properties": { "fid": 10095, "Layer": "Outbuildings" }, "geometry": { "type": "MultiPolygon", "coordinates": [ [ [ [ 26.696432103036027, 39.31876570586072 ], [ 26.696425953411801, 39.318719218044748 ], [ 26.696501494354681, 39.318713191271407 ], [ 26.69650416488728, 39.318733385912672 ], [ 26.696473691092692, 39.318735817383711 ], [ 26.696473826815801, 39.318760992980792 ], [ 26.696432103036027, 39.31876570586072 ] ] ] ] } },
{ "type": "Feature", "properties": { "fid": 10100, "Layer": "Outbuildings" }, "geometry": { "type": "MultiPolygon", "coordinates": [ [ [ [ 26.69667918762056, 39.318481108891305 ], [ 26.696710972213602, 39.318489310339551 ], [ 26.696710319171356, 39.31855041713564 ], [ 26.696678405726306, 39.318550519503006 ], [ 26.69667918762056, 39.318481108891305 ] ] ] ] } },
{ "type": "Feature", "properties": { "fid": 10443, "Layer": "Outbuildings" }, "geometry": { "type": "MultiPolygon", "coordinates": [ [ [ [ 26.692427893900213, 39.314189310254044 ], [ 26.692460077959783, 39.314182903268723 ], [ 26.692461332563092, 39.314184715882078 ], [ 26.692484661323455, 39.314218418795107 ], [ 26.692474091544032, 39.314222832845154 ], [ 26.692483175920426, 39.314235958325234 ], [ 26.692470170617828, 39.314241390860381 ], [ 26.692427893900213, 39.314189310254044 ] ] ] ] } },
{ "type": "Feature", "properties": { "fid": 10493, "Layer": "Outbuildings" }, "geometry": { "type": "MultiPolygon", "coordinates": [ [ [ [ 26.691327134645636, 39.312819418717631 ], [ 26.691303160690673, 39.312808727363041 ], [ 26.691332185356135, 39.312769455900003 ], [ 26.691357248076148, 39.31278005354136 ], [ 26.691327134645636, 39.312819418717631 ] ] ] ] } },
{ "type": "Feature", "properties": { "fid": 10559, "Layer": "Outbuildings" }, "geometry": { "type": "MultiPolygon", "coordinates": [ [ [ [ 26.689710483601488, 39.311964602264098 ], [ 26.689708864234252, 39.311979343385069 ], [ 26.689652315024201, 39.311975594081872 ], [ 26.689652240985939, 39.311961922071255 ], [ 26.689710483601488, 39.311964602264098 ] ] ] ] } },
{ "type": "Feature", "properties": { "fid": 10575, "Layer": "Outbuildings" }, "geometry": { "type": "MultiPolygon", "coordinates": [ [ [ [ 26.690985522338202, 39.312979481295308 ], [ 26.690960372031817, 39.313014555495535 ], [ 26.690951660131297, 39.313023790738946 ], [ 26.690922934605744, 39.313009351997565 ], [ 26.690956430506404, 39.312965937621016 ], [ 26.690985522338202, 39.312979481295308 ] ] ] ] } },
{ "type": "Feature", "properties": { "fid": 10576, "Layer": "Outbuildings" }, "geometry": { "type": "MultiPolygon", "coordinates": [ [ [ [ 26.691037695568742, 39.312748946700076 ], [ 26.69101780665077, 39.312740554131778 ], [ 26.691007749292552, 39.312754937558445 ], [ 26.691027636418951, 39.312763331028599 ], [ 26.691037695568742, 39.312748946700076 ] ] ] ] } },
{ "type": "Feature", "properties": { "fid": 10597, "Layer": "Outbuildings" }, "geometry": { "type": "MultiPolygon", "coordinates": [ [ [ [ 26.691707228666584, 39.313200164699431 ], [ 26.691693885888366, 39.31321475997693 ], [ 26.691650464256799, 39.313188838247108 ], [ 26.69166327523364, 39.313175266007377 ], [ 26.691707228666584, 39.313200164699431 ] ] ] ] } },
{ "type": "Feature", "properties": { "fid": 10617, "Layer": "Outbuildings" }, "geometry": { "type": "MultiPolygon", "coordinates": [ [ [ [ 26.69324282862927, 39.315658420197202 ], [ 26.693259137342999, 39.315681660115949 ], [ 26.693224560852073, 39.31569277610599 ], [ 26.693211456434259, 39.315668738426531 ], [ 26.69324282862927, 39.315658420197202 ] ] ] ] } },
{ "type": "Feature", "properties": { "fid": 10669, "Layer": "Outbuildings" }, "geometry": { "type": "MultiPolygon", "coordinates": [ [ [ [ 26.694904072392305, 39.31547193128938 ], [ 26.694900217013863, 39.315454368771796 ], [ 26.69492273525788, 39.315451719674563 ], [ 26.694926167379542, 39.315469333888757 ], [ 26.694904072392305, 39.31547193128938 ] ] ] ] } },
{ "type": "Feature", "properties": { "fid": 10821, "Layer": "Outbuildings" }, "geometry": { "type": "MultiPolygon", "coordinates": [ [ [ [ 26.69387929146869, 39.317637257623055 ], [ 26.693885408040281, 39.317615901788514 ], [ 26.693831945782019, 39.317606658895514 ], [ 26.693825826519252, 39.317628014732506 ], [ 26.69387929146869, 39.317637257623055 ] ] ] ] } },
{ "type": "Feature", "properties": { "fid": 10884, "Layer": "Outbuildings" }, "geometry": { "type": "MultiPolygon", "coordinates": [ [ [ [ 26.693657386840339, 39.317167433822888 ], [ 26.693657769176443, 39.317191967451045 ], [ 26.693727481276152, 39.317191309276197 ], [ 26.693726859544469, 39.317165359061732 ], [ 26.693657386840339, 39.317167433822888 ] ] ] ] } },
{ "type": "Feature", "properties": { "fid": 10886, "Layer": "Outbuildings" }, "geometry": { "type": "MultiPolygon", "coordinates": [ [ [ [ 26.693657769176443, 39.317191967451045 ], [ 26.693658306983945, 39.317226271861443 ], [ 26.693688058298196, 39.317226175200474 ], [ 26.693687875060714, 39.317191683236949 ], [ 26.693657769176443, 39.317191967451045 ] ] ] ] } },
{ "type": "Feature", "properties": { "fid": 10935, "Layer": "Outbuildings" }, "geometry": { "type": "MultiPolygon", "coordinates": [ ] } },
{ "type": "Feature", "properties": { "fid": 10936, "Layer": "Outbuildings" }, "geometry": { "type": "MultiPolygon", "coordinates": [ ] } },
{ "type": "Feature", "properties": { "fid": 10937, "Layer": "Outbuildings" }, "geometry": { "type": "MultiPolygon", "coordinates": [ ] } },
{ "type": "Feature", "properties": { "fid": 10938, "Layer": "Outbuildings" }, "geometry": { "type": "MultiPolygon", "coordinates": [ ] } },
{ "type": "Feature", "properties": { "fid": 10965, "Layer": "Outbuildings" }, "geometry": { "type": "MultiPolygon", "coordinates": [ [ [ [ 26.694675995936155, 39.316790742607658 ], [ 26.694667885557202, 39.316760375140973 ], [ 26.694723591651737, 39.316751397284605 ], [ 26.694734819310057, 39.316781686271149 ], [ 26.694675995936155, 39.316790742607658 ] ] ] ] } },
{ "type": "Feature", "properties": { "fid": 10966, "Layer": "Outbuildings" }, "geometry": { "type": "MultiPolygon", "coordinates": [ [ [ [ 26.694728416152412, 39.316651911240044 ], [ 26.694752651411189, 39.316647766340047 ], [ 26.694770257022643, 39.316709864597293 ], [ 26.694745557827826, 39.316713980220655 ], [ 26.694728416152412, 39.316651911240044 ] ] ] ] } },
{ "type": "Feature", "properties": { "fid": 10967, "Layer": "Outbuildings" }, "geometry": { "type": "MultiPolygon", "coordinates": [ [ [ [ 26.695184668994433, 39.316563400021515 ], [ 26.695135161851059, 39.316571851014601 ], [ 26.695149878209037, 39.31662386234899 ], [ 26.695199386254512, 39.316615409553378 ], [ 26.695184668994433, 39.316563400021515 ] ] ] ] } },
{ "type": "Feature", "properties": { "fid": 10968, "Layer": "Outbuildings" }, "geometry": { "type": "MultiPolygon", "coordinates": [ [ [ [ 26.695135161851059, 39.316571851014601 ], [ 26.695074824995572, 39.316582153641534 ], [ 26.695103163225976, 39.316682310356356 ], [ 26.695164552719298, 39.316674259785302 ], [ 26.695150274498193, 39.316623795374547 ], [ 26.695135161851059, 39.316571851014601 ] ] ] ] } },
{ "type": "Feature", "properties": { "fid": null, "Layer": null }, "geometry": { "type": "MultiPolygon", "coordinates": [ [ [ [ 26.693761787099014, 39.321824468986634 ], [ 26.693751453070853, 39.321800791693811 ], [ 26.693781493114894, 39.321792237772009 ], [ 26.693792261381137, 39.321817386783508 ], [ 26.693761787099014, 39.321824468986634 ] ] ] ] } },
{ "type": "Feature", "properties": { "fid": null, "Layer": null }, "geometry": { "type": "MultiPolygon", "coordinates": [ [ [ [ 26.693952848606209, 39.321815630402455 ], [ 26.693992520680276, 39.321807595058829 ], [ 26.693978211447195, 39.321754065627424 ], [ 26.693939353569807, 39.321763648546252 ], [ 26.693952848606209, 39.321815630402455 ] ] ] ] } },
{ "type": "Feature", "properties": { "fid": null, "Layer": null }, "geometry": { "type": "MultiPolygon", "coordinates": [ [ [ [ 26.693607213812463, 39.322066003941622 ], [ 26.693654320966328, 39.322055944160063 ], [ 26.693628008709403, 39.322002967776839 ], [ 26.693579631453169, 39.322014318306927 ], [ 26.693607213812463, 39.322066003941622 ] ] ] ] } },
{ "type": "Feature", "properties": { "fid": null, "Layer": null }, "geometry": { "type": "MultiPolygon", "coordinates": [ [ [ [ 26.693850418058251, 39.321950784884578 ], [ 26.693874660109511, 39.322020461982852 ], [ 26.693926301251832, 39.322007722722667 ], [ 26.693907088648658, 39.321937488515907 ], [ 26.693850418058251, 39.321950784884578 ] ] ] ] } },
{ "type": "Feature", "properties": { "fid": null, "Layer": null }, "geometry": { "type": "MultiPolygon", "coordinates": [ [ [ [ 26.693874660109508, 39.322020461982852 ], [ 26.693881854857043, 39.322044812498568 ], [ 26.693965493797116, 39.32202602781576 ], [ 26.693957204169163, 39.322000827755488 ], [ 26.693874660109508, 39.322020461982852 ] ] ] ] } },
{ "type": "Feature", "properties": { "fid": null, "Layer": null }, "geometry": { "type": "MultiPolygon", "coordinates": [ [ [ [ 26.694571501137055, 39.323077237109267 ], [ 26.694560733954212, 39.323050064165976 ], [ 26.69454060789943, 39.323007096453367 ], [ 26.694592191161391, 39.322990675589281 ], [ 26.694623294349302, 39.323032184285694 ], [ 26.694631462657455, 39.323065755687061 ], [ 26.694571501137055, 39.323077237109267 ] ] ] ] } },
{ "type": "Feature", "properties": { "fid": null, "Layer": null }, "geometry": { "type": "MultiPolygon", "coordinates": [ [ [ [ 26.694852301599283, 39.323410238369831 ], [ 26.69483203891723, 39.32338552611602 ], [ 26.694867953854644, 39.323364683013551 ], [ 26.694887259003938, 39.323391569393813 ], [ 26.694852301599283, 39.323410238369831 ] ] ] ] } },
{ "type": "Feature", "properties": { "fid": null, "Layer": null }, "geometry": { "type": "MultiPolygon", "coordinates": [ [ [ [ 26.695187089167348, 39.324272325375027 ], [ 26.695214470522195, 39.324261593090782 ], [ 26.695187344590696, 39.324219843040829 ], [ 26.695160043224536, 39.324230913920786 ], [ 26.695187089167348, 39.324272325375027 ] ] ] ] } },
{ "type": "Feature", "properties": { "fid": null, "Layer": null }, "geometry": { "type": "MultiPolygon", "coordinates": [ [ [ [ 26.697381259671896, 39.324445488957956 ], [ 26.697354374778971, 39.324405345235824 ], [ 26.697444407908755, 39.324375842003661 ], [ 26.697466290961131, 39.324416953061458 ], [ 26.697381259671896, 39.324445488957956 ] ] ] ] } },
{ "type": "Feature", "properties": { "fid": null, "Layer": null }, "geometry": { "type": "MultiPolygon", "coordinates": [ [ [ [ 26.697410149892406, 39.324387068119471 ], [ 26.697385636282366, 39.32434246948015 ], [ 26.697428777157054, 39.324331345302106 ], [ 26.697444407908755, 39.324375842003661 ], [ 26.697410149892406, 39.324387068119471 ] ] ] ] } },
{ "type": "Feature", "properties": { "fid": null, "Layer": null }, "geometry": { "type": "MultiPolygon", "coordinates": [ [ [ [ 26.697385636282362, 39.32434246948015 ], [ 26.697368129840473, 39.324307645960374 ], [ 26.697418148245909, 39.324289266873492 ], [ 26.697428777157054, 39.324331345302106 ], [ 26.697385636282362, 39.32434246948015 ] ] ] ] } },
{ "type": "Feature", "properties": { "fid": null, "Layer": null }, "geometry": { "type": "MultiPolygon", "coordinates": [ [ [ [ 26.696889170525864, 39.324205852347127 ], [ 26.696946406385305, 39.324179609583737 ], [ 26.69692, 39.32414 ], [ 26.696862602041502, 39.324172798835107 ], [ 26.696889170525864, 39.324205852347127 ] ] ] ] } },
{ "type": "Feature", "properties": { "fid": null, "Layer": null }, "geometry": { "type": "MultiPolygon", "coordinates": [ [ [ [ 26.697034709296453, 39.323685174636708 ], [ 26.697016045878279, 39.323653337836156 ], [ 26.697054808362175, 39.323627053955029 ], [ 26.697093570846082, 39.323663703307702 ], [ 26.697044998103905, 39.32368850639407 ], [ 26.697034709296453, 39.323685174636708 ] ] ] ] } },
{ "type": "Feature", "properties": { "fid": null, "Layer": null }, "geometry": { "type": "MultiPolygon", "coordinates": [ [ [ [ 26.697187845035312, 39.323529322254039 ], [ 26.697218950732267, 39.32355264460417 ], [ 26.697163439026934, 39.323598178693949 ], [ 26.697158653535094, 39.323594476736538 ], [ 26.697131376231603, 39.323613356717289 ], [ 26.697107448772407, 39.323594476736538 ], [ 26.697187845035312, 39.323529322254039 ] ] ] ] } },
{ "type": "Feature", "properties": { "fid": null, "Layer": null }, "geometry": { "type": "MultiPolygon", "coordinates": [ [ [ [ 26.696109171227508, 39.324303701679234 ], [ 26.696123993465005, 39.324325630734101 ], [ 26.696158913720772, 39.32431077688527 ], [ 26.696142842403265, 39.324288362673613 ], [ 26.696109171227508, 39.324303701679234 ] ] ] ] } },
{ "type": "Feature", "properties": { "fid": 5493, "Layer": null }, "geometry": { "type": "MultiPolygon", "coordinates": [ [ [ [ 26.696294301943567, 39.324294356104247 ], [ 26.696281828873559, 39.32427675038582 ], [ 26.696237642045787, 39.324299218971554 ], [ 26.696251873292614, 39.324316758423393 ], [ 26.696294301943567, 39.324294356104247 ] ] ] ] } },
{ "type": "Feature", "properties": { "fid": null, "Layer": null }, "geometry": { "type": "MultiPolygon", "coordinates": [ [ [ [ 26.695665580650722, 39.31405588012634 ], [ 26.695681890676401, 39.314053645058699 ], [ 26.695697779409873, 39.314084190976516 ], [ 26.695678747853407, 39.31408935255925 ], [ 26.695665580650722, 39.31405588012634 ] ] ] ] } },
{ "type": "Feature", "properties": { "fid": null, "Layer": null }, "geometry": { "type": "MultiPolygon", "coordinates": [ [ [ [ 26.687213644181554, 39.311680760280339 ], [ 26.687603983393224, 39.311773267715779 ], [ 26.687540685142682, 39.311920191038318 ], [ 26.687166905697364, 39.311804723319568 ], [ 26.687213644181554, 39.311680760280339 ] ] ] ] } },
{ "type": "Feature", "properties": { "fid": null, "Layer": null }, "geometry": { "type": "MultiPolygon", "coordinates": [ [ [ [ 26.688335429843921, 39.312067114052375 ], [ 26.688405761233412, 39.311950119825454 ], [ 26.688476092622899, 39.311969165410623 ], [ 26.688490158900795, 39.311944678228755 ], [ 26.688676537082948, 39.312001814973101 ], [ 26.688602689123982, 39.312148737815754 ], [ 26.688335429843921, 39.312067114052375 ] ] ] ] } },
{ "type": "Feature", "properties": { "fid": null, "Layer": null }, "geometry": { "type": "MultiPolygon", "coordinates": [ [ [ [ 26.688359446965812, 39.312027162288558 ], [ 26.688068170563856, 39.311931074235133 ], [ 26.688142018522822, 39.311792313349059 ], [ 26.688479609192377, 39.31190386623993 ], [ 26.688451147692437, 39.311962410379067 ], [ 26.688405761233412, 39.311950119825454 ], [ 26.688359446965812, 39.312027162288558 ] ] ] ] } },
{ "type": "Feature", "properties": { "fid": null, "Layer": null }, "geometry": { "type": "MultiPolygon", "coordinates": [ [ [ [ 26.688310813857594, 39.311795714354467 ], [ 26.688131468814394, 39.311723613004602 ], [ 26.6881930087802, 39.311633826314129 ], [ 26.688377628677607, 39.311703206948707 ], [ 26.688310813857594, 39.311795714354467 ] ] ] ] } },
{ "type": "Feature", "properties": { "fid": null, "Layer": null }, "geometry": { "type": "MultiPolygon", "coordinates": [ [ [ [ 26.688488400616059, 39.311733135828668 ], [ 26.688495433755008, 39.311737217038569 ], [ 26.688572798283445, 39.311588932925687 ], [ 26.688859398695623, 39.311684161291168 ], [ 26.688785550736654, 39.311814759981637 ], [ 26.688488400616059, 39.311733135828668 ] ] ] ] } },
{ "type": "Feature", "properties": { "fid": null, "Layer": null }, "geometry": { "type": "MultiPolygon", "coordinates": [ [ [ [ 26.688305539003387, 39.311354942677227 ], [ 26.687904650083286, 39.311208018167804 ], [ 26.687957398625414, 39.311123672476718 ], [ 26.688354770976034, 39.311278759636785 ], [ 26.688305539003387, 39.311354942677227 ] ] ] ] } },
{ "type": "Feature", "properties": { "fid": 10510, "Layer": "Extensions" }, "geometry": { "type": "MultiPolygon", "coordinates": [ [ [ [ 26.690026711624988, 39.313251764911975 ], [ 26.690039998095095, 39.313236484337352 ], [ 26.690009116029429, 39.313222870731693 ], [ 26.690000110662886, 39.313229780745445 ], [ 26.690009116029429, 39.313233983879371 ], [ 26.690003370528846, 39.313243985710763 ], [ 26.690026711624988, 39.313251764911975 ] ] ] ] } },
{ "type": "Feature", "properties": { "fid": null, "Layer": null }, "geometry": { "type": "MultiPolygon", "coordinates": [ [ [ [ 26.690339512438722, 39.313993780959159 ], [ 26.690307346460656, 39.31395583946361 ], [ 26.690371678416788, 39.31392483349498 ], [ 26.690401207839283, 39.31396359095362 ], [ 26.690339512438722, 39.313993780959159 ] ] ] ] } },
{ "type": "Feature", "properties": { "fid": null, "Layer": null }, "geometry": { "type": "MultiPolygon", "coordinates": [ [ [ [ 26.690661205176358, 39.31453775978968 ], [ 26.690639523736319, 39.314506550199887 ], [ 26.690679728311355, 39.314490245927466 ], [ 26.690702203615619, 39.314520217086617 ], [ 26.690661205176358, 39.31453775978968 ] ] ] ] } },
{ "type": "Feature", "properties": { "fid": null, "Layer": null }, "geometry": { "type": "MultiPolygon", "coordinates": [ [ [ [ 26.690729111979081, 39.31442606582776 ], [ 26.690719719161766, 39.31441369639419 ], [ 26.690776080825607, 39.314385338048588 ], [ 26.690789035724109, 39.314402670569599 ], [ 26.690780245660758, 39.314406801365251 ], [ 26.690787628016384, 39.314417408598786 ], [ 26.690737520965161, 39.31443713964871 ], [ 26.690729111979081, 39.31442606582776 ] ] ] ] } },
{ "type": "Feature", "properties": { "fid": null, "Layer": null }, "geometry": { "type": "MultiPolygon", "coordinates": [ [ [ [ 26.690955247037351, 39.314513587575611 ], [ 26.690947468705108, 39.314502792744435 ], [ 26.690974800400138, 39.314492394585791 ], [ 26.690981572843071, 39.314504682304872 ], [ 26.690955247037351, 39.314513587575611 ] ] ] ] } },
{ "type": "Feature", "properties": { "fid": null, "Layer": null }, "geometry": { "type": "MultiPolygon", "coordinates": [ [ [ [ 26.690934067405685, 39.315146726758201 ], [ 26.690923081059271, 39.315129415472853 ], [ 26.690949446615065, 39.315118808347272 ], [ 26.690959235616685, 39.315136320975569 ], [ 26.690934067405685, 39.315146726758201 ] ] ] ] } },
{ "type": "Feature", "properties": { "fid": null, "Layer": null }, "geometry": { "type": "MultiPolygon", "coordinates": [ [ [ [ 26.696393212611508, 39.321962850456316 ], [ 26.6964331505784, 39.321950945445614 ], [ 26.696414829324446, 39.321909757811099 ], [ 26.696382446846897, 39.321922249324381 ], [ 26.696393212611508, 39.321962850456316 ] ] ] ] } },
{ "type": "Feature", "properties": { "fid": 7311, "Layer": "Extensions" }, "geometry": { "type": "MultiPolygon", "coordinates": [ [ [ [ 26.697538059432084, 39.326981982802849 ], [ 26.697516716527932, 39.326957918936671 ], [ 26.697577418092077, 39.326934201320881 ], [ 26.697599547447023, 39.326957303719531 ], [ 26.697538059432084, 39.326981982802849 ] ] ] ] } },
{ "type": "Feature", "properties": { "fid": null, "Layer": null }, "geometry": { "type": "MultiPolygon", "coordinates": [ [ [ [ 26.696424327817738, 39.322836890207874 ], [ 26.696491970379416, 39.322835085812905 ], [ 26.696489279030811, 39.32280441109129 ], [ 26.696424059330663, 39.322806237325409 ], [ 26.696424327817738, 39.322836890207874 ] ] ] ] } },
{ "type": "Feature", "properties": { "fid": null, "Layer": null }, "geometry": { "type": "MultiPolygon", "coordinates": [ [ [ [ 26.696437246271699, 39.322805868074376 ], [ 26.696435810905133, 39.322771515560419 ], [ 26.696483282965932, 39.322770447078916 ], [ 26.696484028039087, 39.322804558125696 ], [ 26.696437246271699, 39.322805868074376 ] ] ] ] } },
{ "type": "Feature", "properties": { "fid": null, "Layer": null }, "geometry": { "type": "MultiPolygon", "coordinates": [ [ [ [ 26.69645543968468, 39.32277107376396 ], [ 26.696454605489574, 39.322739661012591 ], [ 26.696479604218752, 39.322738232205083 ], [ 26.696483282965932, 39.322770447078916 ], [ 26.69645543968468, 39.32277107376396 ] ] ] ] } },
{ "type": "Feature", "properties": { "fid": null, "Layer": null }, "geometry": { "type": "MultiPolygon", "coordinates": [ [ [ [ 26.696685177468748, 39.322354576555078 ], [ 26.696676061981755, 39.322333034065345 ], [ 26.696711462690988, 39.322324095538754 ], [ 26.696719145295038, 39.322345606847044 ], [ 26.696685177468748, 39.322354576555078 ] ] ] ] } },
{ "type": "Feature", "properties": { "fid": null, "Layer": null }, "geometry": { "type": "MultiPolygon", "coordinates": [ [ [ [ 26.696423266368502, 39.320625014503719 ], [ 26.696403281249687, 39.320614523292683 ], [ 26.696418270088802, 39.320594093035062 ], [ 26.696440396470351, 39.320607345094736 ], [ 26.696423266368502, 39.320625014503719 ] ] ] ] } },
{ "type": "Feature", "properties": { "fid": null, "Layer": null }, "geometry": { "type": "MultiPolygon", "coordinates": [ [ [ [ 26.698200701817854, 39.319745077290293 ], [ 26.698206677846276, 39.31973899201374 ], [ 26.698229071809376, 39.319754530446616 ], [ 26.698221655118921, 39.319760304198439 ], [ 26.698200701817854, 39.319745077290293 ] ] ] ] } },
{ "type": "Feature", "properties": { "fid": null, "Layer": null }, "geometry": { "type": "MultiPolygon", "coordinates": [ [ [ [ 26.699596303957112, 39.317795230772575 ], [ 26.699598579742023, 39.317772179968848 ], [ 26.699664867812324, 39.317768959602724 ], [ 26.699663543667928, 39.317792157084575 ], [ 26.699596303957112, 39.317795230772575 ] ] ] ] } },
{ "type": "Feature", "properties": { "fid": null, "Layer": null }, "geometry": { "type": "MultiPolygon", "coordinates": [ [ [ [ 26.699573575484497, 39.317632532373267 ], [ 26.69961, 39.317629468897891 ], [ 26.699605224292743, 39.317669102831864 ], [ 26.699577995592545, 39.317670477329948 ], [ 26.699573575484497, 39.317632532373267 ] ] ] ] } },
{ "type": "Feature", "properties": { "fid": null, "Layer": null }, "geometry": { "type": "MultiPolygon", "coordinates": [ [ [ [ 26.699733803394988, 39.317972447771311 ], [ 26.699724165798951, 39.317942209363359 ], [ 26.699760574495066, 39.317932682191007 ], [ 26.69977396004511, 39.317964163277281 ], [ 26.699733803394988, 39.317972447771311 ] ] ] ] } },
{ "type": "Feature", "properties": { "fid": null, "Layer": null }, "geometry": { "type": "MultiPolygon", "coordinates": [ [ [ [ 26.699353420567881, 39.317544277212114 ], [ 26.699352925934424, 39.317531526865842 ], [ 26.69937, 39.317531526865842 ], [ 26.69937, 39.317544575024193 ], [ 26.699353420567881, 39.317544277212114 ] ] ] ] } }
]
}
