<?xml version="1.0" encoding="utf-8"?>
<kml xmlns="http://www.opengis.net/kml/2.2">
  <Document>
    <name>18/150521/162278.kml</name>
    <description></description>
    <Style>
      <ListStyle id="hideChildren">
        <listItemType>checkHideChildren</listItemType>
      </ListStyle>
    </Style>
    <Region>
      <LatLonAltBox>
        <north>39.34173234304089</north>
        <south>39.34067026099156</south>
        <east>26.71051025390626</east>
        <west>26.70913696289064</west>
      </LatLonAltBox>
      <Lod>
        <minLodPixels>128</minLodPixels>
        <maxLodPixels>2048</maxLodPixels>
      </Lod>
    </Region>
    <GroundOverlay>
      <drawOrder>36</drawOrder>
      <Icon>
        <href>162278.png</href>
      </Icon>
      <LatLonBox>
        <north>39.34173234304089</north>
        <south>39.34067026099156</south>
        <east>26.71051025390626</east>
        <west>26.70913696289064</west>
      </LatLonBox>
    </GroundOverlay>

    <NetworkLink>
      <name>19/301042/324556.png</name>
      <Region>
        <LatLonAltBox>
          <north>39.34120130403343</north>
          <south>39.34067026099156</south>
          <east>26.70982360839845</east>
          <west>26.70913696289064</west>
        </LatLonAltBox>
        <Lod>
          <minLodPixels>128</minLodPixels>
          <maxLodPixels>-1</maxLodPixels>
        </Lod>
      </Region>
      <Link>
        <href>../../19/301042/324556.kml</href>
        <viewRefreshMode>onRegion</viewRefreshMode>
        <viewFormat/>
      </Link>
    </NetworkLink>
        
    <NetworkLink>
      <name>19/301043/324556.png</name>
      <Region>
        <LatLonAltBox>
          <north>39.34120130403343</north>
          <south>39.34067026099156</south>
          <east>26.71051025390626</east>
          <west>26.70982360839845</west>
        </LatLonAltBox>
        <Lod>
          <minLodPixels>128</minLodPixels>
          <maxLodPixels>-1</maxLodPixels>
        </Lod>
      </Region>
      <Link>
        <href>../../19/301043/324556.kml</href>
        <viewRefreshMode>onRegion</viewRefreshMode>
        <viewFormat/>
      </Link>
    </NetworkLink>
        
    <NetworkLink>
      <name>19/301042/324557.png</name>
      <Region>
        <LatLonAltBox>
          <north>39.34173234304089</north>
          <south>39.34120130403343</south>
          <east>26.70982360839845</east>
          <west>26.70913696289064</west>
        </LatLonAltBox>
        <Lod>
          <minLodPixels>128</minLodPixels>
          <maxLodPixels>-1</maxLodPixels>
        </Lod>
      </Region>
      <Link>
        <href>../../19/301042/324557.kml</href>
        <viewRefreshMode>onRegion</viewRefreshMode>
        <viewFormat/>
      </Link>
    </NetworkLink>
        
    <NetworkLink>
      <name>19/301043/324557.png</name>
      <Region>
        <LatLonAltBox>
          <north>39.34173234304089</north>
          <south>39.34120130403343</south>
          <east>26.71051025390626</east>
          <west>26.70982360839845</west>
        </LatLonAltBox>
        <Lod>
          <minLodPixels>128</minLodPixels>
          <maxLodPixels>-1</maxLodPixels>
        </Lod>
      </Region>
      <Link>
        <href>../../19/301043/324557.kml</href>
        <viewRefreshMode>onRegion</viewRefreshMode>
        <viewFormat/>
      </Link>
    </NetworkLink>
              </Document>
</kml>
    