<?xml version="1.0" encoding="utf-8"?>
<kml xmlns="http://www.opengis.net/kml/2.2">
  <Document>
    <name>18/150461/162299.kml</name>
    <description></description>
    <Style>
      <ListStyle id="hideChildren">
        <listItemType>checkHideChildren</listItemType>
      </ListStyle>
    </Style>
    <Region>
      <LatLonAltBox>
        <north>39.36403233804798</north>
        <south>39.36297059491874</south>
        <east>26.62811279296876</east>
        <west>26.62673950195314</west>
      </LatLonAltBox>
      <Lod>
        <minLodPixels>128</minLodPixels>
        <maxLodPixels>2048</maxLodPixels>
      </Lod>
    </Region>
    <GroundOverlay>
      <drawOrder>36</drawOrder>
      <Icon>
        <href>162299.png</href>
      </Icon>
      <LatLonBox>
        <north>39.36403233804798</north>
        <south>39.36297059491874</south>
        <east>26.62811279296876</east>
        <west>26.62673950195314</west>
      </LatLonBox>
    </GroundOverlay>

    <NetworkLink>
      <name>19/300922/324598.png</name>
      <Region>
        <LatLonAltBox>
          <north>39.36350146850091</north>
          <south>39.36297059491874</south>
          <east>26.62742614746095</east>
          <west>26.62673950195314</west>
        </LatLonAltBox>
        <Lod>
          <minLodPixels>128</minLodPixels>
          <maxLodPixels>-1</maxLodPixels>
        </Lod>
      </Region>
      <Link>
        <href>../../19/300922/324598.kml</href>
        <viewRefreshMode>onRegion</viewRefreshMode>
        <viewFormat/>
      </Link>
    </NetworkLink>
        
    <NetworkLink>
      <name>19/300923/324598.png</name>
      <Region>
        <LatLonAltBox>
          <north>39.36350146850091</north>
          <south>39.36297059491874</south>
          <east>26.62811279296876</east>
          <west>26.62742614746095</west>
        </LatLonAltBox>
        <Lod>
          <minLodPixels>128</minLodPixels>
          <maxLodPixels>-1</maxLodPixels>
        </Lod>
      </Region>
      <Link>
        <href>../../19/300923/324598.kml</href>
        <viewRefreshMode>onRegion</viewRefreshMode>
        <viewFormat/>
      </Link>
    </NetworkLink>
        
    <NetworkLink>
      <name>19/300922/324599.png</name>
      <Region>
        <LatLonAltBox>
          <north>39.36403233804798</north>
          <south>39.36350146850091</south>
          <east>26.62742614746095</east>
          <west>26.62673950195314</west>
        </LatLonAltBox>
        <Lod>
          <minLodPixels>128</minLodPixels>
          <maxLodPixels>-1</maxLodPixels>
        </Lod>
      </Region>
      <Link>
        <href>../../19/300922/324599.kml</href>
        <viewRefreshMode>onRegion</viewRefreshMode>
        <viewFormat/>
      </Link>
    </NetworkLink>
        
    <NetworkLink>
      <name>19/300923/324599.png</name>
      <Region>
        <LatLonAltBox>
          <north>39.36403233804798</north>
          <south>39.36350146850091</south>
          <east>26.62811279296876</east>
          <west>26.62742614746095</west>
        </LatLonAltBox>
        <Lod>
          <minLodPixels>128</minLodPixels>
          <maxLodPixels>-1</maxLodPixels>
        </Lod>
      </Region>
      <Link>
        <href>../../19/300923/324599.kml</href>
        <viewRefreshMode>onRegion</viewRefreshMode>
        <viewFormat/>
      </Link>
    </NetworkLink>
              </Document>
</kml>
    