<?xml version="1.0" encoding="utf-8"?>
<kml xmlns="http://www.opengis.net/kml/2.2">
  <Document>
    <name>19/300916/324512.kml</name>
    <description></description>
    <Style>
      <ListStyle id="hideChildren">
        <listItemType>checkHideChildren</listItemType>
      </ListStyle>
    </Style>
    <Region>
      <LatLonAltBox>
        <north>39.31783159381383</north>
        <south>39.31730037327102</south>
        <east>26.62330627441408</east>
        <west>26.62261962890626</west>
      </LatLonAltBox>
      <Lod>
        <minLodPixels>128</minLodPixels>
        <maxLodPixels>-1</maxLodPixels>
      </Lod>
    </Region>
    <GroundOverlay>
      <drawOrder>38</drawOrder>
      <Icon>
        <href>324512.png</href>
      </Icon>
      <LatLonBox>
        <north>39.31783159381383</north>
        <south>39.31730037327102</south>
        <east>26.62330627441408</east>
        <west>26.62261962890626</west>
      </LatLonBox>
    </GroundOverlay>
      </Document>
</kml>
    