<?xml version="1.0" encoding="utf-8"?>
<kml xmlns="http://www.opengis.net/kml/2.2">
  <Document>
    <name>19/300901/324484.kml</name>
    <description></description>
    <Style>
      <ListStyle id="hideChildren">
        <listItemType>checkHideChildren</listItemType>
      </ListStyle>
    </Style>
    <Region>
      <LatLonAltBox>
        <north>39.30295589389767</north>
        <south>39.30242456041487</south>
        <east>26.61300659179686</east>
        <west>26.61231994628905</west>
      </LatLonAltBox>
      <Lod>
        <minLodPixels>128</minLodPixels>
        <maxLodPixels>-1</maxLodPixels>
      </Lod>
    </Region>
    <GroundOverlay>
      <drawOrder>38</drawOrder>
      <Icon>
        <href>324484.png</href>
      </Icon>
      <LatLonBox>
        <north>39.30295589389767</north>
        <south>39.30242456041487</south>
        <east>26.61300659179686</east>
        <west>26.61231994628905</west>
      </LatLonBox>
    </GroundOverlay>
      </Document>
</kml>
    