<?xml version="1.0" encoding="utf-8"?>
<kml xmlns="http://www.opengis.net/kml/2.2">
  <Document>
    <name>19/300898/324495.kml</name>
    <description></description>
    <Style>
      <ListStyle id="hideChildren">
        <listItemType>checkHideChildren</listItemType>
      </ListStyle>
    </Style>
    <Region>
      <LatLonAltBox>
        <north>39.30880029600291</north>
        <south>39.30826900688798</south>
        <east>26.61094665527343</east>
        <west>26.61026000976561</west>
      </LatLonAltBox>
      <Lod>
        <minLodPixels>128</minLodPixels>
        <maxLodPixels>-1</maxLodPixels>
      </Lod>
    </Region>
    <GroundOverlay>
      <drawOrder>38</drawOrder>
      <Icon>
        <href>324495.png</href>
      </Icon>
      <LatLonBox>
        <north>39.30880029600291</north>
        <south>39.30826900688798</south>
        <east>26.61094665527343</east>
        <west>26.61026000976561</west>
      </LatLonBox>
    </GroundOverlay>
      </Document>
</kml>
    