<?xml version="1.0" encoding="utf-8"?>
<kml xmlns="http://www.opengis.net/kml/2.2">
  <Document>
    <name>18/150492/162270.kml</name>
    <description></description>
    <Style>
      <ListStyle id="hideChildren">
        <listItemType>checkHideChildren</listItemType>
      </ListStyle>
    </Style>
    <Region>
      <LatLonAltBox>
        <north>39.33323523479627</north>
        <south>39.33217302364838</south>
        <east>26.67068481445314</east>
        <west>26.66931152343751</west>
      </LatLonAltBox>
      <Lod>
        <minLodPixels>128</minLodPixels>
        <maxLodPixels>2048</maxLodPixels>
      </Lod>
    </Region>
    <GroundOverlay>
      <drawOrder>36</drawOrder>
      <Icon>
        <href>162270.png</href>
      </Icon>
      <LatLonBox>
        <north>39.33323523479627</north>
        <south>39.33217302364838</south>
        <east>26.67068481445314</east>
        <west>26.66931152343751</west>
      </LatLonBox>
    </GroundOverlay>

    <NetworkLink>
      <name>19/300984/324540.png</name>
      <Region>
        <LatLonAltBox>
          <north>39.33270413123943</north>
          <south>39.33217302364838</south>
          <east>26.66999816894532</east>
          <west>26.66931152343751</west>
        </LatLonAltBox>
        <Lod>
          <minLodPixels>128</minLodPixels>
          <maxLodPixels>-1</maxLodPixels>
        </Lod>
      </Region>
      <Link>
        <href>../../19/300984/324540.kml</href>
        <viewRefreshMode>onRegion</viewRefreshMode>
        <viewFormat/>
      </Link>
    </NetworkLink>
        
    <NetworkLink>
      <name>19/300985/324540.png</name>
      <Region>
        <LatLonAltBox>
          <north>39.33270413123943</north>
          <south>39.33217302364838</south>
          <east>26.67068481445314</east>
          <west>26.66999816894532</west>
        </LatLonAltBox>
        <Lod>
          <minLodPixels>128</minLodPixels>
          <maxLodPixels>-1</maxLodPixels>
        </Lod>
      </Region>
      <Link>
        <href>../../19/300985/324540.kml</href>
        <viewRefreshMode>onRegion</viewRefreshMode>
        <viewFormat/>
      </Link>
    </NetworkLink>
        
    <NetworkLink>
      <name>19/300984/324541.png</name>
      <Region>
        <LatLonAltBox>
          <north>39.33323523479627</north>
          <south>39.33270413123943</south>
          <east>26.66999816894532</east>
          <west>26.66931152343751</west>
        </LatLonAltBox>
        <Lod>
          <minLodPixels>128</minLodPixels>
          <maxLodPixels>-1</maxLodPixels>
        </Lod>
      </Region>
      <Link>
        <href>../../19/300984/324541.kml</href>
        <viewRefreshMode>onRegion</viewRefreshMode>
        <viewFormat/>
      </Link>
    </NetworkLink>
        
    <NetworkLink>
      <name>19/300985/324541.png</name>
      <Region>
        <LatLonAltBox>
          <north>39.33323523479627</north>
          <south>39.33270413123943</south>
          <east>26.67068481445314</east>
          <west>26.66999816894532</west>
        </LatLonAltBox>
        <Lod>
          <minLodPixels>128</minLodPixels>
          <maxLodPixels>-1</maxLodPixels>
        </Lod>
      </Region>
      <Link>
        <href>../../19/300985/324541.kml</href>
        <viewRefreshMode>onRegion</viewRefreshMode>
        <viewFormat/>
      </Link>
    </NetworkLink>
              </Document>
</kml>
    