<?xml version="1.0" encoding="utf-8"?>
<kml xmlns="http://www.opengis.net/kml/2.2">
  <Document>
    <name>19/300906/324587.kml</name>
    <description></description>
    <Style>
      <ListStyle id="hideChildren">
        <listItemType>checkHideChildren</listItemType>
      </ListStyle>
    </Style>
    <Region>
      <LatLonAltBox>
        <north>39.35766163717121</north>
        <south>39.35713071920419</south>
        <east>26.61643981933592</east>
        <west>26.61575317382811</west>
      </LatLonAltBox>
      <Lod>
        <minLodPixels>128</minLodPixels>
        <maxLodPixels>-1</maxLodPixels>
      </Lod>
    </Region>
    <GroundOverlay>
      <drawOrder>38</drawOrder>
      <Icon>
        <href>324587.png</href>
      </Icon>
      <LatLonBox>
        <north>39.35766163717121</north>
        <south>39.35713071920419</south>
        <east>26.61643981933592</east>
        <west>26.61575317382811</west>
      </LatLonBox>
    </GroundOverlay>
      </Document>
</kml>
    