<?xml version="1.0" encoding="utf-8"?>
<kml xmlns="http://www.opengis.net/kml/2.2">
  <Document>
    <name>17/75264/81148.kml</name>
    <description></description>
    <Style>
      <ListStyle id="hideChildren">
        <listItemType>checkHideChildren</listItemType>
      </ListStyle>
    </Style>
    <Region>
      <LatLonAltBox>
        <north>39.36190883564925</north>
        <south>39.35978526869001</south>
        <east>26.72149658203125</east>
        <west>26.71875000000000</west>
      </LatLonAltBox>
      <Lod>
        <minLodPixels>128</minLodPixels>
        <maxLodPixels>2048</maxLodPixels>
      </Lod>
    </Region>
    <GroundOverlay>
      <drawOrder>34</drawOrder>
      <Icon>
        <href>81148.png</href>
      </Icon>
      <LatLonBox>
        <north>39.36190883564925</north>
        <south>39.35978526869001</south>
        <east>26.72149658203125</east>
        <west>26.71875000000000</west>
      </LatLonBox>
    </GroundOverlay>

    <NetworkLink>
      <name>18/150528/162296.png</name>
      <Region>
        <LatLonAltBox>
          <north>39.36084706023964</north>
          <south>39.35978526869001</south>
          <east>26.72012329101563</east>
          <west>26.71875000000000</west>
        </LatLonAltBox>
        <Lod>
          <minLodPixels>128</minLodPixels>
          <maxLodPixels>-1</maxLodPixels>
        </Lod>
      </Region>
      <Link>
        <href>../../18/150528/162296.kml</href>
        <viewRefreshMode>onRegion</viewRefreshMode>
        <viewFormat/>
      </Link>
    </NetworkLink>
        
    <NetworkLink>
      <name>18/150529/162296.png</name>
      <Region>
        <LatLonAltBox>
          <north>39.36084706023964</north>
          <south>39.35978526869001</south>
          <east>26.72149658203125</east>
          <west>26.72012329101563</west>
        </LatLonAltBox>
        <Lod>
          <minLodPixels>128</minLodPixels>
          <maxLodPixels>-1</maxLodPixels>
        </Lod>
      </Region>
      <Link>
        <href>../../18/150529/162296.kml</href>
        <viewRefreshMode>onRegion</viewRefreshMode>
        <viewFormat/>
      </Link>
    </NetworkLink>
        
    <NetworkLink>
      <name>18/150528/162297.png</name>
      <Region>
        <LatLonAltBox>
          <north>39.36190883564925</north>
          <south>39.36084706023964</south>
          <east>26.72012329101563</east>
          <west>26.71875000000000</west>
        </LatLonAltBox>
        <Lod>
          <minLodPixels>128</minLodPixels>
          <maxLodPixels>-1</maxLodPixels>
        </Lod>
      </Region>
      <Link>
        <href>../../18/150528/162297.kml</href>
        <viewRefreshMode>onRegion</viewRefreshMode>
        <viewFormat/>
      </Link>
    </NetworkLink>
        
    <NetworkLink>
      <name>18/150529/162297.png</name>
      <Region>
        <LatLonAltBox>
          <north>39.36190883564925</north>
          <south>39.36084706023964</south>
          <east>26.72149658203125</east>
          <west>26.72012329101563</west>
        </LatLonAltBox>
        <Lod>
          <minLodPixels>128</minLodPixels>
          <maxLodPixels>-1</maxLodPixels>
        </Lod>
      </Region>
      <Link>
        <href>../../18/150529/162297.kml</href>
        <viewRefreshMode>onRegion</viewRefreshMode>
        <viewFormat/>
      </Link>
    </NetworkLink>
              </Document>
</kml>
    