<?xml version="1.0" encoding="utf-8"?>
<kml xmlns="http://www.opengis.net/kml/2.2">
  <Document>
    <name>17/75264/81159.kml</name>
    <description></description>
    <Style>
      <ListStyle id="hideChildren">
        <listItemType>checkHideChildren</listItemType>
      </ListStyle>
    </Style>
    <Region>
      <LatLonAltBox>
        <north>39.38526381099777</north>
        <south>39.38314095425650</south>
        <east>26.72149658203125</east>
        <west>26.71875000000000</west>
      </LatLonAltBox>
      <Lod>
        <minLodPixels>128</minLodPixels>
        <maxLodPixels>2048</maxLodPixels>
      </Lod>
    </Region>
    <GroundOverlay>
      <drawOrder>34</drawOrder>
      <Icon>
        <href>81159.png</href>
      </Icon>
      <LatLonBox>
        <north>39.38526381099777</north>
        <south>39.38314095425650</south>
        <east>26.72149658203125</east>
        <west>26.71875000000000</west>
      </LatLonBox>
    </GroundOverlay>

    <NetworkLink>
      <name>18/150528/162318.png</name>
      <Region>
        <LatLonAltBox>
          <north>39.38420239069844</north>
          <south>39.38314095425650</south>
          <east>26.72012329101563</east>
          <west>26.71875000000000</west>
        </LatLonAltBox>
        <Lod>
          <minLodPixels>128</minLodPixels>
          <maxLodPixels>-1</maxLodPixels>
        </Lod>
      </Region>
      <Link>
        <href>../../18/150528/162318.kml</href>
        <viewRefreshMode>onRegion</viewRefreshMode>
        <viewFormat/>
      </Link>
    </NetworkLink>
        
    <NetworkLink>
      <name>18/150529/162318.png</name>
      <Region>
        <LatLonAltBox>
          <north>39.38420239069844</north>
          <south>39.38314095425650</south>
          <east>26.72149658203125</east>
          <west>26.72012329101563</west>
        </LatLonAltBox>
        <Lod>
          <minLodPixels>128</minLodPixels>
          <maxLodPixels>-1</maxLodPixels>
        </Lod>
      </Region>
      <Link>
        <href>../../18/150529/162318.kml</href>
        <viewRefreshMode>onRegion</viewRefreshMode>
        <viewFormat/>
      </Link>
    </NetworkLink>
        
    <NetworkLink>
      <name>18/150528/162319.png</name>
      <Region>
        <LatLonAltBox>
          <north>39.38526381099777</north>
          <south>39.38420239069844</south>
          <east>26.72012329101563</east>
          <west>26.71875000000000</west>
        </LatLonAltBox>
        <Lod>
          <minLodPixels>128</minLodPixels>
          <maxLodPixels>-1</maxLodPixels>
        </Lod>
      </Region>
      <Link>
        <href>../../18/150528/162319.kml</href>
        <viewRefreshMode>onRegion</viewRefreshMode>
        <viewFormat/>
      </Link>
    </NetworkLink>
        
    <NetworkLink>
      <name>18/150529/162319.png</name>
      <Region>
        <LatLonAltBox>
          <north>39.38526381099777</north>
          <south>39.38420239069844</south>
          <east>26.72149658203125</east>
          <west>26.72012329101563</west>
        </LatLonAltBox>
        <Lod>
          <minLodPixels>128</minLodPixels>
          <maxLodPixels>-1</maxLodPixels>
        </Lod>
      </Region>
      <Link>
        <href>../../18/150529/162319.kml</href>
        <viewRefreshMode>onRegion</viewRefreshMode>
        <viewFormat/>
      </Link>
    </NetworkLink>
              </Document>
</kml>
    