<?xml version="1.0" encoding="utf-8"?>
<kml xmlns="http://www.opengis.net/kml/2.2">
  <Document>
    <name>19/300983/324558.kml</name>
    <description></description>
    <Style>
      <ListStyle id="hideChildren">
        <listItemType>checkHideChildren</listItemType>
      </ListStyle>
    </Style>
    <Region>
      <LatLonAltBox>
        <north>39.34226337801388</north>
        <south>39.34173234304089</south>
        <east>26.66931152343751</east>
        <west>26.66862487792970</west>
      </LatLonAltBox>
      <Lod>
        <minLodPixels>128</minLodPixels>
        <maxLodPixels>-1</maxLodPixels>
      </Lod>
    </Region>
    <GroundOverlay>
      <drawOrder>38</drawOrder>
      <Icon>
        <href>324558.png</href>
      </Icon>
      <LatLonBox>
        <north>39.34226337801388</north>
        <south>39.34173234304089</south>
        <east>26.66931152343751</east>
        <west>26.66862487792970</west>
      </LatLonBox>
    </GroundOverlay>
      </Document>
</kml>
    