<?xml version="1.0" encoding="utf-8"?>
<kml xmlns="http://www.opengis.net/kml/2.2">
  <Document>
    <name>18/150468/162281.kml</name>
    <description></description>
    <Style>
      <ListStyle id="hideChildren">
        <listItemType>checkHideChildren</listItemType>
      </ListStyle>
    </Style>
    <Region>
      <LatLonAltBox>
        <north>39.34491849236127</north>
        <south>39.34385645872588</south>
        <east>26.63772583007813</east>
        <west>26.63635253906250</west>
      </LatLonAltBox>
      <Lod>
        <minLodPixels>128</minLodPixels>
        <maxLodPixels>2048</maxLodPixels>
      </Lod>
    </Region>
    <GroundOverlay>
      <drawOrder>36</drawOrder>
      <Icon>
        <href>162281.png</href>
      </Icon>
      <LatLonBox>
        <north>39.34491849236127</north>
        <south>39.34385645872588</south>
        <east>26.63772583007813</east>
        <west>26.63635253906250</west>
      </LatLonBox>
    </GroundOverlay>

    <NetworkLink>
      <name>19/300936/324562.png</name>
      <Region>
        <LatLonAltBox>
          <north>39.34438747756086</north>
          <south>39.34385645872588</south>
          <east>26.63703918457032</east>
          <west>26.63635253906250</west>
        </LatLonAltBox>
        <Lod>
          <minLodPixels>128</minLodPixels>
          <maxLodPixels>-1</maxLodPixels>
        </Lod>
      </Region>
      <Link>
        <href>../../19/300936/324562.kml</href>
        <viewRefreshMode>onRegion</viewRefreshMode>
        <viewFormat/>
      </Link>
    </NetworkLink>
        
    <NetworkLink>
      <name>19/300937/324562.png</name>
      <Region>
        <LatLonAltBox>
          <north>39.34438747756086</north>
          <south>39.34385645872588</south>
          <east>26.63772583007813</east>
          <west>26.63703918457032</west>
        </LatLonAltBox>
        <Lod>
          <minLodPixels>128</minLodPixels>
          <maxLodPixels>-1</maxLodPixels>
        </Lod>
      </Region>
      <Link>
        <href>../../19/300937/324562.kml</href>
        <viewRefreshMode>onRegion</viewRefreshMode>
        <viewFormat/>
      </Link>
    </NetworkLink>
        
    <NetworkLink>
      <name>19/300936/324563.png</name>
      <Region>
        <LatLonAltBox>
          <north>39.34491849236127</north>
          <south>39.34438747756086</south>
          <east>26.63703918457032</east>
          <west>26.63635253906250</west>
        </LatLonAltBox>
        <Lod>
          <minLodPixels>128</minLodPixels>
          <maxLodPixels>-1</maxLodPixels>
        </Lod>
      </Region>
      <Link>
        <href>../../19/300936/324563.kml</href>
        <viewRefreshMode>onRegion</viewRefreshMode>
        <viewFormat/>
      </Link>
    </NetworkLink>
        
    <NetworkLink>
      <name>19/300937/324563.png</name>
      <Region>
        <LatLonAltBox>
          <north>39.34491849236127</north>
          <south>39.34438747756086</south>
          <east>26.63772583007813</east>
          <west>26.63703918457032</west>
        </LatLonAltBox>
        <Lod>
          <minLodPixels>128</minLodPixels>
          <maxLodPixels>-1</maxLodPixels>
        </Lod>
      </Region>
      <Link>
        <href>../../19/300937/324563.kml</href>
        <viewRefreshMode>onRegion</viewRefreshMode>
        <viewFormat/>
      </Link>
    </NetworkLink>
              </Document>
</kml>
    