<?xml version="1.0" encoding="utf-8"?>
<kml xmlns="http://www.opengis.net/kml/2.2">
  <Document>
    <name>18/150527/162310.kml</name>
    <description></description>
    <Style>
      <ListStyle id="hideChildren">
        <listItemType>checkHideChildren</listItemType>
      </ListStyle>
    </Style>
    <Region>
      <LatLonAltBox>
        <north>39.37571044717935</north>
        <south>39.37464888160068</south>
        <east>26.71875000000000</east>
        <west>26.71737670898438</west>
      </LatLonAltBox>
      <Lod>
        <minLodPixels>128</minLodPixels>
        <maxLodPixels>2048</maxLodPixels>
      </Lod>
    </Region>
    <GroundOverlay>
      <drawOrder>36</drawOrder>
      <Icon>
        <href>162310.png</href>
      </Icon>
      <LatLonBox>
        <north>39.37571044717935</north>
        <south>39.37464888160068</south>
        <east>26.71875000000000</east>
        <west>26.71737670898438</west>
      </LatLonBox>
    </GroundOverlay>

    <NetworkLink>
      <name>19/301054/324620.png</name>
      <Region>
        <LatLonAltBox>
          <north>39.37517966640772</north>
          <south>39.37464888160068</south>
          <east>26.71806335449219</east>
          <west>26.71737670898438</west>
        </LatLonAltBox>
        <Lod>
          <minLodPixels>128</minLodPixels>
          <maxLodPixels>-1</maxLodPixels>
        </Lod>
      </Region>
      <Link>
        <href>../../19/301054/324620.kml</href>
        <viewRefreshMode>onRegion</viewRefreshMode>
        <viewFormat/>
      </Link>
    </NetworkLink>
        
    <NetworkLink>
      <name>19/301055/324620.png</name>
      <Region>
        <LatLonAltBox>
          <north>39.37517966640772</north>
          <south>39.37464888160068</south>
          <east>26.71875000000000</east>
          <west>26.71806335449219</west>
        </LatLonAltBox>
        <Lod>
          <minLodPixels>128</minLodPixels>
          <maxLodPixels>-1</maxLodPixels>
        </Lod>
      </Region>
      <Link>
        <href>../../19/301055/324620.kml</href>
        <viewRefreshMode>onRegion</viewRefreshMode>
        <viewFormat/>
      </Link>
    </NetworkLink>
        
    <NetworkLink>
      <name>19/301054/324621.png</name>
      <Region>
        <LatLonAltBox>
          <north>39.37571044717935</north>
          <south>39.37517966640772</south>
          <east>26.71806335449219</east>
          <west>26.71737670898438</west>
        </LatLonAltBox>
        <Lod>
          <minLodPixels>128</minLodPixels>
          <maxLodPixels>-1</maxLodPixels>
        </Lod>
      </Region>
      <Link>
        <href>../../19/301054/324621.kml</href>
        <viewRefreshMode>onRegion</viewRefreshMode>
        <viewFormat/>
      </Link>
    </NetworkLink>
        
    <NetworkLink>
      <name>19/301055/324621.png</name>
      <Region>
        <LatLonAltBox>
          <north>39.37571044717935</north>
          <south>39.37517966640772</south>
          <east>26.71875000000000</east>
          <west>26.71806335449219</west>
        </LatLonAltBox>
        <Lod>
          <minLodPixels>128</minLodPixels>
          <maxLodPixels>-1</maxLodPixels>
        </Lod>
      </Region>
      <Link>
        <href>../../19/301055/324621.kml</href>
        <viewRefreshMode>onRegion</viewRefreshMode>
        <viewFormat/>
      </Link>
    </NetworkLink>
              </Document>
</kml>
    