<?xml version="1.0" encoding="utf-8"?>
<kml xmlns="http://www.opengis.net/kml/2.2">
  <Document>
    <name>16/37623/40579.kml</name>
    <description></description>
    <Style>
      <ListStyle id="hideChildren">
        <listItemType>checkHideChildren</listItemType>
      </ListStyle>
    </Style>
    <Region>
      <LatLonAltBox>
        <north>39.38526381099777</north>
        <south>39.38101803294520</south>
        <east>26.67480468750000</east>
        <west>26.66931152343751</west>
      </LatLonAltBox>
      <Lod>
        <minLodPixels>128</minLodPixels>
        <maxLodPixels>2048</maxLodPixels>
      </Lod>
    </Region>
    <GroundOverlay>
      <drawOrder>32</drawOrder>
      <Icon>
        <href>40579.png</href>
      </Icon>
      <LatLonBox>
        <north>39.38526381099777</north>
        <south>39.38101803294520</south>
        <east>26.67480468750000</east>
        <west>26.66931152343751</west>
      </LatLonBox>
    </GroundOverlay>

    <NetworkLink>
      <name>17/75246/81158.png</name>
      <Region>
        <LatLonAltBox>
          <north>39.38314095425650</north>
          <south>39.38101803294520</south>
          <east>26.67205810546876</east>
          <west>26.66931152343751</west>
        </LatLonAltBox>
        <Lod>
          <minLodPixels>128</minLodPixels>
          <maxLodPixels>-1</maxLodPixels>
        </Lod>
      </Region>
      <Link>
        <href>../../17/75246/81158.kml</href>
        <viewRefreshMode>onRegion</viewRefreshMode>
        <viewFormat/>
      </Link>
    </NetworkLink>
        
    <NetworkLink>
      <name>17/75247/81158.png</name>
      <Region>
        <LatLonAltBox>
          <north>39.38314095425650</north>
          <south>39.38101803294520</south>
          <east>26.67480468750000</east>
          <west>26.67205810546876</west>
        </LatLonAltBox>
        <Lod>
          <minLodPixels>128</minLodPixels>
          <maxLodPixels>-1</maxLodPixels>
        </Lod>
      </Region>
      <Link>
        <href>../../17/75247/81158.kml</href>
        <viewRefreshMode>onRegion</viewRefreshMode>
        <viewFormat/>
      </Link>
    </NetworkLink>
        
    <NetworkLink>
      <name>17/75246/81159.png</name>
      <Region>
        <LatLonAltBox>
          <north>39.38526381099777</north>
          <south>39.38314095425650</south>
          <east>26.67205810546876</east>
          <west>26.66931152343751</west>
        </LatLonAltBox>
        <Lod>
          <minLodPixels>128</minLodPixels>
          <maxLodPixels>-1</maxLodPixels>
        </Lod>
      </Region>
      <Link>
        <href>../../17/75246/81159.kml</href>
        <viewRefreshMode>onRegion</viewRefreshMode>
        <viewFormat/>
      </Link>
    </NetworkLink>
        
    <NetworkLink>
      <name>17/75247/81159.png</name>
      <Region>
        <LatLonAltBox>
          <north>39.38526381099777</north>
          <south>39.38314095425650</south>
          <east>26.67480468750000</east>
          <west>26.67205810546876</west>
        </LatLonAltBox>
        <Lod>
          <minLodPixels>128</minLodPixels>
          <maxLodPixels>-1</maxLodPixels>
        </Lod>
      </Region>
      <Link>
        <href>../../17/75247/81159.kml</href>
        <viewRefreshMode>onRegion</viewRefreshMode>
        <viewFormat/>
      </Link>
    </NetworkLink>
              </Document>
</kml>
    