<?xml version="1.0" encoding="utf-8"?>
<kml xmlns="http://www.opengis.net/kml/2.2">
  <Document>
    <name>19/300892/324489.kml</name>
    <description></description>
    <Style>
      <ListStyle id="hideChildren">
        <listItemType>checkHideChildren</listItemType>
      </ListStyle>
    </Style>
    <Region>
      <LatLonAltBox>
        <north>39.30561250081085</north>
        <south>39.30508118749506</south>
        <east>26.60682678222656</east>
        <west>26.60614013671875</west>
      </LatLonAltBox>
      <Lod>
        <minLodPixels>128</minLodPixels>
        <maxLodPixels>-1</maxLodPixels>
      </Lod>
    </Region>
    <GroundOverlay>
      <drawOrder>38</drawOrder>
      <Icon>
        <href>324489.png</href>
      </Icon>
      <LatLonBox>
        <north>39.30561250081085</north>
        <south>39.30508118749506</south>
        <east>26.60682678222656</east>
        <west>26.60614013671875</west>
      </LatLonBox>
    </GroundOverlay>
      </Document>
</kml>
    