<?xml version="1.0" encoding="utf-8"?>
<kml xmlns="http://www.opengis.net/kml/2.2">
  <Document>
    <name>18/150473/162279.kml</name>
    <description></description>
    <Style>
      <ListStyle id="hideChildren">
        <listItemType>checkHideChildren</listItemType>
      </ListStyle>
    </Style>
    <Region>
      <LatLonAltBox>
        <north>39.34279440895236</north>
        <south>39.34173234304089</south>
        <east>26.64459228515625</east>
        <west>26.64321899414062</west>
      </LatLonAltBox>
      <Lod>
        <minLodPixels>128</minLodPixels>
        <maxLodPixels>2048</maxLodPixels>
      </Lod>
    </Region>
    <GroundOverlay>
      <drawOrder>36</drawOrder>
      <Icon>
        <href>162279.png</href>
      </Icon>
      <LatLonBox>
        <north>39.34279440895236</north>
        <south>39.34173234304089</south>
        <east>26.64459228515625</east>
        <west>26.64321899414062</west>
      </LatLonBox>
    </GroundOverlay>

    <NetworkLink>
      <name>19/300946/324558.png</name>
      <Region>
        <LatLonAltBox>
          <north>39.34226337801388</north>
          <south>39.34173234304089</south>
          <east>26.64390563964844</east>
          <west>26.64321899414062</west>
        </LatLonAltBox>
        <Lod>
          <minLodPixels>128</minLodPixels>
          <maxLodPixels>-1</maxLodPixels>
        </Lod>
      </Region>
      <Link>
        <href>../../19/300946/324558.kml</href>
        <viewRefreshMode>onRegion</viewRefreshMode>
        <viewFormat/>
      </Link>
    </NetworkLink>
        
    <NetworkLink>
      <name>19/300947/324558.png</name>
      <Region>
        <LatLonAltBox>
          <north>39.34226337801388</north>
          <south>39.34173234304089</south>
          <east>26.64459228515625</east>
          <west>26.64390563964844</west>
        </LatLonAltBox>
        <Lod>
          <minLodPixels>128</minLodPixels>
          <maxLodPixels>-1</maxLodPixels>
        </Lod>
      </Region>
      <Link>
        <href>../../19/300947/324558.kml</href>
        <viewRefreshMode>onRegion</viewRefreshMode>
        <viewFormat/>
      </Link>
    </NetworkLink>
        
    <NetworkLink>
      <name>19/300946/324559.png</name>
      <Region>
        <LatLonAltBox>
          <north>39.34279440895236</north>
          <south>39.34226337801388</south>
          <east>26.64390563964844</east>
          <west>26.64321899414062</west>
        </LatLonAltBox>
        <Lod>
          <minLodPixels>128</minLodPixels>
          <maxLodPixels>-1</maxLodPixels>
        </Lod>
      </Region>
      <Link>
        <href>../../19/300946/324559.kml</href>
        <viewRefreshMode>onRegion</viewRefreshMode>
        <viewFormat/>
      </Link>
    </NetworkLink>
        
    <NetworkLink>
      <name>19/300947/324559.png</name>
      <Region>
        <LatLonAltBox>
          <north>39.34279440895236</north>
          <south>39.34226337801388</south>
          <east>26.64459228515625</east>
          <west>26.64390563964844</west>
        </LatLonAltBox>
        <Lod>
          <minLodPixels>128</minLodPixels>
          <maxLodPixels>-1</maxLodPixels>
        </Lod>
      </Region>
      <Link>
        <href>../../19/300947/324559.kml</href>
        <viewRefreshMode>onRegion</viewRefreshMode>
        <viewFormat/>
      </Link>
    </NetworkLink>
              </Document>
</kml>
    