<?xml version="1.0" encoding="utf-8"?>
<kml xmlns="http://www.opengis.net/kml/2.2">
  <Document>
    <name>17/75255/81135.kml</name>
    <description></description>
    <Style>
      <ListStyle id="hideChildren">
        <listItemType>checkHideChildren</listItemType>
      </ListStyle>
    </Style>
    <Region>
      <LatLonAltBox>
        <north>39.33429742980725</north>
        <south>39.33217302364838</south>
        <east>26.69677734374999</east>
        <west>26.69403076171874</west>
      </LatLonAltBox>
      <Lod>
        <minLodPixels>128</minLodPixels>
        <maxLodPixels>2048</maxLodPixels>
      </Lod>
    </Region>
    <GroundOverlay>
      <drawOrder>34</drawOrder>
      <Icon>
        <href>81135.png</href>
      </Icon>
      <LatLonBox>
        <north>39.33429742980725</north>
        <south>39.33217302364838</south>
        <east>26.69677734374999</east>
        <west>26.69403076171874</west>
      </LatLonBox>
    </GroundOverlay>

    <NetworkLink>
      <name>18/150510/162270.png</name>
      <Region>
        <LatLonAltBox>
          <north>39.33323523479627</north>
          <south>39.33217302364838</south>
          <east>26.69540405273436</east>
          <west>26.69403076171874</west>
        </LatLonAltBox>
        <Lod>
          <minLodPixels>128</minLodPixels>
          <maxLodPixels>-1</maxLodPixels>
        </Lod>
      </Region>
      <Link>
        <href>../../18/150510/162270.kml</href>
        <viewRefreshMode>onRegion</viewRefreshMode>
        <viewFormat/>
      </Link>
    </NetworkLink>
        
    <NetworkLink>
      <name>18/150511/162270.png</name>
      <Region>
        <LatLonAltBox>
          <north>39.33323523479627</north>
          <south>39.33217302364838</south>
          <east>26.69677734374999</east>
          <west>26.69540405273436</west>
        </LatLonAltBox>
        <Lod>
          <minLodPixels>128</minLodPixels>
          <maxLodPixels>-1</maxLodPixels>
        </Lod>
      </Region>
      <Link>
        <href>../../18/150511/162270.kml</href>
        <viewRefreshMode>onRegion</viewRefreshMode>
        <viewFormat/>
      </Link>
    </NetworkLink>
        
    <NetworkLink>
      <name>18/150510/162271.png</name>
      <Region>
        <LatLonAltBox>
          <north>39.33429742980725</north>
          <south>39.33323523479627</south>
          <east>26.69540405273436</east>
          <west>26.69403076171874</west>
        </LatLonAltBox>
        <Lod>
          <minLodPixels>128</minLodPixels>
          <maxLodPixels>-1</maxLodPixels>
        </Lod>
      </Region>
      <Link>
        <href>../../18/150510/162271.kml</href>
        <viewRefreshMode>onRegion</viewRefreshMode>
        <viewFormat/>
      </Link>
    </NetworkLink>
        
    <NetworkLink>
      <name>18/150511/162271.png</name>
      <Region>
        <LatLonAltBox>
          <north>39.33429742980725</north>
          <south>39.33323523479627</south>
          <east>26.69677734374999</east>
          <west>26.69540405273436</west>
        </LatLonAltBox>
        <Lod>
          <minLodPixels>128</minLodPixels>
          <maxLodPixels>-1</maxLodPixels>
        </Lod>
      </Region>
      <Link>
        <href>../../18/150511/162271.kml</href>
        <viewRefreshMode>onRegion</viewRefreshMode>
        <viewFormat/>
      </Link>
    </NetworkLink>
              </Document>
</kml>
    