<?xml version="1.0" encoding="utf-8"?>
<kml xmlns="http://www.opengis.net/kml/2.2">
  <Document>
    <name>19/300908/324590.kml</name>
    <description></description>
    <Style>
      <ListStyle id="hideChildren">
        <listItemType>checkHideChildren</listItemType>
      </ListStyle>
    </Style>
    <Region>
      <LatLonAltBox>
        <north>39.35925436686273</north>
        <south>39.35872346100049</south>
        <east>26.61781311035155</east>
        <west>26.61712646484374</west>
      </LatLonAltBox>
      <Lod>
        <minLodPixels>128</minLodPixels>
        <maxLodPixels>-1</maxLodPixels>
      </Lod>
    </Region>
    <GroundOverlay>
      <drawOrder>38</drawOrder>
      <Icon>
        <href>324590.png</href>
      </Icon>
      <LatLonBox>
        <north>39.35925436686273</north>
        <south>39.35872346100049</south>
        <east>26.61781311035155</east>
        <west>26.61712646484374</west>
      </LatLonBox>
    </GroundOverlay>
      </Document>
</kml>
    