<?xml version="1.0" encoding="utf-8"?>
<kml xmlns="http://www.opengis.net/kml/2.2">
  <Document>
    <name>15/18815/20286.kml</name>
    <description></description>
    <Style>
      <ListStyle id="hideChildren">
        <listItemType>checkHideChildren</listItemType>
      </ListStyle>
    </Style>
    <Region>
      <LatLonAltBox>
        <north>39.35978526869001</north>
        <south>39.35129035526705</south>
        <east>26.71875000000000</east>
        <west>26.70776367187501</west>
      </LatLonAltBox>
      <Lod>
        <minLodPixels>128</minLodPixels>
        <maxLodPixels>2048</maxLodPixels>
      </Lod>
    </Region>
    <GroundOverlay>
      <drawOrder>30</drawOrder>
      <Icon>
        <href>20286.png</href>
      </Icon>
      <LatLonBox>
        <north>39.35978526869001</north>
        <south>39.35129035526705</south>
        <east>26.71875000000000</east>
        <west>26.70776367187501</west>
      </LatLonBox>
    </GroundOverlay>

    <NetworkLink>
      <name>16/37630/40572.png</name>
      <Region>
        <LatLonAltBox>
          <north>39.35553794109382</north>
          <south>39.35129035526705</south>
          <east>26.71325683593751</east>
          <west>26.70776367187501</west>
        </LatLonAltBox>
        <Lod>
          <minLodPixels>128</minLodPixels>
          <maxLodPixels>-1</maxLodPixels>
        </Lod>
      </Region>
      <Link>
        <href>../../16/37630/40572.kml</href>
        <viewRefreshMode>onRegion</viewRefreshMode>
        <viewFormat/>
      </Link>
    </NetworkLink>
        
    <NetworkLink>
      <name>16/37631/40572.png</name>
      <Region>
        <LatLonAltBox>
          <north>39.35553794109382</north>
          <south>39.35129035526705</south>
          <east>26.71875000000000</east>
          <west>26.71325683593751</west>
        </LatLonAltBox>
        <Lod>
          <minLodPixels>128</minLodPixels>
          <maxLodPixels>-1</maxLodPixels>
        </Lod>
      </Region>
      <Link>
        <href>../../16/37631/40572.kml</href>
        <viewRefreshMode>onRegion</viewRefreshMode>
        <viewFormat/>
      </Link>
    </NetworkLink>
        
    <NetworkLink>
      <name>16/37630/40573.png</name>
      <Region>
        <LatLonAltBox>
          <north>39.35978526869001</north>
          <south>39.35553794109382</south>
          <east>26.71325683593751</east>
          <west>26.70776367187501</west>
        </LatLonAltBox>
        <Lod>
          <minLodPixels>128</minLodPixels>
          <maxLodPixels>-1</maxLodPixels>
        </Lod>
      </Region>
      <Link>
        <href>../../16/37630/40573.kml</href>
        <viewRefreshMode>onRegion</viewRefreshMode>
        <viewFormat/>
      </Link>
    </NetworkLink>
        
    <NetworkLink>
      <name>16/37631/40573.png</name>
      <Region>
        <LatLonAltBox>
          <north>39.35978526869001</north>
          <south>39.35553794109382</south>
          <east>26.71875000000000</east>
          <west>26.71325683593751</west>
        </LatLonAltBox>
        <Lod>
          <minLodPixels>128</minLodPixels>
          <maxLodPixels>-1</maxLodPixels>
        </Lod>
      </Region>
      <Link>
        <href>../../16/37631/40573.kml</href>
        <viewRefreshMode>onRegion</viewRefreshMode>
        <viewFormat/>
      </Link>
    </NetworkLink>
              </Document>
</kml>
    