<?xml version="1.0" encoding="utf-8"?>
<kml xmlns="http://www.opengis.net/kml/2.2">
  <Document>
    <name>14/9403/10141.kml</name>
    <description></description>
    <Style>
      <ListStyle id="hideChildren">
        <listItemType>checkHideChildren</listItemType>
      </ListStyle>
    </Style>
    <Region>
      <LatLonAltBox>
        <north>39.33429742980725</north>
        <south>39.31730037327102</south>
        <east>26.63085937500001</east>
        <west>26.60888671874999</west>
      </LatLonAltBox>
      <Lod>
        <minLodPixels>128</minLodPixels>
        <maxLodPixels>2048</maxLodPixels>
      </Lod>
    </Region>
    <GroundOverlay>
      <drawOrder>28</drawOrder>
      <Icon>
        <href>10141.png</href>
      </Icon>
      <LatLonBox>
        <north>39.33429742980725</north>
        <south>39.31730037327102</south>
        <east>26.63085937500001</east>
        <west>26.60888671874999</west>
      </LatLonBox>
    </GroundOverlay>

    <NetworkLink>
      <name>15/18806/20282.png</name>
      <Region>
        <LatLonAltBox>
          <north>39.32579941789298</north>
          <south>39.31730037327102</south>
          <east>26.61987304687499</east>
          <west>26.60888671874999</west>
        </LatLonAltBox>
        <Lod>
          <minLodPixels>128</minLodPixels>
          <maxLodPixels>-1</maxLodPixels>
        </Lod>
      </Region>
      <Link>
        <href>../../15/18806/20282.kml</href>
        <viewRefreshMode>onRegion</viewRefreshMode>
        <viewFormat/>
      </Link>
    </NetworkLink>
        
    <NetworkLink>
      <name>15/18807/20282.png</name>
      <Region>
        <LatLonAltBox>
          <north>39.32579941789298</north>
          <south>39.31730037327102</south>
          <east>26.63085937500001</east>
          <west>26.61987304687499</west>
        </LatLonAltBox>
        <Lod>
          <minLodPixels>128</minLodPixels>
          <maxLodPixels>-1</maxLodPixels>
        </Lod>
      </Region>
      <Link>
        <href>../../15/18807/20282.kml</href>
        <viewRefreshMode>onRegion</viewRefreshMode>
        <viewFormat/>
      </Link>
    </NetworkLink>
        
    <NetworkLink>
      <name>15/18806/20283.png</name>
      <Region>
        <LatLonAltBox>
          <north>39.33429742980725</north>
          <south>39.32579941789298</south>
          <east>26.61987304687499</east>
          <west>26.60888671874999</west>
        </LatLonAltBox>
        <Lod>
          <minLodPixels>128</minLodPixels>
          <maxLodPixels>-1</maxLodPixels>
        </Lod>
      </Region>
      <Link>
        <href>../../15/18806/20283.kml</href>
        <viewRefreshMode>onRegion</viewRefreshMode>
        <viewFormat/>
      </Link>
    </NetworkLink>
        
    <NetworkLink>
      <name>15/18807/20283.png</name>
      <Region>
        <LatLonAltBox>
          <north>39.33429742980725</north>
          <south>39.32579941789298</south>
          <east>26.63085937500001</east>
          <west>26.61987304687499</west>
        </LatLonAltBox>
        <Lod>
          <minLodPixels>128</minLodPixels>
          <maxLodPixels>-1</maxLodPixels>
        </Lod>
      </Region>
      <Link>
        <href>../../15/18807/20283.kml</href>
        <viewRefreshMode>onRegion</viewRefreshMode>
        <viewFormat/>
      </Link>
    </NetworkLink>
              </Document>
</kml>
    