<?xml version="1.0" encoding="utf-8"?>
<kml xmlns="http://www.opengis.net/kml/2.2">
  <Document>
    <name>15/18810/20282.kml</name>
    <description></description>
    <Style>
      <ListStyle id="hideChildren">
        <listItemType>checkHideChildren</listItemType>
      </ListStyle>
    </Style>
    <Region>
      <LatLonAltBox>
        <north>39.32579941789298</north>
        <south>39.31730037327102</south>
        <east>26.66381835937501</east>
        <west>26.65283203124999</west>
      </LatLonAltBox>
      <Lod>
        <minLodPixels>128</minLodPixels>
        <maxLodPixels>2048</maxLodPixels>
      </Lod>
    </Region>
    <GroundOverlay>
      <drawOrder>30</drawOrder>
      <Icon>
        <href>20282.png</href>
      </Icon>
      <LatLonBox>
        <north>39.32579941789298</north>
        <south>39.31730037327102</south>
        <east>26.66381835937501</east>
        <west>26.65283203124999</west>
      </LatLonBox>
    </GroundOverlay>

    <NetworkLink>
      <name>16/37621/40564.png</name>
      <Region>
        <LatLonAltBox>
          <north>39.32155002466662</north>
          <south>39.31730037327102</south>
          <east>26.66381835937501</east>
          <west>26.65832519531249</west>
        </LatLonAltBox>
        <Lod>
          <minLodPixels>128</minLodPixels>
          <maxLodPixels>-1</maxLodPixels>
        </Lod>
      </Region>
      <Link>
        <href>../../16/37621/40564.kml</href>
        <viewRefreshMode>onRegion</viewRefreshMode>
        <viewFormat/>
      </Link>
    </NetworkLink>
        
    <NetworkLink>
      <name>16/37621/40565.png</name>
      <Region>
        <LatLonAltBox>
          <north>39.32579941789298</north>
          <south>39.32155002466662</south>
          <east>26.66381835937501</east>
          <west>26.65832519531249</west>
        </LatLonAltBox>
        <Lod>
          <minLodPixels>128</minLodPixels>
          <maxLodPixels>-1</maxLodPixels>
        </Lod>
      </Region>
      <Link>
        <href>../../16/37621/40565.kml</href>
        <viewRefreshMode>onRegion</viewRefreshMode>
        <viewFormat/>
      </Link>
    </NetworkLink>
              </Document>
</kml>
    