<?xml version="1.0" encoding="utf-8"?>
<kml xmlns="http://www.opengis.net/kml/2.2">
  <Document>
    <name>18/150534/162270.kml</name>
    <description></description>
    <Style>
      <ListStyle id="hideChildren">
        <listItemType>checkHideChildren</listItemType>
      </ListStyle>
    </Style>
    <Region>
      <LatLonAltBox>
        <north>39.33323523479627</north>
        <south>39.33217302364838</south>
        <east>26.72836303710938</east>
        <west>26.72698974609375</west>
      </LatLonAltBox>
      <Lod>
        <minLodPixels>128</minLodPixels>
        <maxLodPixels>2048</maxLodPixels>
      </Lod>
    </Region>
    <GroundOverlay>
      <drawOrder>36</drawOrder>
      <Icon>
        <href>162270.png</href>
      </Icon>
      <LatLonBox>
        <north>39.33323523479627</north>
        <south>39.33217302364838</south>
        <east>26.72836303710938</east>
        <west>26.72698974609375</west>
      </LatLonBox>
    </GroundOverlay>

    <NetworkLink>
      <name>19/301068/324540.png</name>
      <Region>
        <LatLonAltBox>
          <north>39.33270413123943</north>
          <south>39.33217302364838</south>
          <east>26.72767639160156</east>
          <west>26.72698974609375</west>
        </LatLonAltBox>
        <Lod>
          <minLodPixels>128</minLodPixels>
          <maxLodPixels>-1</maxLodPixels>
        </Lod>
      </Region>
      <Link>
        <href>../../19/301068/324540.kml</href>
        <viewRefreshMode>onRegion</viewRefreshMode>
        <viewFormat/>
      </Link>
    </NetworkLink>
        
    <NetworkLink>
      <name>19/301069/324540.png</name>
      <Region>
        <LatLonAltBox>
          <north>39.33270413123943</north>
          <south>39.33217302364838</south>
          <east>26.72836303710938</east>
          <west>26.72767639160156</west>
        </LatLonAltBox>
        <Lod>
          <minLodPixels>128</minLodPixels>
          <maxLodPixels>-1</maxLodPixels>
        </Lod>
      </Region>
      <Link>
        <href>../../19/301069/324540.kml</href>
        <viewRefreshMode>onRegion</viewRefreshMode>
        <viewFormat/>
      </Link>
    </NetworkLink>
        
    <NetworkLink>
      <name>19/301068/324541.png</name>
      <Region>
        <LatLonAltBox>
          <north>39.33323523479627</north>
          <south>39.33270413123943</south>
          <east>26.72767639160156</east>
          <west>26.72698974609375</west>
        </LatLonAltBox>
        <Lod>
          <minLodPixels>128</minLodPixels>
          <maxLodPixels>-1</maxLodPixels>
        </Lod>
      </Region>
      <Link>
        <href>../../19/301068/324541.kml</href>
        <viewRefreshMode>onRegion</viewRefreshMode>
        <viewFormat/>
      </Link>
    </NetworkLink>
        
    <NetworkLink>
      <name>19/301069/324541.png</name>
      <Region>
        <LatLonAltBox>
          <north>39.33323523479627</north>
          <south>39.33270413123943</south>
          <east>26.72836303710938</east>
          <west>26.72767639160156</west>
        </LatLonAltBox>
        <Lod>
          <minLodPixels>128</minLodPixels>
          <maxLodPixels>-1</maxLodPixels>
        </Lod>
      </Region>
      <Link>
        <href>../../19/301069/324541.kml</href>
        <viewRefreshMode>onRegion</viewRefreshMode>
        <viewFormat/>
      </Link>
    </NetworkLink>
              </Document>
</kml>
    