<?xml version="1.0" encoding="utf-8"?>
<kml xmlns="http://www.opengis.net/kml/2.2">
  <Document>
    <name>sit_8bit.tif</name>
    <description></description>
    <Style>
      <ListStyle id="hideChildren">
        <listItemType>checkHideChildren</listItemType>
      </ListStyle>
    </Style>
    <NetworkLink>
      <name>14/9406/10140.png</name>
      <Region>
        <LatLonAltBox>
          <north>39.31730037327102</north>
          <south>39.30029918615029</south>
          <east>26.69677734374999</east>
          <west>26.67480468750000</west>
        </LatLonAltBox>
        <Lod>
          <minLodPixels>128</minLodPixels>
          <maxLodPixels>-1</maxLodPixels>
        </Lod>
      </Region>
      <Link>
        <href>14/9406/10140.kml</href>
        <viewRefreshMode>onRegion</viewRefreshMode>
        <viewFormat/>
      </Link>
    </NetworkLink>
        
    <NetworkLink>
      <name>14/9406/10141.png</name>
      <Region>
        <LatLonAltBox>
          <north>39.33429742980725</north>
          <south>39.31730037327102</south>
          <east>26.69677734374999</east>
          <west>26.67480468750000</west>
        </LatLonAltBox>
        <Lod>
          <minLodPixels>128</minLodPixels>
          <maxLodPixels>-1</maxLodPixels>
        </Lod>
      </Region>
      <Link>
        <href>14/9406/10141.kml</href>
        <viewRefreshMode>onRegion</viewRefreshMode>
        <viewFormat/>
      </Link>
    </NetworkLink>
        
    <NetworkLink>
      <name>14/9407/10140.png</name>
      <Region>
        <LatLonAltBox>
          <north>39.31730037327102</north>
          <south>39.30029918615029</south>
          <east>26.71875000000000</east>
          <west>26.69677734374999</west>
        </LatLonAltBox>
        <Lod>
          <minLodPixels>128</minLodPixels>
          <maxLodPixels>-1</maxLodPixels>
        </Lod>
      </Region>
      <Link>
        <href>14/9407/10140.kml</href>
        <viewRefreshMode>onRegion</viewRefreshMode>
        <viewFormat/>
      </Link>
    </NetworkLink>
        
    <NetworkLink>
      <name>14/9407/10141.png</name>
      <Region>
        <LatLonAltBox>
          <north>39.33429742980725</north>
          <south>39.31730037327102</south>
          <east>26.71875000000000</east>
          <west>26.69677734374999</west>
        </LatLonAltBox>
        <Lod>
          <minLodPixels>128</minLodPixels>
          <maxLodPixels>-1</maxLodPixels>
        </Lod>
      </Region>
      <Link>
        <href>14/9407/10141.kml</href>
        <viewRefreshMode>onRegion</viewRefreshMode>
        <viewFormat/>
      </Link>
    </NetworkLink>
              </Document>
</kml>
    