<?xml version="1.0" encoding="utf-8"?>
<kml xmlns="http://www.opengis.net/kml/2.2">
  <Document>
    <name>16/37631/40575.kml</name>
    <description></description>
    <Style>
      <ListStyle id="hideChildren">
        <listItemType>checkHideChildren</listItemType>
      </ListStyle>
    </Style>
    <Region>
      <LatLonAltBox>
        <north>39.36827914916011</north>
        <south>39.36403233804798</south>
        <east>26.71875000000000</east>
        <west>26.71325683593751</west>
      </LatLonAltBox>
      <Lod>
        <minLodPixels>128</minLodPixels>
        <maxLodPixels>2048</maxLodPixels>
      </Lod>
    </Region>
    <GroundOverlay>
      <drawOrder>32</drawOrder>
      <Icon>
        <href>40575.png</href>
      </Icon>
      <LatLonBox>
        <north>39.36827914916011</north>
        <south>39.36403233804798</south>
        <east>26.71875000000000</east>
        <west>26.71325683593751</west>
      </LatLonBox>
    </GroundOverlay>

    <NetworkLink>
      <name>17/75262/81150.png</name>
      <Region>
        <LatLonAltBox>
          <north>39.36615577588528</north>
          <south>39.36403233804798</south>
          <east>26.71600341796876</east>
          <west>26.71325683593751</west>
        </LatLonAltBox>
        <Lod>
          <minLodPixels>128</minLodPixels>
          <maxLodPixels>-1</maxLodPixels>
        </Lod>
      </Region>
      <Link>
        <href>../../17/75262/81150.kml</href>
        <viewRefreshMode>onRegion</viewRefreshMode>
        <viewFormat/>
      </Link>
    </NetworkLink>
        
    <NetworkLink>
      <name>17/75263/81150.png</name>
      <Region>
        <LatLonAltBox>
          <north>39.36615577588528</north>
          <south>39.36403233804798</south>
          <east>26.71875000000000</east>
          <west>26.71600341796876</west>
        </LatLonAltBox>
        <Lod>
          <minLodPixels>128</minLodPixels>
          <maxLodPixels>-1</maxLodPixels>
        </Lod>
      </Region>
      <Link>
        <href>../../17/75263/81150.kml</href>
        <viewRefreshMode>onRegion</viewRefreshMode>
        <viewFormat/>
      </Link>
    </NetworkLink>
        
    <NetworkLink>
      <name>17/75262/81151.png</name>
      <Region>
        <LatLonAltBox>
          <north>39.36827914916011</north>
          <south>39.36615577588528</south>
          <east>26.71600341796876</east>
          <west>26.71325683593751</west>
        </LatLonAltBox>
        <Lod>
          <minLodPixels>128</minLodPixels>
          <maxLodPixels>-1</maxLodPixels>
        </Lod>
      </Region>
      <Link>
        <href>../../17/75262/81151.kml</href>
        <viewRefreshMode>onRegion</viewRefreshMode>
        <viewFormat/>
      </Link>
    </NetworkLink>
        
    <NetworkLink>
      <name>17/75263/81151.png</name>
      <Region>
        <LatLonAltBox>
          <north>39.36827914916011</north>
          <south>39.36615577588528</south>
          <east>26.71875000000000</east>
          <west>26.71600341796876</west>
        </LatLonAltBox>
        <Lod>
          <minLodPixels>128</minLodPixels>
          <maxLodPixels>-1</maxLodPixels>
        </Lod>
      </Region>
      <Link>
        <href>../../17/75263/81151.kml</href>
        <viewRefreshMode>onRegion</viewRefreshMode>
        <viewFormat/>
      </Link>
    </NetworkLink>
              </Document>
</kml>
    