<?xml version="1.0" encoding="utf-8"?>
<kml xmlns="http://www.opengis.net/kml/2.2">
  <Document>
    <name>17/75248/81154.kml</name>
    <description></description>
    <Style>
      <ListStyle id="hideChildren">
        <listItemType>checkHideChildren</listItemType>
      </ListStyle>
    </Style>
    <Region>
      <LatLonAltBox>
        <north>39.37464888160068</north>
        <south>39.37252570201878</south>
        <east>26.67755126953125</east>
        <west>26.67480468750000</west>
      </LatLonAltBox>
      <Lod>
        <minLodPixels>128</minLodPixels>
        <maxLodPixels>2048</maxLodPixels>
      </Lod>
    </Region>
    <GroundOverlay>
      <drawOrder>34</drawOrder>
      <Icon>
        <href>81154.png</href>
      </Icon>
      <LatLonBox>
        <north>39.37464888160068</north>
        <south>39.37252570201878</south>
        <east>26.67755126953125</east>
        <west>26.67480468750000</west>
      </LatLonBox>
    </GroundOverlay>

    <NetworkLink>
      <name>18/150496/162308.png</name>
      <Region>
        <LatLonAltBox>
          <north>39.37358729988046</north>
          <south>39.37252570201878</south>
          <east>26.67617797851563</east>
          <west>26.67480468750000</west>
        </LatLonAltBox>
        <Lod>
          <minLodPixels>128</minLodPixels>
          <maxLodPixels>-1</maxLodPixels>
        </Lod>
      </Region>
      <Link>
        <href>../../18/150496/162308.kml</href>
        <viewRefreshMode>onRegion</viewRefreshMode>
        <viewFormat/>
      </Link>
    </NetworkLink>
        
    <NetworkLink>
      <name>18/150497/162308.png</name>
      <Region>
        <LatLonAltBox>
          <north>39.37358729988046</north>
          <south>39.37252570201878</south>
          <east>26.67755126953125</east>
          <west>26.67617797851563</west>
        </LatLonAltBox>
        <Lod>
          <minLodPixels>128</minLodPixels>
          <maxLodPixels>-1</maxLodPixels>
        </Lod>
      </Region>
      <Link>
        <href>../../18/150497/162308.kml</href>
        <viewRefreshMode>onRegion</viewRefreshMode>
        <viewFormat/>
      </Link>
    </NetworkLink>
        
    <NetworkLink>
      <name>18/150496/162309.png</name>
      <Region>
        <LatLonAltBox>
          <north>39.37464888160068</north>
          <south>39.37358729988046</south>
          <east>26.67617797851563</east>
          <west>26.67480468750000</west>
        </LatLonAltBox>
        <Lod>
          <minLodPixels>128</minLodPixels>
          <maxLodPixels>-1</maxLodPixels>
        </Lod>
      </Region>
      <Link>
        <href>../../18/150496/162309.kml</href>
        <viewRefreshMode>onRegion</viewRefreshMode>
        <viewFormat/>
      </Link>
    </NetworkLink>
        
    <NetworkLink>
      <name>18/150497/162309.png</name>
      <Region>
        <LatLonAltBox>
          <north>39.37464888160068</north>
          <south>39.37358729988046</south>
          <east>26.67755126953125</east>
          <west>26.67617797851563</west>
        </LatLonAltBox>
        <Lod>
          <minLodPixels>128</minLodPixels>
          <maxLodPixels>-1</maxLodPixels>
        </Lod>
      </Region>
      <Link>
        <href>../../18/150497/162309.kml</href>
        <viewRefreshMode>onRegion</viewRefreshMode>
        <viewFormat/>
      </Link>
    </NetworkLink>
              </Document>
</kml>
    