<?xml version="1.0" encoding="utf-8"?>
<kml xmlns="http://www.opengis.net/kml/2.2">
  <Document>
    <name>18/150450/162317.kml</name>
    <description></description>
    <Style>
      <ListStyle id="hideChildren">
        <listItemType>checkHideChildren</listItemType>
      </ListStyle>
    </Style>
    <Region>
      <LatLonAltBox>
        <north>39.38314095425650</north>
        <south>39.38207950167204</south>
        <east>26.61300659179686</east>
        <west>26.61163330078124</west>
      </LatLonAltBox>
      <Lod>
        <minLodPixels>128</minLodPixels>
        <maxLodPixels>2048</maxLodPixels>
      </Lod>
    </Region>
    <GroundOverlay>
      <drawOrder>36</drawOrder>
      <Icon>
        <href>162317.png</href>
      </Icon>
      <LatLonBox>
        <north>39.38314095425650</north>
        <south>39.38207950167204</south>
        <east>26.61300659179686</east>
        <west>26.61163330078124</west>
      </LatLonBox>
    </GroundOverlay>

    <NetworkLink>
      <name>19/300900/324634.png</name>
      <Region>
        <LatLonAltBox>
          <north>39.38261022998208</north>
          <south>39.38207950167204</south>
          <east>26.61231994628905</east>
          <west>26.61163330078124</west>
        </LatLonAltBox>
        <Lod>
          <minLodPixels>128</minLodPixels>
          <maxLodPixels>-1</maxLodPixels>
        </Lod>
      </Region>
      <Link>
        <href>../../19/300900/324634.kml</href>
        <viewRefreshMode>onRegion</viewRefreshMode>
        <viewFormat/>
      </Link>
    </NetworkLink>
        
    <NetworkLink>
      <name>19/300901/324634.png</name>
      <Region>
        <LatLonAltBox>
          <north>39.38261022998208</north>
          <south>39.38207950167204</south>
          <east>26.61300659179686</east>
          <west>26.61231994628905</west>
        </LatLonAltBox>
        <Lod>
          <minLodPixels>128</minLodPixels>
          <maxLodPixels>-1</maxLodPixels>
        </Lod>
      </Region>
      <Link>
        <href>../../19/300901/324634.kml</href>
        <viewRefreshMode>onRegion</viewRefreshMode>
        <viewFormat/>
      </Link>
    </NetworkLink>
        
    <NetworkLink>
      <name>19/300900/324635.png</name>
      <Region>
        <LatLonAltBox>
          <north>39.38314095425650</north>
          <south>39.38261022998208</south>
          <east>26.61231994628905</east>
          <west>26.61163330078124</west>
        </LatLonAltBox>
        <Lod>
          <minLodPixels>128</minLodPixels>
          <maxLodPixels>-1</maxLodPixels>
        </Lod>
      </Region>
      <Link>
        <href>../../19/300900/324635.kml</href>
        <viewRefreshMode>onRegion</viewRefreshMode>
        <viewFormat/>
      </Link>
    </NetworkLink>
        
    <NetworkLink>
      <name>19/300901/324635.png</name>
      <Region>
        <LatLonAltBox>
          <north>39.38314095425650</north>
          <south>39.38261022998208</south>
          <east>26.61300659179686</east>
          <west>26.61231994628905</west>
        </LatLonAltBox>
        <Lod>
          <minLodPixels>128</minLodPixels>
          <maxLodPixels>-1</maxLodPixels>
        </Lod>
      </Region>
      <Link>
        <href>../../19/300901/324635.kml</href>
        <viewRefreshMode>onRegion</viewRefreshMode>
        <viewFormat/>
      </Link>
    </NetworkLink>
              </Document>
</kml>
    