<?xml version="1.0" encoding="utf-8"?>
<kml xmlns="http://www.opengis.net/kml/2.2">
  <Document>
    <name>18/150462/162233.kml</name>
    <description></description>
    <Style>
      <ListStyle id="hideChildren">
        <listItemType>checkHideChildren</listItemType>
      </ListStyle>
    </Style>
    <Region>
      <LatLonAltBox>
        <north>39.29392267616436</north>
        <south>39.29285986803579</south>
        <east>26.62948608398439</east>
        <west>26.62811279296876</west>
      </LatLonAltBox>
      <Lod>
        <minLodPixels>128</minLodPixels>
        <maxLodPixels>2048</maxLodPixels>
      </Lod>
    </Region>
    <GroundOverlay>
      <drawOrder>36</drawOrder>
      <Icon>
        <href>162233.png</href>
      </Icon>
      <LatLonBox>
        <north>39.29392267616436</north>
        <south>39.29285986803579</south>
        <east>26.62948608398439</east>
        <west>26.62811279296876</west>
      </LatLonBox>
    </GroundOverlay>

    <NetworkLink>
      <name>19/300924/324467.png</name>
      <Region>
        <LatLonAltBox>
          <north>39.29392267616436</north>
          <south>39.29339127411664</south>
          <east>26.62879943847657</east>
          <west>26.62811279296876</west>
        </LatLonAltBox>
        <Lod>
          <minLodPixels>128</minLodPixels>
          <maxLodPixels>-1</maxLodPixels>
        </Lod>
      </Region>
      <Link>
        <href>../../19/300924/324467.kml</href>
        <viewRefreshMode>onRegion</viewRefreshMode>
        <viewFormat/>
      </Link>
    </NetworkLink>
        
    <NetworkLink>
      <name>19/300925/324467.png</name>
      <Region>
        <LatLonAltBox>
          <north>39.29392267616436</north>
          <south>39.29339127411664</south>
          <east>26.62948608398439</east>
          <west>26.62879943847657</west>
        </LatLonAltBox>
        <Lod>
          <minLodPixels>128</minLodPixels>
          <maxLodPixels>-1</maxLodPixels>
        </Lod>
      </Region>
      <Link>
        <href>../../19/300925/324467.kml</href>
        <viewRefreshMode>onRegion</viewRefreshMode>
        <viewFormat/>
      </Link>
    </NetworkLink>
              </Document>
</kml>
    