<?xml version="1.0" encoding="utf-8"?>
<kml xmlns="http://www.opengis.net/kml/2.2">
  <Document>
    <name>17/75225/81139.kml</name>
    <description></description>
    <Style>
      <ListStyle id="hideChildren">
        <listItemType>checkHideChildren</listItemType>
      </ListStyle>
    </Style>
    <Region>
      <LatLonAltBox>
        <north>39.34279440895236</north>
        <south>39.34067026099156</south>
        <east>26.61437988281249</east>
        <west>26.61163330078124</west>
      </LatLonAltBox>
      <Lod>
        <minLodPixels>128</minLodPixels>
        <maxLodPixels>2048</maxLodPixels>
      </Lod>
    </Region>
    <GroundOverlay>
      <drawOrder>34</drawOrder>
      <Icon>
        <href>81139.png</href>
      </Icon>
      <LatLonBox>
        <north>39.34279440895236</north>
        <south>39.34067026099156</south>
        <east>26.61437988281249</east>
        <west>26.61163330078124</west>
      </LatLonBox>
    </GroundOverlay>

    <NetworkLink>
      <name>18/150450/162278.png</name>
      <Region>
        <LatLonAltBox>
          <north>39.34173234304089</north>
          <south>39.34067026099156</south>
          <east>26.61300659179686</east>
          <west>26.61163330078124</west>
        </LatLonAltBox>
        <Lod>
          <minLodPixels>128</minLodPixels>
          <maxLodPixels>-1</maxLodPixels>
        </Lod>
      </Region>
      <Link>
        <href>../../18/150450/162278.kml</href>
        <viewRefreshMode>onRegion</viewRefreshMode>
        <viewFormat/>
      </Link>
    </NetworkLink>
        
    <NetworkLink>
      <name>18/150451/162278.png</name>
      <Region>
        <LatLonAltBox>
          <north>39.34173234304089</north>
          <south>39.34067026099156</south>
          <east>26.61437988281249</east>
          <west>26.61300659179686</west>
        </LatLonAltBox>
        <Lod>
          <minLodPixels>128</minLodPixels>
          <maxLodPixels>-1</maxLodPixels>
        </Lod>
      </Region>
      <Link>
        <href>../../18/150451/162278.kml</href>
        <viewRefreshMode>onRegion</viewRefreshMode>
        <viewFormat/>
      </Link>
    </NetworkLink>
        
    <NetworkLink>
      <name>18/150450/162279.png</name>
      <Region>
        <LatLonAltBox>
          <north>39.34279440895236</north>
          <south>39.34173234304089</south>
          <east>26.61300659179686</east>
          <west>26.61163330078124</west>
        </LatLonAltBox>
        <Lod>
          <minLodPixels>128</minLodPixels>
          <maxLodPixels>-1</maxLodPixels>
        </Lod>
      </Region>
      <Link>
        <href>../../18/150450/162279.kml</href>
        <viewRefreshMode>onRegion</viewRefreshMode>
        <viewFormat/>
      </Link>
    </NetworkLink>
        
    <NetworkLink>
      <name>18/150451/162279.png</name>
      <Region>
        <LatLonAltBox>
          <north>39.34279440895236</north>
          <south>39.34173234304089</south>
          <east>26.61437988281249</east>
          <west>26.61300659179686</west>
        </LatLonAltBox>
        <Lod>
          <minLodPixels>128</minLodPixels>
          <maxLodPixels>-1</maxLodPixels>
        </Lod>
      </Region>
      <Link>
        <href>../../18/150451/162279.kml</href>
        <viewRefreshMode>onRegion</viewRefreshMode>
        <viewFormat/>
      </Link>
    </NetworkLink>
              </Document>
</kml>
    