<?xml version="1.0" encoding="utf-8"?>
<kml xmlns="http://www.opengis.net/kml/2.2">
  <Document>
    <name>19/300952/324493.kml</name>
    <description></description>
    <Style>
      <ListStyle id="hideChildren">
        <listItemType>checkHideChildren</listItemType>
      </ListStyle>
    </Style>
    <Region>
      <LatLonAltBox>
        <north>39.30773771373956</north>
        <south>39.30720641655760</south>
        <east>26.64802551269531</east>
        <west>26.64733886718750</west>
      </LatLonAltBox>
      <Lod>
        <minLodPixels>128</minLodPixels>
        <maxLodPixels>-1</maxLodPixels>
      </Lod>
    </Region>
    <GroundOverlay>
      <drawOrder>38</drawOrder>
      <Icon>
        <href>324493.png</href>
      </Icon>
      <LatLonBox>
        <north>39.30773771373956</north>
        <south>39.30720641655760</south>
        <east>26.64802551269531</east>
        <west>26.64733886718750</west>
      </LatLonBox>
    </GroundOverlay>
      </Document>
</kml>
    