<?xml version="1.0" encoding="utf-8"?>
<kml xmlns="http://www.opengis.net/kml/2.2">
  <Document>
    <name>19/300912/324539.kml</name>
    <description></description>
    <Style>
      <ListStyle id="hideChildren">
        <listItemType>checkHideChildren</listItemType>
      </ListStyle>
    </Style>
    <Region>
      <LatLonAltBox>
        <north>39.33217302364838</north>
        <south>39.33164191202314</south>
        <east>26.62055969238283</east>
        <west>26.61987304687499</west>
      </LatLonAltBox>
      <Lod>
        <minLodPixels>128</minLodPixels>
        <maxLodPixels>-1</maxLodPixels>
      </Lod>
    </Region>
    <GroundOverlay>
      <drawOrder>38</drawOrder>
      <Icon>
        <href>324539.png</href>
      </Icon>
      <LatLonBox>
        <north>39.33217302364838</north>
        <south>39.33164191202314</south>
        <east>26.62055969238283</east>
        <west>26.61987304687499</west>
      </LatLonBox>
    </GroundOverlay>
      </Document>
</kml>
    