<?xml version="1.0" encoding="utf-8"?>
<kml xmlns="http://www.opengis.net/kml/2.2">
  <Document>
    <name>19/301062/324482.kml</name>
    <description></description>
    <Style>
      <ListStyle id="hideChildren">
        <listItemType>checkHideChildren</listItemType>
      </ListStyle>
    </Style>
    <Region>
      <LatLonAltBox>
        <north>39.30189322289872</north>
        <south>39.30136188134922</south>
        <east>26.72355651855469</east>
        <west>26.72286987304688</west>
      </LatLonAltBox>
      <Lod>
        <minLodPixels>128</minLodPixels>
        <maxLodPixels>-1</maxLodPixels>
      </Lod>
    </Region>
    <GroundOverlay>
      <drawOrder>38</drawOrder>
      <Icon>
        <href>324482.png</href>
      </Icon>
      <LatLonBox>
        <north>39.30189322289872</north>
        <south>39.30136188134922</south>
        <east>26.72355651855469</east>
        <west>26.72286987304688</west>
      </LatLonBox>
    </GroundOverlay>
      </Document>
</kml>
    