<?xml version="1.0" encoding="utf-8"?>
<kml xmlns="http://www.opengis.net/kml/2.2">
  <Document>
    <name>18/150498/162316.kml</name>
    <description></description>
    <Style>
      <ListStyle id="hideChildren">
        <listItemType>checkHideChildren</listItemType>
      </ListStyle>
    </Style>
    <Region>
      <LatLonAltBox>
        <north>39.38207950167204</north>
        <south>39.38101803294520</south>
        <east>26.67892456054688</east>
        <west>26.67755126953125</west>
      </LatLonAltBox>
      <Lod>
        <minLodPixels>128</minLodPixels>
        <maxLodPixels>2048</maxLodPixels>
      </Lod>
    </Region>
    <GroundOverlay>
      <drawOrder>36</drawOrder>
      <Icon>
        <href>162316.png</href>
      </Icon>
      <LatLonBox>
        <north>39.38207950167204</north>
        <south>39.38101803294520</south>
        <east>26.67892456054688</east>
        <west>26.67755126953125</west>
      </LatLonBox>
    </GroundOverlay>

    <NetworkLink>
      <name>19/300996/324632.png</name>
      <Region>
        <LatLonAltBox>
          <north>39.38154876932641</north>
          <south>39.38101803294520</south>
          <east>26.67823791503907</east>
          <west>26.67755126953125</west>
        </LatLonAltBox>
        <Lod>
          <minLodPixels>128</minLodPixels>
          <maxLodPixels>-1</maxLodPixels>
        </Lod>
      </Region>
      <Link>
        <href>../../19/300996/324632.kml</href>
        <viewRefreshMode>onRegion</viewRefreshMode>
        <viewFormat/>
      </Link>
    </NetworkLink>
        
    <NetworkLink>
      <name>19/300997/324632.png</name>
      <Region>
        <LatLonAltBox>
          <north>39.38154876932641</north>
          <south>39.38101803294520</south>
          <east>26.67892456054688</east>
          <west>26.67823791503907</west>
        </LatLonAltBox>
        <Lod>
          <minLodPixels>128</minLodPixels>
          <maxLodPixels>-1</maxLodPixels>
        </Lod>
      </Region>
      <Link>
        <href>../../19/300997/324632.kml</href>
        <viewRefreshMode>onRegion</viewRefreshMode>
        <viewFormat/>
      </Link>
    </NetworkLink>
        
    <NetworkLink>
      <name>19/300996/324633.png</name>
      <Region>
        <LatLonAltBox>
          <north>39.38207950167204</north>
          <south>39.38154876932641</south>
          <east>26.67823791503907</east>
          <west>26.67755126953125</west>
        </LatLonAltBox>
        <Lod>
          <minLodPixels>128</minLodPixels>
          <maxLodPixels>-1</maxLodPixels>
        </Lod>
      </Region>
      <Link>
        <href>../../19/300996/324633.kml</href>
        <viewRefreshMode>onRegion</viewRefreshMode>
        <viewFormat/>
      </Link>
    </NetworkLink>
        
    <NetworkLink>
      <name>19/300997/324633.png</name>
      <Region>
        <LatLonAltBox>
          <north>39.38207950167204</north>
          <south>39.38154876932641</south>
          <east>26.67892456054688</east>
          <west>26.67823791503907</west>
        </LatLonAltBox>
        <Lod>
          <minLodPixels>128</minLodPixels>
          <maxLodPixels>-1</maxLodPixels>
        </Lod>
      </Region>
      <Link>
        <href>../../19/300997/324633.kml</href>
        <viewRefreshMode>onRegion</viewRefreshMode>
        <viewFormat/>
      </Link>
    </NetworkLink>
              </Document>
</kml>
    