<?xml version="1.0" encoding="utf-8"?>
<kml xmlns="http://www.opengis.net/kml/2.2">
  <Document>
    <name>15/18809/20284.kml</name>
    <description></description>
    <Style>
      <ListStyle id="hideChildren">
        <listItemType>checkHideChildren</listItemType>
      </ListStyle>
    </Style>
    <Region>
      <LatLonAltBox>
        <north>39.34279440895236</north>
        <south>39.33429742980725</south>
        <east>26.65283203124999</east>
        <west>26.64184570312500</west>
      </LatLonAltBox>
      <Lod>
        <minLodPixels>128</minLodPixels>
        <maxLodPixels>2048</maxLodPixels>
      </Lod>
    </Region>
    <GroundOverlay>
      <drawOrder>30</drawOrder>
      <Icon>
        <href>20284.png</href>
      </Icon>
      <LatLonBox>
        <north>39.34279440895236</north>
        <south>39.33429742980725</south>
        <east>26.65283203124999</east>
        <west>26.64184570312500</west>
      </LatLonBox>
    </GroundOverlay>

    <NetworkLink>
      <name>16/37618/40568.png</name>
      <Region>
        <LatLonAltBox>
          <north>39.33854604847979</north>
          <south>39.33429742980725</south>
          <east>26.64733886718750</east>
          <west>26.64184570312500</west>
        </LatLonAltBox>
        <Lod>
          <minLodPixels>128</minLodPixels>
          <maxLodPixels>-1</maxLodPixels>
        </Lod>
      </Region>
      <Link>
        <href>../../16/37618/40568.kml</href>
        <viewRefreshMode>onRegion</viewRefreshMode>
        <viewFormat/>
      </Link>
    </NetworkLink>
        
    <NetworkLink>
      <name>16/37619/40568.png</name>
      <Region>
        <LatLonAltBox>
          <north>39.33854604847979</north>
          <south>39.33429742980725</south>
          <east>26.65283203124999</east>
          <west>26.64733886718750</west>
        </LatLonAltBox>
        <Lod>
          <minLodPixels>128</minLodPixels>
          <maxLodPixels>-1</maxLodPixels>
        </Lod>
      </Region>
      <Link>
        <href>../../16/37619/40568.kml</href>
        <viewRefreshMode>onRegion</viewRefreshMode>
        <viewFormat/>
      </Link>
    </NetworkLink>
        
    <NetworkLink>
      <name>16/37618/40569.png</name>
      <Region>
        <LatLonAltBox>
          <north>39.34279440895236</north>
          <south>39.33854604847979</south>
          <east>26.64733886718750</east>
          <west>26.64184570312500</west>
        </LatLonAltBox>
        <Lod>
          <minLodPixels>128</minLodPixels>
          <maxLodPixels>-1</maxLodPixels>
        </Lod>
      </Region>
      <Link>
        <href>../../16/37618/40569.kml</href>
        <viewRefreshMode>onRegion</viewRefreshMode>
        <viewFormat/>
      </Link>
    </NetworkLink>
        
    <NetworkLink>
      <name>16/37619/40569.png</name>
      <Region>
        <LatLonAltBox>
          <north>39.34279440895236</north>
          <south>39.33854604847979</south>
          <east>26.65283203124999</east>
          <west>26.64733886718750</west>
        </LatLonAltBox>
        <Lod>
          <minLodPixels>128</minLodPixels>
          <maxLodPixels>-1</maxLodPixels>
        </Lod>
      </Region>
      <Link>
        <href>../../16/37619/40569.kml</href>
        <viewRefreshMode>onRegion</viewRefreshMode>
        <viewFormat/>
      </Link>
    </NetworkLink>
              </Document>
</kml>
    