<?xml version="1.0" encoding="utf-8"?>
<kml xmlns="http://www.opengis.net/kml/2.2">
  <Document>
    <name>19/301020/324556.kml</name>
    <description></description>
    <Style>
      <ListStyle id="hideChildren">
        <listItemType>checkHideChildren</listItemType>
      </ListStyle>
    </Style>
    <Region>
      <LatLonAltBox>
        <north>39.34120130403343</north>
        <south>39.34067026099156</south>
        <east>26.69471740722655</east>
        <west>26.69403076171874</west>
      </LatLonAltBox>
      <Lod>
        <minLodPixels>128</minLodPixels>
        <maxLodPixels>-1</maxLodPixels>
      </Lod>
    </Region>
    <GroundOverlay>
      <drawOrder>38</drawOrder>
      <Icon>
        <href>324556.png</href>
      </Icon>
      <LatLonBox>
        <north>39.34120130403343</north>
        <south>39.34067026099156</south>
        <east>26.69471740722655</east>
        <west>26.69403076171874</west>
      </LatLonBox>
    </GroundOverlay>
      </Document>
</kml>
    