<?xml version="1.0" encoding="utf-8"?>
<kml xmlns="http://www.opengis.net/kml/2.2">
  <Document>
    <name>18/150499/162237.kml</name>
    <description></description>
    <Style>
      <ListStyle id="hideChildren">
        <listItemType>checkHideChildren</listItemType>
      </ListStyle>
    </Style>
    <Region>
      <LatLonAltBox>
        <north>39.29817374735305</north>
        <south>39.29711100375496</south>
        <east>26.68029785156250</east>
        <west>26.67892456054688</west>
      </LatLonAltBox>
      <Lod>
        <minLodPixels>128</minLodPixels>
        <maxLodPixels>2048</maxLodPixels>
      </Lod>
    </Region>
    <GroundOverlay>
      <drawOrder>36</drawOrder>
      <Icon>
        <href>162237.png</href>
      </Icon>
      <LatLonBox>
        <north>39.29817374735305</north>
        <south>39.29711100375496</south>
        <east>26.68029785156250</east>
        <west>26.67892456054688</west>
      </LatLonBox>
    </GroundOverlay>

    <NetworkLink>
      <name>19/300998/324474.png</name>
      <Region>
        <LatLonAltBox>
          <north>39.29764237757060</north>
          <south>39.29711100375496</south>
          <east>26.67961120605469</east>
          <west>26.67892456054688</west>
        </LatLonAltBox>
        <Lod>
          <minLodPixels>128</minLodPixels>
          <maxLodPixels>-1</maxLodPixels>
        </Lod>
      </Region>
      <Link>
        <href>../../19/300998/324474.kml</href>
        <viewRefreshMode>onRegion</viewRefreshMode>
        <viewFormat/>
      </Link>
    </NetworkLink>
        
    <NetworkLink>
      <name>19/300999/324474.png</name>
      <Region>
        <LatLonAltBox>
          <north>39.29764237757060</north>
          <south>39.29711100375496</south>
          <east>26.68029785156250</east>
          <west>26.67961120605469</west>
        </LatLonAltBox>
        <Lod>
          <minLodPixels>128</minLodPixels>
          <maxLodPixels>-1</maxLodPixels>
        </Lod>
      </Region>
      <Link>
        <href>../../19/300999/324474.kml</href>
        <viewRefreshMode>onRegion</viewRefreshMode>
        <viewFormat/>
      </Link>
    </NetworkLink>
        
    <NetworkLink>
      <name>19/300998/324475.png</name>
      <Region>
        <LatLonAltBox>
          <north>39.29817374735305</north>
          <south>39.29764237757060</south>
          <east>26.67961120605469</east>
          <west>26.67892456054688</west>
        </LatLonAltBox>
        <Lod>
          <minLodPixels>128</minLodPixels>
          <maxLodPixels>-1</maxLodPixels>
        </Lod>
      </Region>
      <Link>
        <href>../../19/300998/324475.kml</href>
        <viewRefreshMode>onRegion</viewRefreshMode>
        <viewFormat/>
      </Link>
    </NetworkLink>
        
    <NetworkLink>
      <name>19/300999/324475.png</name>
      <Region>
        <LatLonAltBox>
          <north>39.29817374735305</north>
          <south>39.29764237757060</south>
          <east>26.68029785156250</east>
          <west>26.67961120605469</west>
        </LatLonAltBox>
        <Lod>
          <minLodPixels>128</minLodPixels>
          <maxLodPixels>-1</maxLodPixels>
        </Lod>
      </Region>
      <Link>
        <href>../../19/300999/324475.kml</href>
        <viewRefreshMode>onRegion</viewRefreshMode>
        <viewFormat/>
      </Link>
    </NetworkLink>
              </Document>
</kml>
    