<?xml version="1.0" encoding="utf-8"?>
<kml xmlns="http://www.opengis.net/kml/2.2">
  <Document>
    <name>18/150454/162307.kml</name>
    <description></description>
    <Style>
      <ListStyle id="hideChildren">
        <listItemType>checkHideChildren</listItemType>
      </ListStyle>
    </Style>
    <Region>
      <LatLonAltBox>
        <north>39.37252570201878</north>
        <south>39.37146408801580</south>
        <east>26.61849975585936</east>
        <west>26.61712646484374</west>
      </LatLonAltBox>
      <Lod>
        <minLodPixels>128</minLodPixels>
        <maxLodPixels>2048</maxLodPixels>
      </Lod>
    </Region>
    <GroundOverlay>
      <drawOrder>36</drawOrder>
      <Icon>
        <href>162307.png</href>
      </Icon>
      <LatLonBox>
        <north>39.37252570201878</north>
        <south>39.37146408801580</south>
        <east>26.61849975585936</east>
        <west>26.61712646484374</west>
      </LatLonBox>
    </GroundOverlay>

    <NetworkLink>
      <name>19/300908/324614.png</name>
      <Region>
        <LatLonAltBox>
          <north>39.37199489703496</north>
          <south>39.37146408801580</south>
          <east>26.61781311035155</east>
          <west>26.61712646484374</west>
        </LatLonAltBox>
        <Lod>
          <minLodPixels>128</minLodPixels>
          <maxLodPixels>-1</maxLodPixels>
        </Lod>
      </Region>
      <Link>
        <href>../../19/300908/324614.kml</href>
        <viewRefreshMode>onRegion</viewRefreshMode>
        <viewFormat/>
      </Link>
    </NetworkLink>
        
    <NetworkLink>
      <name>19/300909/324614.png</name>
      <Region>
        <LatLonAltBox>
          <north>39.37199489703496</north>
          <south>39.37146408801580</south>
          <east>26.61849975585936</east>
          <west>26.61781311035155</west>
        </LatLonAltBox>
        <Lod>
          <minLodPixels>128</minLodPixels>
          <maxLodPixels>-1</maxLodPixels>
        </Lod>
      </Region>
      <Link>
        <href>../../19/300909/324614.kml</href>
        <viewRefreshMode>onRegion</viewRefreshMode>
        <viewFormat/>
      </Link>
    </NetworkLink>
        
    <NetworkLink>
      <name>19/300908/324615.png</name>
      <Region>
        <LatLonAltBox>
          <north>39.37252570201878</north>
          <south>39.37199489703496</south>
          <east>26.61781311035155</east>
          <west>26.61712646484374</west>
        </LatLonAltBox>
        <Lod>
          <minLodPixels>128</minLodPixels>
          <maxLodPixels>-1</maxLodPixels>
        </Lod>
      </Region>
      <Link>
        <href>../../19/300908/324615.kml</href>
        <viewRefreshMode>onRegion</viewRefreshMode>
        <viewFormat/>
      </Link>
    </NetworkLink>
        
    <NetworkLink>
      <name>19/300909/324615.png</name>
      <Region>
        <LatLonAltBox>
          <north>39.37252570201878</north>
          <south>39.37199489703496</south>
          <east>26.61849975585936</east>
          <west>26.61781311035155</west>
        </LatLonAltBox>
        <Lod>
          <minLodPixels>128</minLodPixels>
          <maxLodPixels>-1</maxLodPixels>
        </Lod>
      </Region>
      <Link>
        <href>../../19/300909/324615.kml</href>
        <viewRefreshMode>onRegion</viewRefreshMode>
        <viewFormat/>
      </Link>
    </NetworkLink>
              </Document>
</kml>
    