<?xml version="1.0" encoding="utf-8"?>
<kml xmlns="http://www.opengis.net/kml/2.2">
  <Document>
    <name>19/300982/324599.kml</name>
    <description></description>
    <Style>
      <ListStyle id="hideChildren">
        <listItemType>checkHideChildren</listItemType>
      </ListStyle>
    </Style>
    <Region>
      <LatLonAltBox>
        <north>39.36403233804798</north>
        <south>39.36350146850091</south>
        <east>26.66862487792970</east>
        <west>26.66793823242189</west>
      </LatLonAltBox>
      <Lod>
        <minLodPixels>128</minLodPixels>
        <maxLodPixels>-1</maxLodPixels>
      </Lod>
    </Region>
    <GroundOverlay>
      <drawOrder>38</drawOrder>
      <Icon>
        <href>324599.png</href>
      </Icon>
      <LatLonBox>
        <north>39.36403233804798</north>
        <south>39.36350146850091</south>
        <east>26.66862487792970</east>
        <west>26.66793823242189</west>
      </LatLonBox>
    </GroundOverlay>
      </Document>
</kml>
    