<?xml version="1.0" encoding="utf-8"?>
<kml xmlns="http://www.opengis.net/kml/2.2">
  <Document>
    <name>19/300929/324530.kml</name>
    <description></description>
    <Style>
      <ListStyle id="hideChildren">
        <listItemType>checkHideChildren</listItemType>
      </ListStyle>
    </Style>
    <Region>
      <LatLonAltBox>
        <north>39.32739287379205</north>
        <south>39.32686172585973</south>
        <east>26.63223266601563</east>
        <west>26.63154602050782</west>
      </LatLonAltBox>
      <Lod>
        <minLodPixels>128</minLodPixels>
        <maxLodPixels>-1</maxLodPixels>
      </Lod>
    </Region>
    <GroundOverlay>
      <drawOrder>38</drawOrder>
      <Icon>
        <href>324530.png</href>
      </Icon>
      <LatLonBox>
        <north>39.32739287379205</north>
        <south>39.32686172585973</south>
        <east>26.63223266601563</east>
        <west>26.63154602050782</west>
      </LatLonBox>
    </GroundOverlay>
      </Document>
</kml>
    