<?xml version="1.0" encoding="utf-8"?>
<kml xmlns="http://www.opengis.net/kml/2.2">
  <Document>
    <name>19/301002/324483.kml</name>
    <description></description>
    <Style>
      <ListStyle id="hideChildren">
        <listItemType>checkHideChildren</listItemType>
      </ListStyle>
    </Style>
    <Region>
      <LatLonAltBox>
        <north>39.30242456041487</north>
        <south>39.30189322289872</south>
        <east>26.68235778808594</east>
        <west>26.68167114257812</west>
      </LatLonAltBox>
      <Lod>
        <minLodPixels>128</minLodPixels>
        <maxLodPixels>-1</maxLodPixels>
      </Lod>
    </Region>
    <GroundOverlay>
      <drawOrder>38</drawOrder>
      <Icon>
        <href>324483.png</href>
      </Icon>
      <LatLonBox>
        <north>39.30242456041487</north>
        <south>39.30189322289872</south>
        <east>26.68235778808594</east>
        <west>26.68167114257812</west>
      </LatLonBox>
    </GroundOverlay>
      </Document>
</kml>
    