<?xml version="1.0" encoding="utf-8"?>
<kml xmlns="http://www.opengis.net/kml/2.2">
  <Document>
    <name>17/75232/81158.kml</name>
    <description></description>
    <Style>
      <ListStyle id="hideChildren">
        <listItemType>checkHideChildren</listItemType>
      </ListStyle>
    </Style>
    <Region>
      <LatLonAltBox>
        <north>39.38314095425650</north>
        <south>39.38101803294520</south>
        <east>26.63360595703125</east>
        <west>26.63085937500001</west>
      </LatLonAltBox>
      <Lod>
        <minLodPixels>128</minLodPixels>
        <maxLodPixels>2048</maxLodPixels>
      </Lod>
    </Region>
    <GroundOverlay>
      <drawOrder>34</drawOrder>
      <Icon>
        <href>81158.png</href>
      </Icon>
      <LatLonBox>
        <north>39.38314095425650</north>
        <south>39.38101803294520</south>
        <east>26.63360595703125</east>
        <west>26.63085937500001</west>
      </LatLonBox>
    </GroundOverlay>

    <NetworkLink>
      <name>18/150464/162316.png</name>
      <Region>
        <LatLonAltBox>
          <north>39.38207950167204</north>
          <south>39.38101803294520</south>
          <east>26.63223266601563</east>
          <west>26.63085937500001</west>
        </LatLonAltBox>
        <Lod>
          <minLodPixels>128</minLodPixels>
          <maxLodPixels>-1</maxLodPixels>
        </Lod>
      </Region>
      <Link>
        <href>../../18/150464/162316.kml</href>
        <viewRefreshMode>onRegion</viewRefreshMode>
        <viewFormat/>
      </Link>
    </NetworkLink>
        
    <NetworkLink>
      <name>18/150465/162316.png</name>
      <Region>
        <LatLonAltBox>
          <north>39.38207950167204</north>
          <south>39.38101803294520</south>
          <east>26.63360595703125</east>
          <west>26.63223266601563</west>
        </LatLonAltBox>
        <Lod>
          <minLodPixels>128</minLodPixels>
          <maxLodPixels>-1</maxLodPixels>
        </Lod>
      </Region>
      <Link>
        <href>../../18/150465/162316.kml</href>
        <viewRefreshMode>onRegion</viewRefreshMode>
        <viewFormat/>
      </Link>
    </NetworkLink>
        
    <NetworkLink>
      <name>18/150464/162317.png</name>
      <Region>
        <LatLonAltBox>
          <north>39.38314095425650</north>
          <south>39.38207950167204</south>
          <east>26.63223266601563</east>
          <west>26.63085937500001</west>
        </LatLonAltBox>
        <Lod>
          <minLodPixels>128</minLodPixels>
          <maxLodPixels>-1</maxLodPixels>
        </Lod>
      </Region>
      <Link>
        <href>../../18/150464/162317.kml</href>
        <viewRefreshMode>onRegion</viewRefreshMode>
        <viewFormat/>
      </Link>
    </NetworkLink>
        
    <NetworkLink>
      <name>18/150465/162317.png</name>
      <Region>
        <LatLonAltBox>
          <north>39.38314095425650</north>
          <south>39.38207950167204</south>
          <east>26.63360595703125</east>
          <west>26.63223266601563</west>
        </LatLonAltBox>
        <Lod>
          <minLodPixels>128</minLodPixels>
          <maxLodPixels>-1</maxLodPixels>
        </Lod>
      </Region>
      <Link>
        <href>../../18/150465/162317.kml</href>
        <viewRefreshMode>onRegion</viewRefreshMode>
        <viewFormat/>
      </Link>
    </NetworkLink>
              </Document>
</kml>
    