<?xml version="1.0" encoding="utf-8"?>
<kml xmlns="http://www.opengis.net/kml/2.2">
  <Document>
    <name>18/150526/162272.kml</name>
    <description></description>
    <Style>
      <ListStyle id="hideChildren">
        <listItemType>checkHideChildren</listItemType>
      </ListStyle>
    </Style>
    <Region>
      <LatLonAltBox>
        <north>39.33535960868119</north>
        <south>39.33429742980725</south>
        <east>26.71737670898438</east>
        <west>26.71600341796876</west>
      </LatLonAltBox>
      <Lod>
        <minLodPixels>128</minLodPixels>
        <maxLodPixels>2048</maxLodPixels>
      </Lod>
    </Region>
    <GroundOverlay>
      <drawOrder>36</drawOrder>
      <Icon>
        <href>162272.png</href>
      </Icon>
      <LatLonBox>
        <north>39.33535960868119</north>
        <south>39.33429742980725</south>
        <east>26.71737670898438</east>
        <west>26.71600341796876</west>
      </LatLonBox>
    </GroundOverlay>

    <NetworkLink>
      <name>19/301052/324544.png</name>
      <Region>
        <LatLonAltBox>
          <north>39.33482852126136</north>
          <south>39.33429742980725</south>
          <east>26.71669006347657</east>
          <west>26.71600341796876</west>
        </LatLonAltBox>
        <Lod>
          <minLodPixels>128</minLodPixels>
          <maxLodPixels>-1</maxLodPixels>
        </Lod>
      </Region>
      <Link>
        <href>../../19/301052/324544.kml</href>
        <viewRefreshMode>onRegion</viewRefreshMode>
        <viewFormat/>
      </Link>
    </NetworkLink>
        
    <NetworkLink>
      <name>19/301053/324544.png</name>
      <Region>
        <LatLonAltBox>
          <north>39.33482852126136</north>
          <south>39.33429742980725</south>
          <east>26.71737670898438</east>
          <west>26.71669006347657</west>
        </LatLonAltBox>
        <Lod>
          <minLodPixels>128</minLodPixels>
          <maxLodPixels>-1</maxLodPixels>
        </Lod>
      </Region>
      <Link>
        <href>../../19/301053/324544.kml</href>
        <viewRefreshMode>onRegion</viewRefreshMode>
        <viewFormat/>
      </Link>
    </NetworkLink>
        
    <NetworkLink>
      <name>19/301052/324545.png</name>
      <Region>
        <LatLonAltBox>
          <north>39.33535960868119</north>
          <south>39.33482852126136</south>
          <east>26.71669006347657</east>
          <west>26.71600341796876</west>
        </LatLonAltBox>
        <Lod>
          <minLodPixels>128</minLodPixels>
          <maxLodPixels>-1</maxLodPixels>
        </Lod>
      </Region>
      <Link>
        <href>../../19/301052/324545.kml</href>
        <viewRefreshMode>onRegion</viewRefreshMode>
        <viewFormat/>
      </Link>
    </NetworkLink>
        
    <NetworkLink>
      <name>19/301053/324545.png</name>
      <Region>
        <LatLonAltBox>
          <north>39.33535960868119</north>
          <south>39.33482852126136</south>
          <east>26.71737670898438</east>
          <west>26.71669006347657</west>
        </LatLonAltBox>
        <Lod>
          <minLodPixels>128</minLodPixels>
          <maxLodPixels>-1</maxLodPixels>
        </Lod>
      </Region>
      <Link>
        <href>../../19/301053/324545.kml</href>
        <viewRefreshMode>onRegion</viewRefreshMode>
        <viewFormat/>
      </Link>
    </NetworkLink>
              </Document>
</kml>
    