<?xml version="1.0" encoding="utf-8"?>
<kml xmlns="http://www.opengis.net/kml/2.2">
  <Document>
    <name>19/300900/324580.kml</name>
    <description></description>
    <Style>
      <ListStyle id="hideChildren">
        <listItemType>checkHideChildren</listItemType>
      </ListStyle>
    </Style>
    <Region>
      <LatLonAltBox>
        <north>39.35394512666976</north>
        <south>39.35341418045878</south>
        <east>26.61231994628905</east>
        <west>26.61163330078124</west>
      </LatLonAltBox>
      <Lod>
        <minLodPixels>128</minLodPixels>
        <maxLodPixels>-1</maxLodPixels>
      </Lod>
    </Region>
    <GroundOverlay>
      <drawOrder>38</drawOrder>
      <Icon>
        <href>324580.png</href>
      </Icon>
      <LatLonBox>
        <north>39.35394512666976</north>
        <south>39.35341418045878</south>
        <east>26.61231994628905</east>
        <west>26.61163330078124</west>
      </LatLonBox>
    </GroundOverlay>
      </Document>
</kml>
    