<?xml version="1.0" encoding="utf-8"?>
<kml xmlns="http://www.opengis.net/kml/2.2">
  <Document>
    <name>17/75257/81151.kml</name>
    <description></description>
    <Style>
      <ListStyle id="hideChildren">
        <listItemType>checkHideChildren</listItemType>
      </ListStyle>
    </Style>
    <Region>
      <LatLonAltBox>
        <north>39.36827914916011</north>
        <south>39.36615577588528</south>
        <east>26.70227050781249</east>
        <west>26.69952392578124</west>
      </LatLonAltBox>
      <Lod>
        <minLodPixels>128</minLodPixels>
        <maxLodPixels>2048</maxLodPixels>
      </Lod>
    </Region>
    <GroundOverlay>
      <drawOrder>34</drawOrder>
      <Icon>
        <href>81151.png</href>
      </Icon>
      <LatLonBox>
        <north>39.36827914916011</north>
        <south>39.36615577588528</south>
        <east>26.70227050781249</east>
        <west>26.69952392578124</west>
      </LatLonBox>
    </GroundOverlay>

    <NetworkLink>
      <name>18/150514/162302.png</name>
      <Region>
        <LatLonAltBox>
          <north>39.36721747059307</north>
          <south>39.36615577588528</south>
          <east>26.70089721679686</east>
          <west>26.69952392578124</west>
        </LatLonAltBox>
        <Lod>
          <minLodPixels>128</minLodPixels>
          <maxLodPixels>-1</maxLodPixels>
        </Lod>
      </Region>
      <Link>
        <href>../../18/150514/162302.kml</href>
        <viewRefreshMode>onRegion</viewRefreshMode>
        <viewFormat/>
      </Link>
    </NetworkLink>
        
    <NetworkLink>
      <name>18/150515/162302.png</name>
      <Region>
        <LatLonAltBox>
          <north>39.36721747059307</north>
          <south>39.36615577588528</south>
          <east>26.70227050781249</east>
          <west>26.70089721679686</west>
        </LatLonAltBox>
        <Lod>
          <minLodPixels>128</minLodPixels>
          <maxLodPixels>-1</maxLodPixels>
        </Lod>
      </Region>
      <Link>
        <href>../../18/150515/162302.kml</href>
        <viewRefreshMode>onRegion</viewRefreshMode>
        <viewFormat/>
      </Link>
    </NetworkLink>
        
    <NetworkLink>
      <name>18/150514/162303.png</name>
      <Region>
        <LatLonAltBox>
          <north>39.36827914916011</north>
          <south>39.36721747059307</south>
          <east>26.70089721679686</east>
          <west>26.69952392578124</west>
        </LatLonAltBox>
        <Lod>
          <minLodPixels>128</minLodPixels>
          <maxLodPixels>-1</maxLodPixels>
        </Lod>
      </Region>
      <Link>
        <href>../../18/150514/162303.kml</href>
        <viewRefreshMode>onRegion</viewRefreshMode>
        <viewFormat/>
      </Link>
    </NetworkLink>
        
    <NetworkLink>
      <name>18/150515/162303.png</name>
      <Region>
        <LatLonAltBox>
          <north>39.36827914916011</north>
          <south>39.36721747059307</south>
          <east>26.70227050781249</east>
          <west>26.70089721679686</west>
        </LatLonAltBox>
        <Lod>
          <minLodPixels>128</minLodPixels>
          <maxLodPixels>-1</maxLodPixels>
        </Lod>
      </Region>
      <Link>
        <href>../../18/150515/162303.kml</href>
        <viewRefreshMode>onRegion</viewRefreshMode>
        <viewFormat/>
      </Link>
    </NetworkLink>
              </Document>
</kml>
    