<?xml version="1.0" encoding="utf-8"?>
<kml xmlns="http://www.opengis.net/kml/2.2">
  <Document>
    <name>19/300904/324557.kml</name>
    <description></description>
    <Style>
      <ListStyle id="hideChildren">
        <listItemType>checkHideChildren</listItemType>
      </ListStyle>
    </Style>
    <Region>
      <LatLonAltBox>
        <north>39.34173234304089</north>
        <south>39.34120130403343</south>
        <east>26.61506652832030</east>
        <west>26.61437988281249</west>
      </LatLonAltBox>
      <Lod>
        <minLodPixels>128</minLodPixels>
        <maxLodPixels>-1</maxLodPixels>
      </Lod>
    </Region>
    <GroundOverlay>
      <drawOrder>38</drawOrder>
      <Icon>
        <href>324557.png</href>
      </Icon>
      <LatLonBox>
        <north>39.34173234304089</north>
        <south>39.34120130403343</south>
        <east>26.61506652832030</east>
        <west>26.61437988281249</west>
      </LatLonBox>
    </GroundOverlay>
      </Document>
</kml>
    