<?xml version="1.0" encoding="utf-8"?>
<kml xmlns="http://www.opengis.net/kml/2.2">
  <Document>
    <name>19/300977/324615.kml</name>
    <description></description>
    <Style>
      <ListStyle id="hideChildren">
        <listItemType>checkHideChildren</listItemType>
      </ListStyle>
    </Style>
    <Region>
      <LatLonAltBox>
        <north>39.37252570201878</north>
        <south>39.37199489703496</south>
        <east>26.66519165039064</east>
        <west>26.66450500488283</west>
      </LatLonAltBox>
      <Lod>
        <minLodPixels>128</minLodPixels>
        <maxLodPixels>-1</maxLodPixels>
      </Lod>
    </Region>
    <GroundOverlay>
      <drawOrder>38</drawOrder>
      <Icon>
        <href>324615.png</href>
      </Icon>
      <LatLonBox>
        <north>39.37252570201878</north>
        <south>39.37199489703496</south>
        <east>26.66519165039064</east>
        <west>26.66450500488283</west>
      </LatLonBox>
    </GroundOverlay>
      </Document>
</kml>
    