<?xml version="1.0" encoding="utf-8"?>
<kml xmlns="http://www.opengis.net/kml/2.2">
  <Document>
    <name>18/150488/162311.kml</name>
    <description></description>
    <Style>
      <ListStyle id="hideChildren">
        <listItemType>checkHideChildren</listItemType>
      </ListStyle>
    </Style>
    <Region>
      <LatLonAltBox>
        <north>39.37677199661635</north>
        <south>39.37571044717935</south>
        <east>26.66519165039064</east>
        <west>26.66381835937501</west>
      </LatLonAltBox>
      <Lod>
        <minLodPixels>128</minLodPixels>
        <maxLodPixels>2048</maxLodPixels>
      </Lod>
    </Region>
    <GroundOverlay>
      <drawOrder>36</drawOrder>
      <Icon>
        <href>162311.png</href>
      </Icon>
      <LatLonBox>
        <north>39.37677199661635</north>
        <south>39.37571044717935</south>
        <east>26.66519165039064</east>
        <west>26.66381835937501</west>
      </LatLonBox>
    </GroundOverlay>

    <NetworkLink>
      <name>19/300976/324622.png</name>
      <Region>
        <LatLonAltBox>
          <north>39.37624122391557</north>
          <south>39.37571044717935</south>
          <east>26.66450500488283</east>
          <west>26.66381835937501</west>
        </LatLonAltBox>
        <Lod>
          <minLodPixels>128</minLodPixels>
          <maxLodPixels>-1</maxLodPixels>
        </Lod>
      </Region>
      <Link>
        <href>../../19/300976/324622.kml</href>
        <viewRefreshMode>onRegion</viewRefreshMode>
        <viewFormat/>
      </Link>
    </NetworkLink>
        
    <NetworkLink>
      <name>19/300977/324622.png</name>
      <Region>
        <LatLonAltBox>
          <north>39.37624122391557</north>
          <south>39.37571044717935</south>
          <east>26.66519165039064</east>
          <west>26.66450500488283</west>
        </LatLonAltBox>
        <Lod>
          <minLodPixels>128</minLodPixels>
          <maxLodPixels>-1</maxLodPixels>
        </Lod>
      </Region>
      <Link>
        <href>../../19/300977/324622.kml</href>
        <viewRefreshMode>onRegion</viewRefreshMode>
        <viewFormat/>
      </Link>
    </NetworkLink>
        
    <NetworkLink>
      <name>19/300976/324623.png</name>
      <Region>
        <LatLonAltBox>
          <north>39.37677199661635</north>
          <south>39.37624122391557</south>
          <east>26.66450500488283</east>
          <west>26.66381835937501</west>
        </LatLonAltBox>
        <Lod>
          <minLodPixels>128</minLodPixels>
          <maxLodPixels>-1</maxLodPixels>
        </Lod>
      </Region>
      <Link>
        <href>../../19/300976/324623.kml</href>
        <viewRefreshMode>onRegion</viewRefreshMode>
        <viewFormat/>
      </Link>
    </NetworkLink>
        
    <NetworkLink>
      <name>19/300977/324623.png</name>
      <Region>
        <LatLonAltBox>
          <north>39.37677199661635</north>
          <south>39.37624122391557</south>
          <east>26.66519165039064</east>
          <west>26.66450500488283</west>
        </LatLonAltBox>
        <Lod>
          <minLodPixels>128</minLodPixels>
          <maxLodPixels>-1</maxLodPixels>
        </Lod>
      </Region>
      <Link>
        <href>../../19/300977/324623.kml</href>
        <viewRefreshMode>onRegion</viewRefreshMode>
        <viewFormat/>
      </Link>
    </NetworkLink>
              </Document>
</kml>
    