<?xml version="1.0" encoding="utf-8"?>
<kml xmlns="http://www.opengis.net/kml/2.2">
  <Document>
    <name>19/300981/324504.kml</name>
    <description></description>
    <Style>
      <ListStyle id="hideChildren">
        <listItemType>checkHideChildren</listItemType>
      </ListStyle>
    </Style>
    <Region>
      <LatLonAltBox>
        <north>39.31358171652649</north>
        <south>39.31305046371388</south>
        <east>26.66793823242189</east>
        <west>26.66725158691408</west>
      </LatLonAltBox>
      <Lod>
        <minLodPixels>128</minLodPixels>
        <maxLodPixels>-1</maxLodPixels>
      </Lod>
    </Region>
    <GroundOverlay>
      <drawOrder>38</drawOrder>
      <Icon>
        <href>324504.png</href>
      </Icon>
      <LatLonBox>
        <north>39.31358171652649</north>
        <south>39.31305046371388</south>
        <east>26.66793823242189</east>
        <west>26.66725158691408</west>
      </LatLonBox>
    </GroundOverlay>
      </Document>
</kml>
    