<?xml version="1.0" encoding="utf-8"?>
<kml xmlns="http://www.opengis.net/kml/2.2">
  <Document>
    <name>18/150531/162285.kml</name>
    <description></description>
    <Style>
      <ListStyle id="hideChildren">
        <listItemType>checkHideChildren</listItemType>
      </ListStyle>
    </Style>
    <Region>
      <LatLonAltBox>
        <north>39.34916646551957</north>
        <south>39.34810449643775</south>
        <east>26.72424316406250</east>
        <west>26.72286987304688</west>
      </LatLonAltBox>
      <Lod>
        <minLodPixels>128</minLodPixels>
        <maxLodPixels>2048</maxLodPixels>
      </Lod>
    </Region>
    <GroundOverlay>
      <drawOrder>36</drawOrder>
      <Icon>
        <href>162285.png</href>
      </Icon>
      <LatLonBox>
        <north>39.34916646551957</north>
        <south>39.34810449643775</south>
        <east>26.72424316406250</east>
        <west>26.72286987304688</west>
      </LatLonBox>
    </GroundOverlay>

    <NetworkLink>
      <name>19/301062/324570.png</name>
      <Region>
        <LatLonAltBox>
          <north>39.34863548299600</north>
          <south>39.34810449643775</south>
          <east>26.72355651855469</east>
          <west>26.72286987304688</west>
        </LatLonAltBox>
        <Lod>
          <minLodPixels>128</minLodPixels>
          <maxLodPixels>-1</maxLodPixels>
        </Lod>
      </Region>
      <Link>
        <href>../../19/301062/324570.kml</href>
        <viewRefreshMode>onRegion</viewRefreshMode>
        <viewFormat/>
      </Link>
    </NetworkLink>
        
    <NetworkLink>
      <name>19/301063/324570.png</name>
      <Region>
        <LatLonAltBox>
          <north>39.34863548299600</north>
          <south>39.34810449643775</south>
          <east>26.72424316406250</east>
          <west>26.72355651855469</west>
        </LatLonAltBox>
        <Lod>
          <minLodPixels>128</minLodPixels>
          <maxLodPixels>-1</maxLodPixels>
        </Lod>
      </Region>
      <Link>
        <href>../../19/301063/324570.kml</href>
        <viewRefreshMode>onRegion</viewRefreshMode>
        <viewFormat/>
      </Link>
    </NetworkLink>
        
    <NetworkLink>
      <name>19/301062/324571.png</name>
      <Region>
        <LatLonAltBox>
          <north>39.34916646551957</north>
          <south>39.34863548299600</south>
          <east>26.72355651855469</east>
          <west>26.72286987304688</west>
        </LatLonAltBox>
        <Lod>
          <minLodPixels>128</minLodPixels>
          <maxLodPixels>-1</maxLodPixels>
        </Lod>
      </Region>
      <Link>
        <href>../../19/301062/324571.kml</href>
        <viewRefreshMode>onRegion</viewRefreshMode>
        <viewFormat/>
      </Link>
    </NetworkLink>
        
    <NetworkLink>
      <name>19/301063/324571.png</name>
      <Region>
        <LatLonAltBox>
          <north>39.34916646551957</north>
          <south>39.34863548299600</south>
          <east>26.72424316406250</east>
          <west>26.72355651855469</west>
        </LatLonAltBox>
        <Lod>
          <minLodPixels>128</minLodPixels>
          <maxLodPixels>-1</maxLodPixels>
        </Lod>
      </Region>
      <Link>
        <href>../../19/301063/324571.kml</href>
        <viewRefreshMode>onRegion</viewRefreshMode>
        <viewFormat/>
      </Link>
    </NetworkLink>
              </Document>
</kml>
    