<?xml version="1.0" encoding="utf-8"?>
<kml xmlns="http://www.opengis.net/kml/2.2">
  <Document>
    <name>19/300925/324589.kml</name>
    <description></description>
    <Style>
      <ListStyle id="hideChildren">
        <listItemType>checkHideChildren</listItemType>
      </ListStyle>
    </Style>
    <Region>
      <LatLonAltBox>
        <north>39.35872346100049</north>
        <south>39.35819255110333</south>
        <east>26.62948608398439</east>
        <west>26.62879943847657</west>
      </LatLonAltBox>
      <Lod>
        <minLodPixels>128</minLodPixels>
        <maxLodPixels>-1</maxLodPixels>
      </Lod>
    </Region>
    <GroundOverlay>
      <drawOrder>38</drawOrder>
      <Icon>
        <href>324589.png</href>
      </Icon>
      <LatLonBox>
        <north>39.35872346100049</north>
        <south>39.35819255110333</south>
        <east>26.62948608398439</east>
        <west>26.62879943847657</west>
      </LatLonBox>
    </GroundOverlay>
      </Document>
</kml>
    