<?xml version="1.0" encoding="utf-8"?>
<kml xmlns="http://www.opengis.net/kml/2.2">
  <Document>
    <name>17/75227/81138.kml</name>
    <description></description>
    <Style>
      <ListStyle id="hideChildren">
        <listItemType>checkHideChildren</listItemType>
      </ListStyle>
    </Style>
    <Region>
      <LatLonAltBox>
        <north>39.34067026099156</north>
        <south>39.33854604847979</south>
        <east>26.61987304687499</east>
        <west>26.61712646484374</west>
      </LatLonAltBox>
      <Lod>
        <minLodPixels>128</minLodPixels>
        <maxLodPixels>2048</maxLodPixels>
      </Lod>
    </Region>
    <GroundOverlay>
      <drawOrder>34</drawOrder>
      <Icon>
        <href>81138.png</href>
      </Icon>
      <LatLonBox>
        <north>39.34067026099156</north>
        <south>39.33854604847979</south>
        <east>26.61987304687499</east>
        <west>26.61712646484374</west>
      </LatLonBox>
    </GroundOverlay>

    <NetworkLink>
      <name>18/150454/162276.png</name>
      <Region>
        <LatLonAltBox>
          <north>39.33960816280447</north>
          <south>39.33854604847979</south>
          <east>26.61849975585936</east>
          <west>26.61712646484374</west>
        </LatLonAltBox>
        <Lod>
          <minLodPixels>128</minLodPixels>
          <maxLodPixels>-1</maxLodPixels>
        </Lod>
      </Region>
      <Link>
        <href>../../18/150454/162276.kml</href>
        <viewRefreshMode>onRegion</viewRefreshMode>
        <viewFormat/>
      </Link>
    </NetworkLink>
        
    <NetworkLink>
      <name>18/150455/162276.png</name>
      <Region>
        <LatLonAltBox>
          <north>39.33960816280447</north>
          <south>39.33854604847979</south>
          <east>26.61987304687499</east>
          <west>26.61849975585936</west>
        </LatLonAltBox>
        <Lod>
          <minLodPixels>128</minLodPixels>
          <maxLodPixels>-1</maxLodPixels>
        </Lod>
      </Region>
      <Link>
        <href>../../18/150455/162276.kml</href>
        <viewRefreshMode>onRegion</viewRefreshMode>
        <viewFormat/>
      </Link>
    </NetworkLink>
        
    <NetworkLink>
      <name>18/150454/162277.png</name>
      <Region>
        <LatLonAltBox>
          <north>39.34067026099156</north>
          <south>39.33960816280447</south>
          <east>26.61849975585936</east>
          <west>26.61712646484374</west>
        </LatLonAltBox>
        <Lod>
          <minLodPixels>128</minLodPixels>
          <maxLodPixels>-1</maxLodPixels>
        </Lod>
      </Region>
      <Link>
        <href>../../18/150454/162277.kml</href>
        <viewRefreshMode>onRegion</viewRefreshMode>
        <viewFormat/>
      </Link>
    </NetworkLink>
        
    <NetworkLink>
      <name>18/150455/162277.png</name>
      <Region>
        <LatLonAltBox>
          <north>39.34067026099156</north>
          <south>39.33960816280447</south>
          <east>26.61987304687499</east>
          <west>26.61849975585936</west>
        </LatLonAltBox>
        <Lod>
          <minLodPixels>128</minLodPixels>
          <maxLodPixels>-1</maxLodPixels>
        </Lod>
      </Region>
      <Link>
        <href>../../18/150455/162277.kml</href>
        <viewRefreshMode>onRegion</viewRefreshMode>
        <viewFormat/>
      </Link>
    </NetworkLink>
              </Document>
</kml>
    